 2021 1117 2353 46.9 L  27.626  56.166 12.0  SC3 10 0.2 3.5LSC3                1
 GAP=163        0.00       1.9     1.9303.5                                    E
 2021-11-17-2353-46.BIN__087                                                   6
 ACTION:NEW 22-01-03 05:15 OP:SEIS STATUS:               ID:20211117235346     I
 STAT SP IPHASW D HRMM SECON CODA AMPLIT PERI AZIMU VELO AIN AR TRES W  DIS CAZ7
 JSSH BZ EPn  0   2354 22.82                                     0.0    226 147 
 KRBR BZ EPn  4   2354 25.25                                    -3.1    268  13 
 LMD1 BZ EPn  0   2354 32.24                                     0.3    298 264 
 GHIR BZ EPn  0   2354 34.94                                     0.1    321 283 
 ZHSF BZ EPn  4   2354 35.06                                   -22.1    501  64 
 YZKH BZ EPn  0   2355  3.42                                     0.1    550 344 
 NASN BZ EPn  0   2355 16.26                                    -0.6    658 331 
 GTMR BZ EPn  0   2355 41.60                                    -0.9    867 308 
 KHMZ BZ EPn  0   2355 46.21                                    -0.8    901 319 
 ASAO BZ EPn  0   2355 54.80                                    -0.2    966 323 
 JSSH BZ  IAML    2354 22.82         0.6 1.00                           226 147 
 LMD1 BZ  IAML    2354 32.24         0.7 1.00                           298 264 
 YZKH BZ  IAML    2355  3.42        0.04 1.00                           550 344 
 NASN BZ  IAML    2355 16.26        0.02 1.00                           658 331 
                                                                                
 2021 1118 0150 46.1 L  27.673  56.085 10.0  SC3  9 0.5 3.4LSC3                1
 GAP=167        0.00       4.2     4.2  4.5                                    E
 2021-11-18-0150-46.BIN__087                                                   6
 ACTION:NEW 22-01-04 08:03 OP:SEIS STATUS:               ID:20211118015046     I
 STAT SP IPHASW D HRMM SECON CODA AMPLIT PERI AZIMU VELO AIN AR TRES W  DIS CAZ7
 BNDS BZ EPg  0   0150 51.67                                    -0.4     32 164 
 JSSH BZ EPn  0   0151 24.05                                     0.7    234 146 
 KRBR BZ EPn  0   0151 26.29                                    -1.1    264  14 
 CHBR BZ EPn  0   0151 55.68                                     0.0    495 118 
 YZKH BZ EPn  0   0152  2.67                                     0.8    542 345 
 NASN BZ EPn  0   0152 15.53                                     0.2    650 331 
 TABS BZ EPn  0   0152 16.96                                    -0.6    670   9 
 SHRT BZ EPn  0   0152 31.24                                     0.6    775  31 
 GTMR BZ EPn  4   0152 34.27                                    -6.5    857 308 
 BNDS BZ  IAML    0150 51.67       2e+01 1.00                            32 164 
 JSSH BZ  IAML    0151 24.05         0.4 1.00                           234 146 
 KRBR BZ  IAML    0151 26.29         0.5 1.00                           264  14 
 CHBR BZ  IAML    0151 55.68        0.06 1.00                           495 118 
 NASN BZ  IAML    0152 15.53        0.02 1.00                           650 331 
 SHRT BZ  IAML    0152 31.24        0.01 1.00                           775  31 
                                                                                
 2021 1118 0218 15.3 L  27.562  56.251 14.0  SC3 10 0.1 3.3LSC3                1
 GAP=108        0.00       1.2     1.2  3.3                                    E
 2021-11-18-0218-15.BIN__087                                                   6
 ACTION:NEW 22-01-04 07:54 OP:SEIS STATUS:               ID:20211118021815     I
 STAT SP IPHASW D HRMM SECON CODA AMPLIT PERI AZIMU VELO AIN AR TRES W  DIS CAZ7
 BNDS BZ EPg  0   0218 19.64                                     0.0     20 203 
 JSSH BZ EPn  0   0218 49.49                                    -0.2    215 148 
 KRBR BZ EPn  4   0218 53.08                                    -4.1    273  11 
 GHIR BZ EPn  0   0219  4.30                                     0.1    331 284 
 YZKH BZ EPn  0   0219 32.48                                    -0.1    559 343 
 SRVN BZ EPn  0   0219 38.69                                     0.1    608  92 
 NASN BZ EPn  0   0219 45.92                                    -0.4    668 330 
 GTMR BZ EPn  0   0220 10.72                                    -1.3    878 308 
 ASAO BZ EPn  0   0220 24.32                                    -0.1    976 323 
 ILBA BZ EPn  4   0220 47.03                                    -1.9   1174 305 
 BNDS BZ  IAML    0218 19.64       2e+01 1.00                            20 203 
 JSSH BZ  IAML    0218 49.49         0.5 1.00                           215 148 
 YZKH BZ  IAML    0219 32.48        0.03 1.00                           559 343 
                                                                                
 2021 1118 1202 52.1 L  27.545  56.117 12.0  SC3 10 0.5 3.5LSC3                1
 GAP=123        0.00       2.3     2.3  2.7                                    E
 2021-11-18-1202-52.BIN__084                                                   6
 ACTION:NEW 21-11-20 08:06 OP:SEIS STATUS:               ID:20211118120252     I
 STAT SP IPHASW D HRMM SECON CODA AMPLIT PERI AZIMU VELO AIN AR TRES W  DIS CAZ7
 BNDS BZ EPg  0   1202 55.37                                    -0.6     17 161 
 JSSH BZ EPn  0   1203 27.57                                     0.2    221 145 
 KRBR BZ EPn  4   1203 29.69                                    -5.1    277  13 
 GHIR BZ EPn  0   1203 40.03                                     0.3    319 285 
 YZKH BZ EPn  0   1204  8.82                                    -0.6    557 345 
 BSRN BZ EPn  0   1204 11.02                                     0.1    570  31 
 KLNJ BZ EPn  0   1204 13.24                                     0.4    584 311 
 SRVN BZ EPn  0   1204 17.65                                     0.4    621  91 
 NASN BZ EPn  0   1204 21.68                                    -1.1    664 331 
 TABS BZ EPn  0   1204 24.21                                    -0.8    684   8 
 BNDS BZ  IAML    1202 55.37       2e+01 1.00                            17 161 
 JSSH BZ  IAML    1203 27.57         0.8 1.00                           221 145 
 YZKH BZ  IAML    1204  8.82        0.04 1.00                           557 345 
 BSRN BZ  IAML    1204 11.02        0.09 1.00                           570  31 
 KLNJ BZ  IAML    1204 13.24        0.06 1.00                           584 311 
 SRVN BZ  IAML    1204 17.65        0.03 1.00                           621  91 
 NASN BZ  IAML    1204 21.68        0.03 1.00                           664 331 
 TABS BZ  IAML    1204 24.21        0.05 1.00                           684   8 
                                                                                
 2021 1118 1610 41.9 L  27.616  56.114  8.0  SC3 22 0.4 4.3LSC3                1
 GAP= 97        0.00       1.6     1.6  2.6                                    E
 2021-11-18-1610-41.BIN__092                                                   6
 ACTION:NEW 21-11-20 08:29 OP:SEIS STATUS:               ID:20211118161041     I
 STAT SP IPHASW D HRMM SECON CODA AMPLIT PERI AZIMU VELO AIN AR TRES W  DIS CAZ7
 BNDS BZ EPg  0   1610 46.70                                     0.1     25 167 
 JSSH BZ EPn  0   1611 18.78                                     0.3    228 146 
 KRBR BZ EPn  4   1611 19.73                                    -4.3    270  14 
 LMD1 BZ EPn  0   1611 26.39                                    -0.2    293 264 
 GHIR BZ EPn  0   1611 30.28                                     0.6    317 284 
 CHBR BZ EPn  0   1611 50.35                                    -0.6    489 117 
 AHRM BZ EPn  0   1611 53.24                                    -0.1    509 286 
 YZKH BZ EPn  0   1611 58.91                                     0.2    549 344 
 KLNJ BZ EPn  0   1612  1.69                                    -0.7    578 311 
 SRVN BZ EPn  0   1612  7.64                                     0.1    621  92 
 NASN BZ EPn  0   1612 11.82                                    -0.3    657 331 
 TABS BZ EPn  0   1612 13.57                                    -0.7    676   8 
 SHRT BZ EPn  0   1612 27.92                                     0.8    779  31 
 GTMR BZ EPn  4   1612 35.90                                    -1.6    864 309 
 KHMZ BZ EPn  0   1612 41.19                                    -0.9    899 319 
 TBJM BZ EPn  0   1612 47.35                                     0.4    938  25 
 ASAO BZ EPn  0   1612 49.26                                    -0.9    963 323 
 GLO  BZ EPn  0   1612 55.71                                    -0.0   1009 348 
 ABGH BZ EPn  0   1612 56.95                                     0.1   1019 353 
 CHTH BZ EPn  0   1612 58.14                                    -0.8   1034 333 
 QABG BZ EPn  0   1613  6.48                                     0.6   1090 325 
 KAGH BZ EPn  0   1613  7.36                                     0.9   1095  19 
 BNDS BZ  IAML    1610 46.70       2e+02 1.00                            25 167 
 JSSH BZ  IAML    1611 18.78           4 1.00                           228 146 
 LMD1 BZ  IAML    1611 26.39           2 1.00                           293 264 
 CHBR BZ  IAML    1611 50.35         0.5 1.00                           489 117 
 AHRM BZ  IAML    1611 53.24         0.1 1.00                           509 286 
 YZKH BZ  IAML    1611 58.91         0.2 1.00                           549 344 
 KLNJ BZ  IAML    1612  1.69         0.4 1.00                           578 311 
 SRVN BZ  IAML    1612  7.64         0.1 1.00                           621  92 
 NASN BZ  IAML    1612 11.82         0.3 1.00                           657 331 
 TABS BZ  IAML    1612 13.57         0.2 1.00                           676   8 
 SHRT BZ  IAML    1612 27.92         0.1 1.00                           779  31 
                                                                                
 2021 1118 2050 51.2 L  27.642  56.123 10.2  SC3  7 0.1 3.4LSC3                1
 GAP=185        0.00       2.8     2.8  5.7                                    E
 2021-11-18-2050-51.BIN__084                                                   6
 ACTION:NEW 21-11-20 07:53 OP:SEIS STATUS:               ID:20211118205051     I
 STAT SP IPHASW D HRMM SECON CODA AMPLIT PERI AZIMU VELO AIN AR TRES W  DIS CAZ7
 BNDS BZ EPg  0   2050 56.51                                    -0.0     27 170 
 KRBR BZ EPn  4   2051 28.37                                    -4.4    267  13 
 GHIR BZ EPn  0   2051 38.77                                    -0.0    317 283 
 YZKH BZ EPn  0   2052  7.40                                    -0.1    547 344 
 NASN BZ EPn  0   2052 20.97                                     0.0    655 331 
 KHMZ BZ EPn  0   2052 51.20                                     0.2    897 319 
 ASAO BZ EPn  0   2052 59.07                                     0.0    962 323 
 BNDS BZ  IAML    2050 56.51       2e+01 1.00                            27 170 
 YZKH BZ  IAML    2052  7.40        0.04 1.00                           547 344 
 NASN BZ  IAML    2052 20.97        0.03 1.00                           655 331 
                                                                                
 2021 1118 2120  6.8 L  27.604  56.157 12.0  SC3 10 0.4 3.3LSC3                1
 GAP= 88        0.00       2.2     2.2  3.2                                    E
 2021-11-18-2120-06.BIN__084                                                   6
 ACTION:NEW 21-11-20 07:58 OP:SEIS STATUS:               ID:20211118212006     I
 STAT SP IPHASW D HRMM SECON CODA AMPLIT PERI AZIMU VELO AIN AR TRES W  DIS CAZ7
 BNDS BZ EPg  0   2120 10.94                                    -0.6     23 176 
 JSSH BZ EPn  0   2120 42.35                                    -0.2    224 147 
 KRBR BZ EPn  4   2120 43.63                                    -5.0    270  13 
 LMD1 BZ EPn  0   2120 52.22                                     0.6    297 264 
 GHIR BZ EPn  0   2120 55.37                                     0.6    321 284 
 YZKH BZ EPn  0   2121 23.33                                    -0.2    552 344 
 BSRN BZ EPn  0   2121 24.81                                     0.1    562  31 
 KLNJ BZ EPn  0   2121 27.08                                    -0.3    582 310 
 SRVN BZ EPn  0   2121 31.89                                     0.4    617  92 
 NASN BZ EPn  0   2121 36.32                                    -0.7    660 331 
 BNDS BZ  IAML    2120 10.94       2e+01 1.00                            23 176 
 JSSH BZ  IAML    2120 42.35         0.2 1.00                           224 147 
 LMD1 BZ  IAML    2120 52.22         0.4 1.00                           297 264 
 YZKH BZ  IAML    2121 23.33        0.05 1.00                           552 344 
 BSRN BZ  IAML    2121 24.81        0.03 1.00                           562  31 
 KLNJ BZ  IAML    2121 27.08        0.04 1.00                           582 310 
 SRVN BZ  IAML    2121 31.89        0.01 1.00                           617  92 
 NASN BZ  IAML    2121 36.32        0.01 1.00                           660 331 
                                                                                
 2021 1118 2305 21.0 L  27.632  56.191 12.0  SC3 11 0.4 3.6LSC3                1
 GAP=118        0.00       2.4     2.4  3.3                                    E
 2021-11-18-2305-21.BIN__084                                                   6
 ACTION:NEW 21-11-20 07:41 OP:SEIS STATUS:               ID:20211118230521     I
 STAT SP IPHASW D HRMM SECON CODA AMPLIT PERI AZIMU VELO AIN AR TRES W  DIS CAZ7
 BNDS BZ EPg  0   2305 26.02                                    -0.1     26 184 
 JSSH BZ EPn  0   2305 56.88                                     0.1    225 148 
 KRBR BZ EPn  4   2305 54.76                                    -7.5    266  12 
 LMD1 BZ EPn  0   2306  6.80                                     0.5    301 264 
 GHIR BZ EPn  0   2306  8.52                                    -0.7    324 283 
 ZHSF BZ EPn  4   2306  8.70                                   -22.3    498  64 
 YZKH BZ EPn  0   2306 38.03                                     0.6    550 344 
 KLNJ BZ EPn  0   2306 41.15                                    -0.5    583 310 
 NASN BZ EPn  0   2306 51.19                                     0.2    659 330 
 TABS BZ EPn  0   2306 51.74                                    -0.8    673   8 
 SHRT BZ EPn  0   2307  5.35                                     0.2    774  31 
 JSSH BZ  IAML    2305 56.88         0.6 1.00                           225 148 
 KLNJ BZ  IAML    2306 41.15        0.06 1.00                           583 310 
 NASN BZ  IAML    2306 51.19        0.02 1.00                           659 330 
 TABS BZ  IAML    2306 51.74        0.05 1.00                           673   8 
 SHRT BZ  IAML    2307  5.35        0.02 1.00                           774  31 
                                                                                
 2021 1119 1034 24.2 L  27.651  56.128 12.0  SC3 13 0.4 3.6LSC3                1
 GAP= 92        0.00       1.3     1.3  2.0                                    E
 2021-11-19-1034-24.BIN__084                                                   6
 ACTION:NEW 21-11-20 06:54 OP:SEIS STATUS:               ID:20211119103424     I
 STAT SP IPHASW D HRMM SECON CODA AMPLIT PERI AZIMU VELO AIN AR TRES W  DIS CAZ7
 BNDS BZ EPg  0   1034 29.04                                    -0.7     28 171 
 JSSH BZ EPn  0   1035  0.93                                     0.3    230 147 
 KRBR BZ EPn  4   1035  0.26                                    -5.2    266  13 
 LMD1 BZ EPn  0   1035  9.09                                     0.3    295 263 
 GHIR BZ EPn  0   1035 11.90                                     0.3    317 283 
 YZKH BZ EPn  0   1035 40.09                                    -0.1    546 344 
 KLNJ BZ EPn  0   1035 43.72                                    -0.4    577 310 
 SRVN BZ EPn  0   1035 49.53                                     0.2    620  93 
 NASN BZ EPn  0   1035 52.88                                    -0.8    654 331 
 TABS BZ EPn  0   1035 55.30                                    -0.4    672   8 
 GTMR BZ EPn  4   1036 15.94                                    -3.3    862 308 
 KHMZ BZ EPn  0   1036 22.79                                    -1.0    897 319 
 ASAO BZ EPn  4   1036 29.57                                    -2.2    961 323 
 BNDS BZ  IAML    1034 29.04       3e+01 1.00                            28 171 
 JSSH BZ  IAML    1035  0.93         0.5 1.00                           230 147 
 LMD1 BZ  IAML    1035  9.09           1 1.00                           295 263 
 YZKH BZ  IAML    1035 40.09        0.09 1.00                           546 344 
 SRVN BZ  IAML    1035 49.53        0.02 1.00                           620  93 
 NASN BZ  IAML    1035 52.88        0.03 1.00                           654 331 
 TABS BZ  IAML    1035 55.30        0.05 1.00                           672   8 
                                                                                
 2021 1119 1852  9.4 L  27.663  56.273 12.0  SC3 19 0.4 4.1LSC3                1
 GAP=113        0.00       1.5     1.5479.1                                    E
 2021-11-19-1852-09.BIN__084                                                   6
 ACTION:NEW 21-11-20 06:39 OP:SEIS STATUS:               ID:20211119185209     I
 STAT SP IPHASW D HRMM SECON CODA AMPLIT PERI AZIMU VELO AIN AR TRES W  DIS CAZ7
 JSSH BZ EPn  0   1852 44.98                                    -0.1    224 150 
 KRBR BZ EPn  0   1852 50.24                                     0.1    261  10 
 LMD1 BZ EPn  0   1852 55.82                                     0.1    309 263 
 GHIR BZ EPn  0   1852 58.57                                     0.1    331 282 
 CHBR BZ EPn  0   1853 16.16                                    -0.4    478 119 
 YZKH BZ EPn  0   1853 24.80                                    -0.9    549 343 
 KLNJ BZ EPn  4   1853 28.44                                    -2.1    587 309 
 SRVN BZ EPn  0   1853 33.59                                     0.9    606  93 
 NASN BZ EPn  0   1853 38.45                                    -1.1    660 330 
 TABS BZ EPn  0   1853 40.03                                    -0.4    669   7 
 SHRT BZ EPn  0   1853 52.72                                     0.1    767  30 
 GTMR BZ EPn  4   1854  2.90                                    -2.8    872 308 
 KHMZ BZ EPn  4   1854  8.01                                    -1.9    905 318 
 TBJM BZ EPn  0   1854 12.59                                    -0.1    927  25 
 ASAO BZ EPn  4   1854 16.33                                    -1.5    968 322 
 GLO  BZ EPn  0   1854 22.85                                     0.2   1007 347 
 ABGH BZ EPn  0   1854 23.00                                    -0.6   1016 352 
 CHTH BZ EPn  0   1854 25.68                                    -0.6   1036 332 
 KAGH BZ EPn  0   1854 32.75                                     0.5   1086  19 
 JSSH BZ  IAML    1852 44.98           2 1.00                           224 150 
 KRBR BZ  IAML    1852 50.24           3 1.00                           261  10 
 LMD1 BZ  IAML    1852 55.82           1 1.00                           309 263 
 CHBR BZ  IAML    1853 16.16         0.3 1.00                           478 119 
 YZKH BZ  IAML    1853 24.80         0.1 1.00                           549 343 
 SRVN BZ  IAML    1853 33.59        0.09 1.00                           606  93 
 NASN BZ  IAML    1853 38.45        0.07 1.00                           660 330 
 TABS BZ  IAML    1853 40.03         0.2 1.00                           669   7 
 SHRT BZ  IAML    1853 52.72        0.08 1.00                           767  30 
                                                                                
