 2021 1114 1619 57.4 L  27.508  56.149 18.6  Teh 46 0.4 4.4LTeh                1
 GAP=88                                                                        E
 Iranian Seismological Center, Institute of Geophysics, University of Tehran   6
 STAT SP IPHASW D HRMM SECON CODA AMPLIT PERI AZIMU VELO SNR AR TRES  W DIS CAZ7
 MZN1 BZ E    0   1621  0.58     42657.8 1.08                           160 293
 KHGB BZ E    0   1621 44.32      6942.6 0.84                           319   6
 TAFT BZ E    0   1621 24.54      2947.6 0.56                           505 338
 CHMN BZ E    0   1621 32.48     11712.8 0.92                           294  27
 KBAM BZ E    0   1621 25.10     13530.2 0.52                           289  51
 KSHB BZ E    0   1621 45.34     12218.0    1                           319 342
 NGCH BZ E    0   1621 44.18      3332.6  0.8                           551 114
 NHDN BZ E    0   1622 54.78      4317.1 0.84                           573  40
 KRVR BZ E    0   1622 20.36       -99.0 1.08                           464   8
 KANR BZ E    0   1621 51.62      7767.4 0.76                           387 349
 BNDS BZ EPg  0   1620 1.3                                      -0.2   12.0 170
 SHI  BZ E    0   1622 25.78      4044.8 1.16                           426 304
 BAZ1 BZ E    0   1621 57.78      4815.4    1                           400  84
 MZN1 BE EPg  0   1620 24.8                                      0.5    160 293
 JASK BZ EPn  0   1620 35.0                                     -0.3    249 136
 JHRM BZ EPn  0   1620 38.1                                     -0.6    276 294
 KBAM BZ EPn  0   1620 40.3                                     -0.0    289  51
 UOSS BZ EPn  0   1620 40.3                                      0.7    284 179
 CHMN BZ EPn  0   1620 41.0                                     -0.2    294  27
 LMD1 BZ EPn  0   1620 41.2                                      0.1    296 267
 KHGB BZ EPn  0   1620 44.3                                      0.1    319   6
 KSHB BZ EPn  0   1620 44.5                                      0.3    319 342
 KANR BZ EPn  0   1620 52.7                                      0.1    387 349
 BAZ1 BZ EPn  0   1620 53.6                                     -0.5    400  84
 SHI  BZ EPn  0   1620 57.3                                     -0.1    426 304
 HOQ  BZ EPn  0   1620 59.8                                     -0.4    450 165
 KRVR BZ EPn  0   1621 1.9                                      -0.2    464   8
 KAZ2 SN EPn  0   1621 6.2                                       0.1    497 299
 TAFT BZ EPn  0   1621 7.4                                       0.2    505 338
 NGCH BZ EPn  0   1621 12.7                                      0.0    551 114
 NHDN BZ EPn  0   1621 15.9                                      0.3    573  40
 KLNJ BZ EPn  0   1621 17.1                                     -0.7    588 312
 TPRV BZ EPn  4   1621 20.3                                     -0.4    614   5
 SRVN BZ EPn  0   1621 21.9                                      0.7    618  90
 ANAR BZ EPn  4   1621 27.4                                     -0.4    671 340
 TSHB BZ EPn  4   1621 28.5                                     -1.1    686   2
 BRJ  SZ EPn  0   1621 29.0                                      0.1    679 317
 TKDS BZ EPn  4   1621 29.1                                     -0.2    683   8
 ZEF  SZ EPn  4   1621 30.4                                     -1.3    701 329
 AFRZ BZ EPn  4   1621 31.8                                     -1.0    711  22
 ZNGN BZ EPn  4   1621 36.0                                      1.6    723 316
 JHBN BZ EPn  4   1621 36.3                                     -0.8    744 316
 PIR  SZ EPn  4   1621 38.9                                     -0.7    765 320
 KLH  SE EPn  4   1621 40.9                                     -0.4    779 327
 SHRT BZ EPn  4   1621 41.8                                     -0.3    788  29
 TAPT BZ EPn  4   1621 45.5                                     -1.2    823   6
 VRN  BZ EPn  4   1621 59.5                                     -0.4    930 334
 TBJM BZ EPn  4   1622 1.6                                      -0.5    947  24
 FIR  BZ EPn  4   1622 2.4                                      -1.0    957 341
 DMV  SZ EPn  4   1622 5.3                                      -0.5    976 337
 GLO  SN EPn  4   1622 12.4                                      1.1   1021 348
 PRN  SZ EPn  4   1622 12.9                                      0.2   1033 341
 AKL  SZ EPn  4   1622 13.0                                     -0.3   1037  13
 SFR  SZ EPn  4   1622 17.0                                     -0.7   1072   9
 MZPU BZ EPn  4   1622 18.7                                      0.1   1080 338
 GZV  SZ EPn  4   1622 24.2                                     -1.0   1132 332
 SNQR BZ EPn  4   1622 24.5                                     -2.8   1149 317
 SNJK BZ EPn  4   1622 34.4                                     -2.8   1229 318

 2021 1114 1634 13.2 L  27.506  56.243 17.9  Teh 12 0.3 3.3LTeh                1
 GAP=88                                                                        E
 Iranian Seismological Center, Institute of Geophysics, University of Tehran   6
 STAT SP IPHASW D HRMM SECON CODA AMPLIT PERI AZIMU VELO SNR AR TRES  W DIS CAZ7
 KBAM BZ E    0   1635 39.92      1991.7 0.76                           282  50
 MZN1 BZ E    0   1635 18.90      3167.7 0.44                           168 292
 CHMN BZ E    0   1635 38.14      1093.7  0.4                           290  26
 KHGB BZ E    0   1635 48.92       616.6 0.56                           319   4
 JASK BZ E    0   1635 56.00      2817.6 0.68                           243 138
 BNDS BZ EPg  0   1634 17.3                                     -0.1   14.0 211
 KANR BZ E    0   1636  7.60       582.2 0.72                           389 348
 KSHB BZ E    0   1635 56.94      1111.3  0.6                           322 340
 MZN1 BZ EPn  0   1634 41.3                                      0.4    168 292
 JASK BZ EPn  0   1634 50.7                                      0.3    243 138
 KBAM BZ EPn  0   1634 55.3                                     -0.0    282  50
 CHMN BZ EPn  0   1634 56.5                                     -0.1    290  26
 KHGB BZ EPn  0   1635 0.2                                       0.1    319   4
 KANR BZ EPn  0   1635 9.0                                       0.3    389 348
 HOQ  BZ EPn  0   1635 15.5                                     -0.3    447 166
 NHDN BZ EPn  4   1635 29.9                                     -0.9    567  40
 KLNJ BN EPn  0   1635 34.2                                     -0.3    595 312
 ANAR BZ EPn  0   1635 43.7                                     -0.4    675 340

 2021 1114 1701 18.3 L  27.593  56.214 19.8  Teh 18 0.5 3.4LTeh                1
 GAP=98                                                                        E
 Iranian Seismological Center, Institute of Geophysics, University of Tehran   6
 STAT SP IPHASW D HRMM SECON CODA AMPLIT PERI AZIMU VELO SNR AR TRES  W DIS CAZ7
 MZN1 BE E    0   1702 11.52      8399.7 0.44                           162 289
 JASK BZ E    0   1702 53.18      4081.9 0.68                           252 139
 KHGB BZ E    0   1702 11.64       870.8 0.32                           309   5
 CHMN BZ E    0   1702 45.40      1106.7 0.48                           283  27
 KBAM BZ E    0   1702  8.78      1744.3 0.28                           278  52
 BNDS BZ EPg  0   1701 23.6                                     -0.1   22.0 191
 KANR BZ E    0   1703 19.62       714.6 0.64                           379 348
 MZN1 BE EPg  0   1701 45.3                                     -0.4    162 289
 TAFT BZ E    0   1702 44.66       331.8 0.56                           498 337
 KBAM BZ EPn  0   1701 59.5                                     -0.3    278  52
 CHMN BZ EPn  0   1702 0.0                                      -0.5    283  27
 UOSS BZ EPn  0   1702 2.4                                       0.8    293 180
 KHGB BZ EPn  0   1702 3.9                                       0.2    309   5
 KSHB BE EPn  4   1702 4.8                                       0.7    312 340
 MZN1 BZ ESg  0   1702 6.9                                       0.0    162 289
 KANR BZ EPn  0   1702 12.8                                      0.4    379 348
 HOQ  BZ EPn  0   1702 21.0                                     -0.9    458 166
 TAFT BZ EPn  0   1702 27.5                                      0.3    498 337
 NHDN BZ EPn  4   1702 34.8                                     -0.2    562  41
 KLNJ BN EPn  0   1702 37.6                                     -0.7    587 311
 SRVN BZ EPn  0   1702 41.9                                      0.8    611  91
 ANAR BZ EPn  4   1702 47.6                                     -0.2    664 340
 ZNGN BZ EPn  4   1702 55.8                                      0.9    720 315
 PIR  SZ EPn  0   1702 60.0                                     -0.1    762 319
 SFB  BZ EPn  4   1703 9.1                                      -0.3    839 334

 2021 1114 1731 53.4 L  27.571  56.258 10.0  Teh  8 0.5 2.8LTeh                1
 GAP=88                                                                        E
 Iranian Seismological Center, Institute of Geophysics, University of Tehran   6
 STAT SP IPHASW D HRMM SECON CODA AMPLIT PERI AZIMU VELO SNR AR TRES  W DIS CAZ7
 BNDS BZ EPg  0   1731 58.8                                      0.1   21.0 204
 CHMN BZ E    0   1733 20.98       700.5 0.48                           283  26
 KANR BZ E    0   1733 58.20       469.2 1.36                           382 348
 BAF  SZ E    0   1733  4.09       195.6  0.2                           450 352
 MZN1 BZ EPg  0   1732 23.3                                      0.5    167 289
 JASK BZ EPn  0   1732 32.7                                     -0.4    247 139
 KBAM BZ EPn  0   1732 37.5                                      0.6    276  51
 CHMN BZ EPn  0   1732 38.6                                      0.5    283  26
 KHGB BZ EPn  0   1732 41.4                                      0.0    311   4
 KANR BZ EPn  0   1732 49.4                                     -0.7    382 348
 MZN1 BZ E    0   1732 46.96      2775.1 0.28                           167 289
 KBAM BZ E    0   1732 45.48      1295.9 0.36                           276  51
 KHGB BZ E    0   1732 47.70       666.8 0.52                           311   4

 2021 1114 1736 38.3 L  27.647  55.796 10.0  Teh  4 0.9 2.7LTeh                1
 GAP=253                                                                       E
 Iranian Seismological Center, Institute of Geophysics, University of Tehran   6
 STAT SP IPHASW D HRMM SECON CODA AMPLIT PERI AZIMU VELO SNR AR TRES  W DIS CAZ7
 BNDS BZ EPg  0   1736 47.3                                      0.5   46.0 127
 BNDS BZ ESg  0   1736 52.8                                     -0.4   46.0 127
 BNDS BZ E    0   1736 53.54     85441.2 0.24                          46.0 127
 KRBR BZ EPn  0   1737 19.6                                     -1.4    275  20
 KBAM BZ EPn  0   1737 24.9                                      0.0    308  57
 CHMN BZ EPn  0   1737 25.2                                      1.3    299  34
 KRBR BZ E    0   1737 24.04       571.9 0.44                           275  20
 CHMN BZ E    0   1738  6.12       534.0 0.72                           299  34
 KBAM BZ E    0   1737 32.06      1003.6 0.36                           308  57

 2021 1114 1740 57.6 L  27.556  56.186 13.5  Teh 16 0.5 3.4LTeh                1
 GAP=106                                                                       E
 Iranian Seismological Center, Institute of Geophysics, University of Tehran   6
 STAT SP IPHASW D HRMM SECON CODA AMPLIT PERI AZIMU VELO SNR AR TRES  W DIS CAZ7
 KHGB BZ E    0   1741 50.86       617.3 0.48                           314   5
 JASK BZ E    0   1742 34.30      4481.3 0.44                           251 138
 KBAM BZ E    0   1741 47.62      1690.8  0.6                           283  51
 BNDS BZ EPg  0   1741 1.6                                      -0.1   17.0 185
 CHMN BZ E    0   1742 21.76       971.8 0.68                           288  27
 KRVR BZ E    0   1743 38.54       -99.0    1                           458   8
 TAFT BZ E    0   1742 10.84       288.7 0.24                           501 338
 MZN1 BZ EPg  0   1741 25.0                                      0.3    161 291
 JASK BZ EPn  4   1741 36.2                                      0.0    251 138
 NHDN BZ E    0   1743 48.76       595.9 0.84                           567  40
 KBAM BZ EPn  0   1741 39.9                                     -0.4    283  51
 CHMN BZ EPn  0   1741 40.6                                     -0.5    288  27
 UOSS BZ EPn  0   1741 41.5                                      0.5    289 180
 KHGB BZ EPn  0   1741 44.5                                      0.2    314   5
 KANR BZ EPn  0   1741 52.8                                      0.0    383 349
 HOQ  BZ EPn  0   1742 0.4                                      -1.1    454 165
 BAF  SZ EPn  4   1742 0.5                                      -0.8    451 353
 KRVR BZ EPn  4   1742 1.5                                      -0.6    458   8
 TAFT BZ EPn  0   1742 7.5                                      -0.1    501 338
 NGCH BZ EPn  0   1742 14.0                                      0.7    550 115
 NHDN BZ EPn  4   1742 15.7                                      0.1    567  40
 KLNJ BN EPn  0   1742 18.3                                     -0.0    588 312
 SRVN BZ EPn  0   1742 21.9                                      0.4    614  90

 2021 1114 1750 23.6 L  27.531  56.173 16.2  Teh 21 0.5 3.5LTeh                1
 GAP=111                                                                       E
 Iranian Seismological Center, Institute of Geophysics, University of Tehran   6
 STAT SP IPHASW D HRMM SECON CODA AMPLIT PERI AZIMU VELO SNR AR TRES  W DIS CAZ7
 BAF  SZ E    0   1752 39.84       383.6 0.92                           454 353
 JASK BN E    0   1751 57.08      5555.5 0.76                           250 137
 MZN1 BZ E    0   1751 14.84      7797.0 0.56                           161 292
 KSHB BZ E    0   1752 27.56      1662.6 1.04                           317 341
 KANR BZ E    0   1752 28.10       824.8 0.76                           385 349
 BNDS BZ EPg  0   1750 27.4                                     -0.3   15.0 181
 KHGB BZ E    0   1751 19.24       798.3 0.64                           316   5
 KBAM BZ E    0   1758 57.96      2176.8 0.28                           285  51
 KRVR BZ E    0   1752 53.10       -99.0 0.92                           461   8
 CHMN BZ E    0   1751 57.94       887.8 0.72                           291  27
 MZN1 BZ EPg  0   1750 50.4                                     -0.3    161 292
 TAFT BZ E    0   1753 17.06       439.6 0.76                           503 338
 KBAM BZ EPn  0   1751 6.5                                       0.2    285  51
 UOSS BZ EPn  0   1751 7.2                                       0.9    286 179
 CHMN BZ EPn  0   1751 7.2                                       0.0    291  27
 KHGB BZ EPn  0   1751 10.5                                      0.2    316   5
 MZN1 BE ESg  0   1751 12.1                                      0.0    161 292
 KANR BZ EPn  0   1751 18.7                                     -0.1    385 349
 HOQ  BZ EPn  0   1751 26.0                                     -0.9    452 165
 BAF  SZ EPn  4   1751 26.6                                     -0.6    454 353
 KRVR BZ EPn  4   1751 27.9                                     -0.3    461   8
 TAFT BZ EPn  0   1751 33.3                                     -0.2    503 338
 NGCH BZ EPn  0   1751 40.0                                      1.0    550 115
 NHDN BZ EPn  4   1751 41.4                                     -0.2    569  40
 KLNJ BE EPn  0   1751 43.9                                     -0.3    589 312
 TPRV BZ EPn  4   1751 46.4                                     -0.3    611   4
 WBK  BZ EPn  0   1751 46.7                                     -0.3    613 152
 ANAR BZ EPn  4   1751 53.2                                     -0.9    670 340
 PIR  SZ EPn  0   1752 5.3                                      -0.7    765 320
 KLH  SZ EPn  4   1752 6.8                                      -0.9    778 327

 2021 1114 1758 13.0 L  27.594  56.188 11.3  Teh 16 0.4 3.7LTeh                1
 GAP=104                                                                       E
 Iranian Seismological Center, Institute of Geophysics, University of Tehran   6
 STAT SP IPHASW D HRMM SECON CODA AMPLIT PERI AZIMU VELO SNR AR TRES  W DIS CAZ7
 KBAM BZ E    0   1759 43.08      4483.2 0.68                           280  52
 BNDS BZ EPg  0   1758 17.7                                      0.1   22.0 185
 BAF  SZ E    0   1759 33.17       507.4 0.44                           447 352
 JASK BZ E    0   1759 40.40      7312.5 0.76                           254 139
 CHMN BZ E    0   1759 40.18      2459.7 0.48                           284  27
 KANR BZ E    0   1759 17.82      1075.0 0.52                           379 349
 TAFT BZ E    0   1759 25.12       603.4 0.24                           497 337
 KSHB BZ E    0   1759  9.78      1616.6  0.4                           311 341
 MZN1 BE EPg  0   1758 40.6                                      0.0    160 289
 JASK BZ EPn  0   1758 52.6                                      0.1    254 139
 KBAM BZ EPn  0   1758 56.2                                      0.3    280  52
 CHMN BZ EPn  0   1758 56.4                                     -0.2    284  27
 UOSS BZ EPn  0   1758 58.2                                      0.7    293 180
 KSHB BZ EPn  0   1759 0.5                                       0.5    311 341
 MZN1 BE ESg  0   1759 1.4                                      -0.1    160 289
 KANR BZ EPn  0   1759 8.0                                      -0.2    379 349
 BAF  SZ EPn  4   1759 15.5                                     -1.2    447 352
 TAFT BZ EPn  0   1759 22.9                                     -0.1    497 337
 NGCH BZ EPn  0   1759 28.8                                     -0.7    552 116
 WBK  BZ EPn  0   1759 37.2                                     -0.7    619 152
 SRVN BZ EPn  0   1759 37.9                                      0.5    614  91
 ANAR BZ EPn  4   1759 42.5                                     -1.1    664 340
 ZNGN BZ EPn  0   1759 50.4                                     -0.2    719 316
 SHRT BZ EPn  4   1759 58.0                                      0.4    777  29

