 2021 1114 1452 19.6 L  27.601  56.228 10.0  Teh  5 0.5 2.9LTeh                1
 GAP=154                                                                       E
 Iranian Seismological Center, Institute of Geophysics, University of Tehran   6
 STAT SP IPHASW D HRMM SECON CODA AMPLIT PERI AZIMU VELO SNR AR TRES  W DIS CAZ7
 KANR BZ E    0   1453 26.40       200.7 0.56                           378 348
 BNDS BZ EPg  0   1452 25.0                                     -0.2   23.0 194
 KBAM BZ E    0   1453 44.44       566.2 0.36                           276  52
 CHMN BZ E    0   1453 45.28       481.1  0.4                           281  27
 JASK BZ EPn  0   1453 0.1                                       0.3    252 139
 CHMN BZ EPn  0   1453 3.3                                      -0.8    281  27
 KBAM BZ EPn  0   1453 3.4                                       0.3    276  52
 KANR BZ EPn  0   1453 16.4                                      0.5    378 348

 2021 1114 1505 45.8 L  27.517  55.835  6.0  Teh  8 0.3 2.7LTeh                1
 GAP=138                                                                       E
 Iranian Seismological Center, Institute of Geophysics, University of Tehran   6
 STAT SP IPHASW D HRMM SECON CODA AMPLIT PERI AZIMU VELO SNR AR TRES  W DIS CAZ7
 MZN1 BZ E    0   1506 55.06      3196.0 0.68                           131 298
 CHMN BZ E    0   1507 10.66       578.9  0.4                           308  32
 MZN1 BE EPn  0   1506 9.9                                      -0.2    131 298
 KSHB BZ E    0   1507 36.36       881.1 0.88                           310 347
 JASK BZ EPn  0   1506 28.7                                     -0.3    272 132
 UOSS BZ EPn  0   1506 31.2                                      0.3    287 173
 KSHB BZ EPn  0   1506 34.1                                     -0.1    310 347
 KANR BZ E    0   1507 43.10       498.4 0.76                           382 354
 KANR BZ EPn  0   1506 43.2                                      0.3    382 354
 NHDN BZ E    0   1504  0.28        62.4 0.96                           593  43

 2021 1114 1512  8.0 L  27.593  56.255 14.3  Teh 31 0.4 4.3LTeh                1
 GAP=87                                                                        E
 Iranian Seismological Center, Institute of Geophysics, University of Tehran   6
 STAT SP IPHASW D HRMM SECON CODA AMPLIT PERI AZIMU VELO SNR AR TRES  W DIS CAZ7
 KANR BZ E    0   1514  6.68      6088.3 0.92                           380 348
 MZN1 BE E    0   1513  6.00     43061.8 0.64                           166 288
 KBAM BZ E    0   1513 36.98     20821.6 0.56                           275  51
 LMD1 BZ E    0   1514 15.38     15517.5 0.56                           307 265
 CHMN BZ E    0   1513 37.96     10707.4  0.6                           281  26
 KSHB BZ E    0   1513 54.10      7740.5    1                           314 340
 BNDS BZ EPg  0   1512 12.7                                     -0.2   23.0 201
 JASK BZ E    0   1513 41.40     44087.8 0.92                           249 140
 NGCH BZ E    0   1514 14.88      5349.1 0.72                           546 116
 BAZ1 BZ E    0   1514  4.30      7411.0 0.68                           389  85
 SHI  BZ E    0   1514 42.08      1999.7  1.2                           430 303
 KRVR BZ E    0   1514 37.78       -99.0 0.84                           454   7
 BAF  SZ E    0   1514 30.05      2798.3  0.8                           448 352
 TAFT BZ E    0   1515  0.02      1895.4 0.72                           500 337
 KLNJ BZ E    0   1514 36.84      1757.7  0.8                           590 311
 SRVN BZ E    0   1515 24.46       989.0    1                           607  91
 JASK BZ EPn  0   1512 46.6                                      0.3    249 140
 KBAM BZ EPn  0   1512 49.9                                      0.3    275  51
 CHMN BE EPn  0   1512 50.8                                      0.3    281  26
 UOSS BZ EPn  0   1512 52.2                                      0.4    293 181
 MZN1 BZ ESg  0   1512 57.7                                     -0.2    166 288
 KANR BZ EPn  0   1513 2.5                                      -0.2    380 348
 BAZ1 BZ EPn  0   1513 3.6                                      -0.1    389  85
 BAF  SZ EPn  0   1513 10.7                                     -0.4    448 352
 HOQ  BZ EPn  4   1513 10.8                                     -1.3    457 166
 KRVR BZ EPn  0   1513 11.7                                     -0.1    454   7
 CHBR BZ EPn  0   1513 14.1                                     -0.2    475 117
 TAFT BZ EPn  0   1513 17.9                                      0.2    500 337
 NGCH BZ EPn  0   1513 23.0                                     -0.1    546 116
 NHDN BN EPn  4   1513 24.9                                      0.0    559  40
 KLNJ BZ EPn  0   1513 28.2                                     -0.7    590 311
 TPRV BZ EPn  4   1513 29.5                                     -0.9    604   4
 WBK  BZ EPn  0   1513 31.3                                     -0.6    616 153
 SRVN BZ EPn  0   1513 31.6                                      0.7    607  91
 ANAR BZ EPn  4   1513 37.4                                     -0.8    666 339
 AFRZ BZ EPn  4   1513 42.8                                      0.5    698  22
 JHBN BZ EPn  4   1513 47.7                                     -0.5    745 315
 KLH  SZ EPn  4   1513 50.6                                     -1.5    777 326
 SFB  BZ EPn  4   1513 58.7                                     -1.2    841 334
 VRN  BZ EPn  4   1514 10.3                                     -0.2    926 333
 FIR  BZ EPn  4   1514 13.4                                     -0.4    952 340
 PRN  SZ EPn  4   1514 22.9                                     -0.1   1028 340
 MZPU BZ EPn  4   1514 29.8                                      0.7   1076 337

 2021 1114 1522 19.2 L  27.524  56.128 13.8  Teh 39 0.5 4.3LTeh                1
 GAP=114                                                                       E
 Iranian Seismological Center, Institute of Geophysics, University of Tehran   6
 STAT SP IPHASW D HRMM SECON CODA AMPLIT PERI AZIMU VELO SNR AR TRES  W DIS CAZ7
 JASK BZ E    0   1523 48.56     26158.1  0.6                           252 136
 MZN1 BZ E    0   1523 29.84     39366.4  0.8                           157 292
 SHI  BZ E    0   1524 42.72      5106.7 0.96                           423 304
 KSHB BZ E    0   1524 11.70      7888.7  0.8                           317 342
 CHMN BZ E    0   1523 56.86      6662.0 0.72                           293  28
 NHDN BZ E    0   1525 16.90      3388.9  0.8                           573  41
 KBAM BZ E    0   1523 59.92      7844.9 0.72                           289  51
 BNDS BZ EPg  0   1522 22.9                                     -0.0   14.0 163
 KRVR BZ E    0   1524 45.90       -99.0 0.92                           463   9
 KANR BZ E    0   1524 39.72      5566.9 0.84                           385 350
 KLNJ BZ E    0   1524 41.12      3204.6 0.64                           586 312
 NGCH BZ E    0   1524 15.18      2343.9 0.96                           554 115
 BAZ1 BZ E    0   1524 28.32      2216.0 0.76                           402  84
 TAFT BZ E    0   1524 42.18      2729.3 0.68                           502 338
 CHBR BZ E    0   1523 53.66       -99.0  0.6                           483 115
 MZN1 BZ EPg  0   1522 45.2                                     -0.5    157 292
 JASK BZ EPn  0   1522 58.3                                      0.3    252 136
 JHRM BE EPn  0   1523 0.1                                      -0.6    273 294
 UOSS BZ EPn  0   1523 2.5                                       0.3    286 178
 KBAM BZ EPn  0   1523 2.7                                      -0.1    289  51
 CHMN BZ EPn  0   1523 3.1                                      -0.3    293  28
 MZN1 BE ESg  0   1523 6.6                                       0.5    157 292
 KSHB BE EPn  0   1523 7.5                                       1.3    317 342
 KANR BZ EPn  0   1523 14.5                                     -0.2    385 350
 BAZ1 BZ EPn  0   1523 16.2                                     -0.4    402  84
 SHI  BE EPn  0   1523 19.6                                      0.1    423 304
 HOQ  BZ EPn  0   1523 22.7                                     -0.1    452 165
 KRVR BZ EPn  0   1523 23.9                                     -0.4    463   9
 CHBR BZ EPn  0   1523 26.5                                     -0.2    483 115
 TAFT BZ EPn  0   1523 29.0                                     -0.3    502 338
 NGCH BZ EPn  0   1523 35.7                                      0.4    554 115
 KLNJ BN EPn  4   1523 38.1                                     -1.6    586 312
 NHDN BZ EPn  4   1523 38.3                                      0.3    573  41
 WBK  BZ EPn  0   1523 42.7                                     -0.3    615 152
 SRVN BZ EPn  0   1523 44.1                                      0.3    620  90
 ANAR BZ EPn  4   1523 48.8                                     -1.1    669 340
 BRJ  SZ EPn  0   1523 50.2                                     -0.6    676 317
 TSHB BZ EPn  4   1523 51.4                                     -0.3    684   3
 AFRZ BZ EPn  4   1523 55.6                                      0.6    710  22
 ZNGN BZ EPn  4   1523 56.6                                      0.3    720 316
 JHBN BZ EPn  4   1523 57.5                                     -1.5    742 316
 PIR  SZ EPn  4   1523 59.9                                     -1.7    762 320
 KLH  SN EPn  0   1524 3.0                                      -0.4    777 327
 SHRT BZ EPn  0   1524 5.2                                       0.7    787  29
 SFB  BZ EPn  4   1524 9.9                                      -1.5    843 335
 LAS  SZ EPn  4   1524 20.6                                     -0.6    921 342
 FIR  BZ EPn  4   1524 23.8                                     -1.6    955 341
 GLO  SZ EPn  4   1524 33.2                                     -0.1   1019 348
 PAY  SZ EPn  4   1524 34.4                                      0.1   1026  15
 PRN  SZ EPn  4   1524 34.7                                      0.0   1031 341
 KKOM BZ EPn  4   1524 40.3                                     -3.7   1105 314
 SNQR BZ EPn  4   1524 45.8                                     -3.5   1147 317
 SNJK BZ EPn  4   1524 55.4                                     -3.8   1226 318
 SAQZ BZ EPn  4   1525 10.6                                     -3.7   1349 318

 2021 1114 1534 31.8 L  27.765  56.168 13.6  Teh  9 0.3 2.8LTeh                1
 GAP=142                                                                       E
 Iranian Seismological Center, Institute of Geophysics, University of Tehran   6
 STAT SP IPHASW D HRMM SECON CODA AMPLIT PERI AZIMU VELO SNR AR TRES  W DIS CAZ7
 CHMN BZ E    0   1535 55.40       858.7  0.8                           268  30
 MZN1 BE E    0   1535 28.02      6952.8 0.88                           153 283
 KSHB BZ E    0   1536 18.06       731.3 0.84                           293 340
 MZN1 BE EPn  0   1534 57.2                                      0.0    153 283
 KANR BZ E    0   1536 25.66       457.7 1.12                           360 348
 TAFT BZ E    0   1535 56.30       279.9  0.8                           479 337
 KBAM BZ EPn  0   1535 12.5                                     -0.4    270  55
 JASK BZ EPn  0   1535 12.8                                      0.1    270 141
 BNDS BZ E    0   1534 45.32     28688.7 0.24                          41.0 174
 CHMN BZ EPn  0   1535 13.4                                      0.6    268  30
 KANR BZ EPn  0   1535 23.9                                     -0.2    360 348
 KRBR BZ E    0   1535 45.00       716.2  0.4                           252  13
 KBAM BZ E    0   1535 50.08      1370.6  0.4                           270  55

 2021 1114 1541 38.3 L  27.650  56.321 10.0  Teh  6 0.3 2.8LTeh                1
 GAP=157                                                                       E
 Iranian Seismological Center, Institute of Geophysics, University of Tehran   6
 STAT SP IPHASW D HRMM SECON CODA AMPLIT PERI AZIMU VELO SNR AR TRES  W DIS CAZ7
 BNDS BZ EPg  0   1541 45.3                                      0.0   32.0 208
 MZN1 BZ EPg  0   1542 8.5                                       0.3    170 286
 CHMN BZ EPn  4   1542 22.4                                      0.7    272  26
 KBAM BZ EPg  0   1542 23.8                                     -0.4    266  51
 MZN1 BE ESg  0   1542 29.8                                      0.0    170 286
 KANR BZ EPn  0   1542 34.5                                      0.4    375 347
 KBAM BZ E    0   1543  9.86       897.2 0.76                           266  51
 KANR BZ E    0   1543 55.02       883.5 1.48                           375 347
 KRBR BZ E    0   1542 27.60       881.6 0.52                           262   9
 CHMN BZ E    0   1543 11.60       970.4 1.04                           272  26

 2021 1114 1559 11.7 L  27.520  56.110 15.9  Teh 28 0.4 4.0LTeh                1
 GAP=115                                                                       E
 Iranian Seismological Center, Institute of Geophysics, University of Tehran   6
 STAT SP IPHASW D HRMM SECON CODA AMPLIT PERI AZIMU VELO SNR AR TRES  W DIS CAZ7
 JASK BZ E    0   1600 55.40     18634.6 0.96                           253 136
 KHGB BZ E    0   1601  2.90       -99.0 0.68                           318   6
 KBAM BZ E    0   1600 43.60      7071.8 0.72                           291  52
 BNDS BZ EPg  0   1559 15.5                                     -0.3   15.0 156
 MZN1 BE E    0   1600 17.08     13123.3 0.72                           156 293
 CHMN BZ E    0   1600 46.06      4083.6 0.92                           295  28
 BNDS BZ ESg  0   1559 18.9                                      0.1   15.0 156
 KRVR BZ E    0   1601 41.30       -99.0 1.16                           463   9
 KSHB BZ E    0   1601 25.30      2939.2 0.96                           317 342
 LMD1 BE E    0   1601  5.26      9732.4 0.72                           292 267
 MZN1 BE EPg  0   1559 38.4                                      0.4    156 293
 KLNJ BZ E    0   1602 37.00       -99.0 0.88                           585 312
 TAFT BZ E    0   1601 48.62       898.5 1.16                           502 339
 NGCH BZ E    0   1601 15.26      1699.9 0.64                           555 114
 SRVN BZ E    0   1602 36.86       435.9 1.12                           621  90
 UOSS BZ EPn  0   1559 54.4                                     -0.0    285 178
 KBAM BZ EPn  0   1559 55.1                                     -0.2    291  52
 CHMN BN EPn  0   1559 56.2                                      0.3    295  28
 KHGB BZ EPn  0   1559 58.9                                      0.1    318   6
 KANR BZ EPn  0   1600 7.3                                       0.3    385 350
 KRVR BZ EPn  0   1600 16.3                                     -0.4    463   9
 TAFT BZ EPn  0   1600 22.1                                      0.5    502 339
 NGCH BZ EPn  0   1600 27.8                                     -0.1    555 114
 NHDN BZ EPn  0   1600 29.9                                     -0.6    574  41
 KLNJ BN EPn  0   1600 31.4                                     -0.6    585 312
 TPRV BZ EPn  4   1600 35.9                                      0.8    613   5
 SRVN BZ EPn  0   1600 36.9                                      0.6    621  90
 ANAR BZ EPn  4   1600 42.0                                     -0.1    669 341
 TKDS BZ EPn  4   1600 44.7                                      0.9    682   8
 ZEF  SZ EPn  4   1600 44.8                                     -1.1    698 330
 AFRZ BZ EPn  4   1600 47.7                                      0.2    711  22
 ZNGN BZ EPn  4   1600 49.1                                      0.5    719 316
 JHBN BN EPn  0   1600 51.3                                      0.1    741 316
 PIR  SZ EPn  4   1600 53.4                                     -0.5    762 320
 KLH  SZ EPn  0   1600 55.2                                     -0.4    776 327
 KKOM BZ EPn  4   1601 33.6                                     -2.5   1104 314
 SNQR BZ EPn  4   1601 38.9                                     -2.6   1146 317
 SNJK BZ EPn  4   1601 48.4                                     -3.0   1225 318

 2021 1114 1610  8.2 L  27.585  56.160 13.7  Teh 12 0.4 3.5LTeh                1
 GAP=149                                                                       E
 Iranian Seismological Center, Institute of Geophysics, University of Tehran   6
 STAT SP IPHASW D HRMM SECON CODA AMPLIT PERI AZIMU VELO SNR AR TRES  W DIS CAZ7
 JASK BZ E    0   1612 57.24      4894.1 0.56                           255 138
 KHGB BZ E    0   1612 26.20      1235.7 0.68                           311   6
 CHMN BZ E    0   1612  5.52      1336.3 0.24                           286  28
 KBAM BZ E    0   1612 42.78      2277.6 0.72                           283  52
 KANR BZ E    0   1611  5.82       871.7 0.36                           379 349
 BNDS BZ EPg  0   1610 13.4                                     -0.3   21.0 177
 KSHB BZ E    0   1612  8.74      1900.3 0.52                           311 341
 BAF  SZ E    0   1612 38.91       495.1  0.6                           448 355
 MZN1 BE EPg  0   1610 36.8                                      0.7    158 290
 KRVR BZ E    0   1612 29.20       -99.0  0.8                           456   8
 TAFT BZ E    0   1612 41.72       471.9  1.2                           497 338
 CHMN BZ EPn  0   1610 52.7                                     -0.2    286  28
 MZN1 BE ESg  0   1610 55.9                                     -0.6    158 290
 JHBN BZ E    0   1613  3.22       298.5 0.24                           739 315
 KANR BN EPn  0   1611 4.2                                       0.1    379 349
 BAF  SN EPn  4   1611 11.5                                     -1.1    447 353
 TAFT BZ EPn  0   1611 18.7                                     -0.1    497 338

