 2021 1115 2006 28.6 L  27.696  56.173 12.0  SC3 10 0.4 3.5LSC3                1
 GAP=101        0.00       2.3     2.3  3.9                                    E
 2021-11-15-2006-28.BIN__084                                                   6
 ACTION:NEW 21-11-17 07:24 OP:SEIS STATUS:               ID:20211115200628     I
 STAT SP IPHASW D HRMM SECON CODA AMPLIT PERI AZIMU VELO AIN AR TRES W  DIS CAZ7
 BNDS BZ EPg  0   2006 35.02                                     0.1     33 180 
 JSSH BZ EPn  0   2007  4.93                                    -0.3    232 149 
 KRBR BZ EPn  4   2007  5.23                                    -3.8    260  13 
 GHIR BZ EPn  0   2007 16.56                                     0.2    320 282 
 YZKH BZ EPn  0   2007 44.16                                     0.1    542 344 
 SRVN BZ EPn  0   2007 52.82                                    -0.3    616  93 
 NASN BZ EPn  0   2007 57.05                                    -0.7    652 330 
 TABS BZ EPn  0   2007 59.57                                     0.2    666   8 
 SHRT BZ EPn  0   2008 12.83                                     0.8    769  31 
 GTMR BZ EPn  4   2008 21.29                                    -2.3    862 308 
 JSSH BZ  IAML    2007  4.93         0.7 1.00                           232 149 
 YZKH BZ  IAML    2007 44.16        0.04 1.00                           542 344 
 SRVN BZ  IAML    2007 52.82        0.02 1.00                           616  93 
 TABS BZ  IAML    2007 59.57        0.04 1.00                           666   8 
 SHRT BZ  IAML    2008 12.83        0.02 1.00                           769  31 
                                                                                
 2021 1115 2124 17.9 L  27.608  56.101 10.0  SC3 10 0.4 3.3LSC3                1
 GAP=101        0.00       2.8     2.8  4.5                                    E
 2021-11-15-2124-17.BIN__088                                                   6
 ACTION:NEW 21-11-17 06:56 OP:SEIS STATUS:               ID:20211115212417     I
 STAT SP IPHASW D HRMM SECON CODA AMPLIT PERI AZIMU VELO AIN AR TRES W  DIS CAZ7
 BNDS BZ EPg  0   2124 22.55                                    -0.1     24 163 
 JSSH BZ EPn  0   2124 54.38                                     0.1    228 146 
 KRBR BZ EPn  4   2124 54.99                                    -5.0    271  14 
 LMD1 BZ EPn  0   2125  2.37                                     0.1    292 264 
 GHIR BZ EPn  0   2125  5.04                                    -0.3    316 284 
 ZHSF BZ EPn  4   2125  5.28                                   -24.0    507  64 
 YZKH BZ EPn  0   2125 33.84                                    -0.7    550 345 
 BSRN BZ EPn  0   2125 37.11                                     0.8    565  31 
 KLNJ BZ EPn  0   2125 38.69                                     0.6    578 311 
 SRVN BZ EPn  0   2125 43.29                                    -0.2    623  92 
 BNDS BZ  IAML    2124 22.55       2e+01 1.00                            24 163 
 LMD1 BZ  IAML    2125  2.37         0.4 1.00                           292 264 
 YZKH BZ  IAML    2125 33.84        0.03 1.00                           550 345 
 BSRN BZ  IAML    2125 37.11        0.04 1.00                           565  31 
 SRVN BZ  IAML    2125 43.29        0.01 1.00                           623  92 
                                                                                
 2021 1115 2231 49.4 L  27.619  56.005 10.0  SC3  9 0.3 3.1LSC3                1
 GAP=138        0.00       1.8     1.8  2.9                                    E
 2021-11-15-2231-49.BIN__084                                                   6
 ACTION:NEW 21-11-17 07:03 OP:SEIS STATUS:               ID:20211115223149     I
 STAT SP IPHASW D HRMM SECON CODA AMPLIT PERI AZIMU VELO AIN AR TRES W  DIS CAZ7
 BNDS BZ EPg  0   2231 54.76                                    -0.3     29 146 
 JSSH BZ EPn  0   2232 26.54                                    -0.0    234 144 
 KRBR BZ EPn  0   2232 31.09                                    -0.6    272  16 
 GHIR BZ EPn  0   2232 35.73                                     0.0    306 284 
 YZKH BZ EPn  0   2233  6.60                                     0.9    546 346 
 BSRN BZ EPn  0   2233  8.57                                     0.2    568  32 
 KLNJ BZ EPn  0   2233  7.97                                    -0.7    570 311 
 SRVN BZ EPn  0   2233 16.58                                     0.4    632  92 
 NASN BZ EPn  0   2233 18.43                                    -0.3    652 332 
 BNDS BZ  IAML    2231 54.76       1e+01 1.00                            29 146 
 JSSH BZ  IAML    2232 26.54         0.2 1.00                           234 144 
 KRBR BZ  IAML    2232 31.09         0.2 1.00                           272  16 
 YZKH BZ  IAML    2233  6.60        0.02 1.00                           546 346 
 BSRN BZ  IAML    2233  8.57        0.02 1.00                           568  32 
 KLNJ BZ  IAML    2233  7.97        0.03 1.00                           570 311 
 SRVN BZ  IAML    2233 16.58       0.009 1.00                           632  92 
 NASN BZ  IAML    2233 18.43        0.01 1.00                           652 332 
                                                                                
 2021 1115 2251 22.8 L  27.600  56.173  9.0  SC3 12 0.6 3.1LSC3                1
 GAP= 84        0.00       3.0     3.0  5.4                                    E
 2021-11-15-2251-22.BIN__085                                                   6
 ACTION:NEW 21-11-16 07:20 OP:SEIS STATUS:               ID:20211115225122     I
 STAT SP IPHASW D HRMM SECON CODA AMPLIT PERI AZIMU VELO AIN AR TRES W  DIS CAZ7
 BNDS BZ EPg  0   2251 27.16                                    -0.1     22 180 
 JSSH BZ EPn  0   2251 59.17                                     0.5    223 147 
 KRBR BZ EPn  4   2251 57.84                                    -7.1    270  12 
 LMD1 BZ EPn  0   2252  7.53                                    -0.7    299 264 
 GHIR BZ EPn  0   2252 12.00                                     0.7    323 284 
 CHBR BZ EPn  0   2252 30.22                                    -0.9    483 117 
 YZKH BZ EPn  0   2252 40.06                                     0.1    552 344 
 BSRN BZ EPn  0   2252 41.83                                     0.8    562  31 
 KLNJ BZ EPn  0   2252 43.75                                    -0.2    584 310 
 SRVN BZ EPn  0   2252 47.95                                     0.3    616  92 
 NASN BZ EPn  0   2252 52.82                                    -0.7    661 331 
 GTMR BZ EPn  4   2253 17.62                                    -1.4    869 308 
 BNDS BZ  IAML    2251 27.16       2e+01 1.00                            22 180 
 JSSH BZ  IAML    2251 59.17         0.2 1.00                           223 147 
 LMD1 BZ  IAML    2252  7.53         0.2 1.00                           299 264 
 YZKH BZ  IAML    2252 40.06        0.02 1.00                           552 344 
 BSRN BZ  IAML    2252 41.83        0.02 1.00                           562  31 
 KLNJ BZ  IAML    2252 43.75        0.03 1.00                           584 310 
 SRVN BZ  IAML    2252 47.95       0.009 1.00                           616  92 
 NASN BZ  IAML    2252 52.82        0.01 1.00                           661 331 
                                                                                
 2021 1116 0512 13.6 L  27.655  56.115 10.0  SC3 21 0.3 4.1LSC3                1
 GAP= 94        0.00       1.2     1.2  2.0                                    E
 2021-11-16-0512-13.BIN__085                                                   6
 ACTION:NEW 21-11-16 06:54 OP:SEIS STATUS:               ID:20211116051213     I
 STAT SP IPHASW D HRMM SECON CODA AMPLIT PERI AZIMU VELO AIN AR TRES W  DIS CAZ7
 BNDS BZ EPg  0   0512 19.15                                    -0.0     29 169 
 JSSH BZ EPn  0   0512 50.30                                    -0.1    231 147 
 KRBR BZ EPn  4   0512 51.12                                    -3.9    266  14 
 LMD1 BZ EPn  0   0512 58.07                                    -0.2    294 263 
 GHIR BZ EPn  0   0513  1.03                                    -0.0    316 283 
 AHRM BZ EPn  0   0513 25.74                                     1.0    508 285 
 YZKH BZ EPn  0   0513 30.04                                     0.3    545 344 
 BSRN BZ EPn  0   0513 30.85                                    -0.5    559  31 
 KLNJ BZ EPn  0   0513 32.76                                    -0.8    575 310 
 SRVN BZ EPn  0   0513 39.20                                     0.1    621  93 
 NASN BZ EPn  0   0513 43.12                                    -0.0    653 331 
 TABS BZ EPn  0   0513 44.90                                    -0.3    671   8 
 SHRT BZ EPn  0   0513 57.93                                    -0.2    775  31 
 GTMR BZ EPn  0   0514  7.65                                    -1.0    861 308 
 KHMZ BZ EPn  0   0514 12.39                                    -0.8    896 319 
 SHRO BZ EPn  0   0514 16.66                                    -0.3    926 359 
 ASAO BZ EPn  0   0514 20.39                                    -0.9    960 323 
 GLO  BZ EPn  0   0514 26.91                                     0.2   1004 348 
 ABGH BZ EPn  0   0514 28.37                                     0.5   1014 353 
 CHTH BZ EPn  0   0514 30.44                                     0.5   1030 333 
 KAGH BZ EPn  0   0514 36.82                                    -0.6   1091  19 
 BNDS BZ  IAML    0512 19.15       1e+02 1.00                            29 169 
 JSSH BZ  IAML    0512 50.30           2 1.00                           231 147 
 LMD1 BZ  IAML    0512 58.07           3 1.00                           294 263 
 YZKH BZ  IAML    0513 30.04         0.4 1.00                           545 344 
 BSRN BZ  IAML    0513 30.85         0.2 1.00                           559  31 
 SRVN BZ  IAML    0513 39.20        0.04 1.00                           621  93 
 NASN BZ  IAML    0513 43.12         0.1 1.00                           653 331 
 TABS BZ  IAML    0513 44.90         0.1 1.00                           671   8 
 SHRT BZ  IAML    0513 57.93        0.07 1.00                           775  31 
                                                                                
 2021 1116 0556 24.3 L  27.635  56.196 12.0  SC3  9 0.4 3.3LSC3                1
 GAP=118        0.00       3.0     3.0  3.4                                    E
 2021-11-16-0556-24.BIN__084                                                   6
 ACTION:NEW 21-11-17 04:26 OP:SEIS STATUS:               ID:20211116055624     I
 STAT SP IPHASW D HRMM SECON CODA AMPLIT PERI AZIMU VELO AIN AR TRES W  DIS CAZ7
 BNDS BZ EPg  0   0556 29.70                                     0.1     26 185 
 JSSH BZ EPn  0   0557  0.08                                    -0.1    225 148 
 KRBR BZ EPn  0   0557  4.82                                    -0.8    266  12 
 GHIR BZ EPn  0   0557 12.17                                    -0.4    324 283 
 YZKH BZ EPn  0   0557 41.63                                     0.9    549 344 
 BSRN BZ EPn  0   0557 41.98                                     0.4    557  31 
 KLNJ BZ EPn  0   0557 45.75                                     0.8    583 310 
 NASN BZ EPn  0   0557 54.71                                     0.3    659 330 
 GTMR BZ EPn  0   0558 19.46                                    -0.7    868 308 
 BNDS BZ  IAML    0556 29.70       2e+01 1.00                            26 185 
 JSSH BZ  IAML    0557  0.08         0.3 1.00                           225 148 
 KRBR BZ  IAML    0557  4.82         0.4 1.00                           266  12 
 YZKH BZ  IAML    0557 41.63        0.03 1.00                           549 344 
 BSRN BZ  IAML    0557 41.98        0.04 1.00                           557  31 
 KLNJ BZ  IAML    0557 45.75        0.04 1.00                           583 310 
 NASN BZ  IAML    0557 54.71        0.02 1.00                           659 330 
                                                                                
 2021 1116 1037 29.2 L  27.691  56.147 10.0  SC3 14 0.5 3.9LSC3                1
 GAP= 87        0.00       2.1     2.1  3.8                                    E
 2021-11-16-1037-29.BIN__085                                                   6
 ACTION:NEW 21-11-16 11:05 OP:SEIS STATUS:               ID:20211116103729     I
 STAT SP IPHASW D HRMM SECON CODA AMPLIT PERI AZIMU VELO AIN AR TRES W  DIS CAZ7
 BNDS BZ EPg  0   1037 34.73                                    -0.6     32 176 
 JSSH BZ EPn  0   1038  6.64                                     0.4    233 148 
 KRBR BZ EPn  4   1038  6.31                                    -3.8    261  13 
 LMD1 BZ EPn  0   1038 14.13                                    -0.1    297 262 
 GHIR BZ EPn  0   1038 18.07                                     1.1    318 282 
 YZKH BZ EPn  0   1038 45.71                                     0.8    542 344 
 BSRN BZ EPn  0   1038 46.74                                     0.4    554  31 
 KLNJ BZ EPn  0   1038 48.84                                    -0.3    575 310 
 SRVN BZ EPn  0   1038 54.28                                    -0.0    618  93 
 NASN BZ EPn  0   1038 58.75                                     0.2    651 330 
 TABS BZ EPn  0   1038 59.72                                    -0.6    667   8 
 SHRT BZ EPn  0   1039 13.03                                    -0.1    770  31 
 GTMR BZ EPn  0   1039 23.30                                    -1.0    861 308 
 KHMZ BZ EPn  0   1039 28.15                                    -0.6    895 319 
 BNDS BZ  IAML    1037 34.73       3e+01 1.00                            32 176 
 JSSH BZ  IAML    1038  6.64           1 1.00                           233 148 
 LMD1 BZ  IAML    1038 14.13         0.8 1.00                           297 262 
 YZKH BZ  IAML    1038 45.71        0.08 1.00                           542 344 
 BSRN BZ  IAML    1038 46.74         0.2 1.00                           554  31 
 KLNJ BZ  IAML    1038 48.84         0.1 1.00                           575 310 
 SRVN BZ  IAML    1038 54.28        0.04 1.00                           618  93 
 NASN BZ  IAML    1038 58.75        0.05 1.00                           651 330 
 TABS BZ  IAML    1038 59.72         0.1 1.00                           667   8 
 SHRT BZ  IAML    1039 13.03        0.08 1.00                           770  31 
 GTMR BZ  IAML    1039 23.30        0.04 1.00                           861 308 
                                                                                
 2021 1116 1535 47.0 L  27.595  56.213 11.0  SC3 11 0.3 3.5LSC3                1
 GAP= 93        0.00       2.0     2.0  2.9                                    E
 2021-11-16-1535-46.BIN__085                                                   6
 ACTION:NEW 21-11-17 04:35 OP:SEIS STATUS:               ID:20211116153546     I
 STAT SP IPHASW D HRMM SECON CODA AMPLIT PERI AZIMU VELO AIN AR TRES W  DIS CAZ7
 BNDS BZ EPg  0   1535 51.38                                    -0.1     22 191 
 JSSH BZ EPn  0   1536 22.15                                    -0.2    220 148 
 KRBR BZ EPn  4   1536 26.66                                    -2.2    270  11 
 GHIR BZ EPn  0   1536 36.26                                     0.6    327 284 
 YZKH BZ EPn  0   1537  4.42                                     0.3    554 344 
 KLNJ BZ EPn  0   1537  7.97                                    -0.3    587 310 
 SRVN BZ EPn  0   1537 11.33                                     0.2    612  92 
 NASN BZ EPn  0   1537 17.85                                     0.1    664 330 
 SHRT BZ EPn  0   1537 30.97                                    -0.6    776  30 
 GTMR BZ EPn  0   1537 42.36                                    -1.0    872 308 
 KHMZ BZ EPn  0   1537 47.52                                    -0.4    907 319 
 BNDS BZ  IAML    1535 51.38       9e+01 1.00                            22 191 
 JSSH BZ  IAML    1536 22.15         0.7 1.00                           220 148 
 YZKH BZ  IAML    1537  4.42        0.03 1.00                           554 344 
 KLNJ BZ  IAML    1537  7.97        0.06 1.00                           587 310 
 SRVN BZ  IAML    1537 11.33        0.02 1.00                           612  92 
 NASN BZ  IAML    1537 17.85        0.04 1.00                           664 330 
 SHRT BZ  IAML    1537 30.97        0.01 1.00                           776  30 
                                                                                
 2021 1116 1927 41.3 L  27.604  56.140 11.0  SC3 17 0.3 4.0LSC3                1
 GAP= 92        0.00       1.3     1.3  2.0                                    E
 2021-11-16-1927-41.BIN__087                                                   6
 ACTION:NEW 21-11-17 04:43 OP:SEIS STATUS:               ID:20211116192741     I
 STAT SP IPHASW D HRMM SECON CODA AMPLIT PERI AZIMU VELO AIN AR TRES W  DIS CAZ7
 BNDS BZ EPg  0   1927 45.79                                    -0.1     23 172 
 JSSH BZ EPn  0   1928 17.13                                    -0.1    225 147 
 KRBR BZ EPn  4   1928 19.25                                    -3.9    270  13 
 LMD1 BZ EPn  0   1928 25.86                                    -0.1    296 264 
 GHIR BZ EPn  0   1928 29.60                                     0.5    319 284 
 YZKH BZ EPn  0   1928 57.66                                    -0.3    551 344 
 KLNJ BZ EPn  0   1929  0.86                                    -0.9    581 310 
 SRVN BZ EPn  0   1929  6.27                                     0.0    619  92 
 NASN BZ EPn  0   1929 11.20                                    -0.2    659 331 
 TABS BZ EPn  0   1929 13.92                                     0.5    677   8 
 SHRT BZ EPn  0   1929 26.34                                     0.2    779  31 
 GTMR BZ EPn  4   1929 35.44                                    -1.5    866 309 
 KHMZ BZ EPn  0   1929 40.69                                    -0.8    902 319 
 TBJM BZ EPn  0   1929 46.40                                     0.4    938  25 
 ASAO BZ EPn  0   1929 48.75                                    -0.8    966 323 
 ILBA BZ EPn  4   1930 10.07                                    -3.7   1163 305 
 SRSL BZ EPn  4   1930 38.28                                    -4.0   1392 313 
 BNDS BZ  IAML    1927 45.79       1e+02 1.00                            23 172 
 JSSH BZ  IAML    1928 17.13           2 1.00                           225 147 
 LMD1 BZ  IAML    1928 25.86           2 1.00                           296 264 
 YZKH BZ  IAML    1928 57.66         0.1 1.00                           551 344 
 KLNJ BZ  IAML    1929  0.86         0.2 1.00                           581 310 
 SRVN BZ  IAML    1929  6.27        0.05 1.00                           619  92 
 NASN BZ  IAML    1929 11.20        0.06 1.00                           659 331 
 TABS BZ  IAML    1929 13.92        0.09 1.00                           677   8 
 SHRT BZ  IAML    1929 26.34        0.04 1.00                           779  31 
                                                                                
