 2021 1114 1313 23.4 L  27.433  56.204  7.7  SC3 17 0.4 4.1LSC3                1
 GAP= 76        0.00       1.7     1.7  2.0                                    E
 2021-11-14-1313-23.BIN__084                                                   6
 ACTION:NEW 21-11-15 12:43 OP:SEIS STATUS:               ID:20211114131323     I
 STAT SP IPHASW D HRMM SECON CODA AMPLIT PERI AZIMU VELO AIN AR TRES W  DIS CAZ7
 BNDS BZ EPg  0   1313 25.06                                    -0.2      5 221 
 JSSH BZ EPn  0   1313 57.30                                     0.3    206 145 
 KRBR BZ EPn  4   1313 54.38                                   -13.5    288  11 
 LMD1 BZ EPn  0   1314  9.68                                     0.5    301 268 
 GHIR BZ EPn  0   1314 13.60                                     0.6    331 287 
 CHBR BZ EPn  0   1314 30.41                                    -0.1    472 116 
 AHRM BZ EPn  0   1314 36.29                                    -0.5    523 288 
 YZKH BZ EPn  0   1314 43.00                                    -0.0    571 344 
 BSRN BZ EPn  0   1314 43.87                                     0.3    576  29 
 KLNJ BZ EPn  0   1314 46.34                                    -0.1    598 311 
 SRVN BZ EPn  0   1314 47.13                                    -0.9    612  90 
 NASN BZ EPn  0   1314 56.15                                    -0.3    679 331 
 TABS BZ EPn  0   1314 58.77                                     0.6    695   7 
 SHRT BZ EPn  0   1315 10.44                                     0.1    793  30 
 GTMR BZ EPn  0   1315 20.97                                    -0.6    884 309 
 KHMZ BZ EPn  0   1315 25.83                                    -0.5    920 319 
 ASAO BZ EPn  0   1315 35.02                                     0.6    985 323 
 JSSH BZ  IAML    1313 57.30           3 1.00                           206 145 
 LMD1 BZ  IAML    1314  9.68           2 1.00                           301 268 
 CHBR BZ  IAML    1314 30.41         0.3 1.00                           472 116 
 AHRM BZ  IAML    1314 36.29        0.06 1.00                           523 288 
 YZKH BZ  IAML    1314 43.00         0.1 1.00                           571 344 
 BSRN BZ  IAML    1314 43.87         0.3 1.00                           576  29 
 KLNJ BZ  IAML    1314 46.34         0.2 1.00                           598 311 
 SRVN BZ  IAML    1314 47.13        0.09 1.00                           612  90 
 NASN BZ  IAML    1314 56.15        0.07 1.00                           679 331 
 TABS BZ  IAML    1314 58.77         0.1 1.00                           695   7 
 SHRT BZ  IAML    1315 10.44        0.05 1.00                           793  30 
 GTMR BZ  IAML    1315 20.97        0.08 1.00                           884 309 
                                                                                
 2021 1114 1402 56.1 L  27.635  56.106 12.0  SC3 23 0.5 4.6LSC3                1
 GAP= 97        0.00       1.6     1.6  3.0                                    E
 2021-11-14-1402-56.BIN__084                                                   6
 ACTION:NEW 21-11-15 09:35 OP:SEIS STATUS:               ID:20211114140256     I
 STAT SP IPHASW D HRMM SECON CODA AMPLIT PERI AZIMU VELO AIN AR TRES W  DIS CAZ7
 BNDS BZ EPg  0   1403  1.46                                     0.0     27 166 
 JSSH BZ EPn  0   1403 32.36                                    -0.1    230 146 
 KRBR BZ EPn  4   1403 34.91                                    -2.6    268  14 
 LMD1 BZ EPn  0   1403 40.79                                     0.5    292 264 
 GHIR BZ EPn  0   1403 43.81                                     0.6    315 283 
 CHBR BZ EPn  0   1404  4.14                                    -0.8    491 117 
 AHRM BZ EPn  0   1404  6.58                                    -0.4    507 286 
 YZKH BZ EPn  0   1404 12.39                                     0.2    547 345 
 BSRN BZ EPn  0   1404 13.70                                    -0.2    562  31 
 KLNJ BZ EPn  0   1404 15.76                                    -0.1    576 310 
 SRVN BZ EPn  0   1404 21.47                                     0.1    622  92 
 NASN BZ EPn  0   1404 24.85                                    -0.7    655 331 
 TABS BZ EPn  0   1404 28.12                                     0.4    674   8 
 SHRT BZ EPn  0   1404 41.24                                     0.6    778  31 
 GTMR BZ EPn  4   1404 49.02                                    -2.0    862 308 
 ANJ  BZ EPn  0   1404 54.17                                    -1.0    893 347 
 KHMZ BZ EPn  0   1404 55.20                                    -0.4    897 319 
 TBJM BZ EPn  0   1405  1.10                                     0.6    937  25 
 ASAO BZ EPn  0   1405  3.16                                    -0.5    961 323 
 GLO  BZ EPn  0   1405 10.19                                     1.0   1006 348 
 ABGH BZ EPn  0   1405 10.84                                     0.5   1017 353 
 CHTH BZ EPn  0   1405 12.15                                    -0.2   1032 333 
 KAGH BZ EPn  0   1405 20.11                                     0.1   1094  19 
 BNDS BZ  IAML    1403  1.46       2e+02 1.00                            27 166 
 JSSH BZ  IAML    1403 32.36           6 1.00                           230 146 
 LMD1 BZ  IAML    1403 40.79       1e+01 1.00                           292 264 
 CHBR BZ  IAML    1404  4.14         0.8 1.00                           491 117 
 AHRM BZ  IAML    1404  6.58         0.3 1.00                           507 286 
 YZKH BZ  IAML    1404 12.39         0.7 1.00                           547 345 
 BSRN BZ  IAML    1404 13.70         0.9 1.00                           562  31 
 KLNJ BZ  IAML    1404 15.76           1 1.00                           576 310 
 SRVN BZ  IAML    1404 21.47         0.2 1.00                           622  92 
 NASN BZ  IAML    1404 24.85         0.3 1.00                           655 331 
 TABS BZ  IAML    1404 28.12         0.5 1.00                           674   8 
 SHRT BZ  IAML    1404 41.24         0.3 1.00                           778  31 
                                                                                
 2021 1114 1413 56.9 L  27.530  56.089 14.0  SC3 15 0.3 3.5LSC3                1
 GAP=115        0.00       1.3     1.3  2.0                                    E
 2021-11-14-1413-56.BIN__084                                                   6
 ACTION:NEW 21-11-16 08:57 OP:SEIS STATUS:               ID:20211114141356     I
 STAT SP IPHASW D HRMM SECON CODA AMPLIT PERI AZIMU VELO AIN AR TRES W  DIS CAZ7
 BNDS BZ EPg  0   1414  0.88                                     0.0     17 151 
 JSSH BZ EPn  0   1414 32.35                                     0.4    221 144 
 KRBR BZ EPn  4   1414 36.32                                    -3.2    280  14 
 LMD1 BZ EPn  0   1414 40.65                                     0.1    290 266 
 GHIR BZ EPn  0   1414 43.64                                    -0.3    317 285 
 CHBR BZ EPn  0   1415  4.78                                    -0.2    487 116 
 AHRM BZ EPn  0   1415  7.72                                    -0.0    509 287 
 ZHSF BZ EPn  4   1414 45.80                                   -22.6    512  63 
 YZKH BZ EPn  0   1415 14.73                                     0.7    558 345 
 BSRN BZ EPn  0   1415 15.56                                    -0.2    573  31 
 KLNJ BZ EPn  0   1415 17.24                                     0.0    583 311 
 SRVN BZ EPn  0   1415 22.07                                    -0.1    624  91 
 NASN BZ EPn  0   1415 27.52                                     0.2    664 332 
 TABS BZ EPn  0   1415 29.72                                    -0.1    686   8 
 GTMR BZ EPn  0   1415 51.65                                    -0.7    868 309 
 BNDS BZ  IAML    1414  0.88       8e+01 1.00                            17 151 
 JSSH BZ  IAML    1414 32.35         0.7 1.00                           221 144 
 LMD1 BZ  IAML    1414 40.65         0.6 1.00                           290 266 
 CHBR BZ  IAML    1415  4.78        0.08 1.00                           487 116 
 YZKH BZ  IAML    1415 14.73        0.06 1.00                           558 345 
 BSRN BZ  IAML    1415 15.56        0.05 1.00                           573  31 
 SRVN BZ  IAML    1415 22.07        0.02 1.00                           624  91 
 NASN BZ  IAML    1415 27.52        0.02 1.00                           664 332 
 TABS BZ  IAML    1415 29.72        0.04 1.00                           686   8 
                                                                                
 2021 1114 1424 16.6 L  27.501  56.243 10.0  SC3 17 0.6 3.8LSC3                1
 GAP= 65        0.00       3.1     3.1  4.4                                    E
 2021-11-14-1424-16.BIN__084                                                   6
 ACTION:NEW 21-11-15 09:46 OP:SEIS STATUS:               ID:20211114142416     I
 STAT SP IPHASW D HRMM SECON CODA AMPLIT PERI AZIMU VELO AIN AR TRES W  DIS CAZ7
 BNDS BZ EPg  0   1424 19.03                                    -0.7     13 212 
 JSSH BZ EPn  0   1424 51.16                                     0.5    210 147 
 KRBR BZ EPn  4   1424 53.70                                    -6.0    280  10 
 LMD1 BZ EPn  0   1425  2.45                                    -0.1    305 267 
 GHIR BZ EPn  0   1425  6.12                                     0.1    332 285 
 ZHSF BZ EPn  4   1425  0.27                                   -26.8    501  62 
 BSRN BZ EPn  0   1425 36.34                                     0.9    568  29 
 KLNJ BZ EPn  4   1425 35.84                                    -3.2    596 311 
 SRVN BZ EPn  0   1425 39.93                                    -0.5    609  91 
 NASN BZ EPn  4   1425 43.84                                    -4.9    674 331 
 TABS BZ EPn  0   1425 50.85                                     0.8    687   7 
 SHRT BZ EPn  0   1426  1.19                                    -1.0    784  30 
 GTMR BZ EPn  4   1426  7.88                                    -6.3    882 309 
 KHMZ BZ EPn  4   1426 13.37                                    -5.5    917 319 
 ASAO BZ EPn  4   1426 21.73                                    -5.1    981 323 
 GLO  BZ EPn  0   1426 32.12                                     0.0   1024 347 
 CHTH BZ EPn  4   1426 30.45                                    -5.0   1051 333 
 BNDS BZ  IAML    1424 19.03       8e+01 1.00                            13 212 
 JSSH BZ  IAML    1424 51.16         0.8 1.00                           210 147 
 LMD1 BZ  IAML    1425  2.45           3 1.00                           305 267 
 GHIR BZ  IAML    1425  6.12         0.2 1.00                           332 285 
 BSRN BZ  IAML    1425 36.34         0.1 1.00                           568  29 
 SRVN BZ  IAML    1425 39.93        0.04 1.00                           609  91 
 TABS BZ  IAML    1425 50.85         0.1 1.00                           687   7 
 SHRT BZ  IAML    1426  1.19        0.05 1.00                           784  30 
                                                                                
 2021 1114 1512  7.8 L  27.628  56.138  8.0  SC3 23 0.5 4.5LSC3                1
 GAP= 91        0.00       1.6     1.6  2.9                                    E
 2021-11-14-1512-07.BIN__084                                                   6
 ACTION:NEW 21-11-15 10:55 OP:SEIS STATUS:               ID:20211114151207     I
 STAT SP IPHASW D HRMM SECON CODA AMPLIT PERI AZIMU VELO AIN AR TRES W  DIS CAZ7
 BNDS BZ EPg  0   1512 12.67                                    -0.0     26 173 
 JSSH BZ EPn  0   1512 43.95                                    -0.4    227 147 
 KRBR BZ EPn  4   1512 45.93                                    -3.8    268  13 
 LMD1 BZ EPn  0   1512 52.76                                    -0.1    296 264 
 GHIR BZ EPn  0   1512 56.14                                     0.3    318 283 
 CHBR BZ EPn  0   1513 17.61                                     0.9    488 117 
 YZKH BZ EPn  0   1513 24.90                                     0.4    548 344 
 BSRN BZ EPn  0   1513 26.61                                     0.7    561  31 
 KLNJ BZ EPn  0   1513 27.85                                    -0.5    579 310 
 SRVN BZ EPn  0   1513 32.67                                    -0.5    619  92 
 NASN BZ EPn  0   1513 37.67                                    -0.3    657 331 
 TABS BZ EPn  0   1513 39.19                                    -0.8    674   8 
 SHRT BZ EPn  0   1513 52.70                                    -0.0    777  31 
 GTMR BZ EPn  0   1514  2.94                                    -0.6    864 308 
 KHMZ BZ EPn  0   1514  7.13                                    -0.9    899 319 
 TBJM BZ EPn  0   1514 12.10                                    -0.5    936  25 
 ASAO BZ EPn  0   1514 15.68                                    -0.4    964 323 
 GLO  BZ EPn  0   1514 21.89                                     0.3   1008 348 
 ABGH BZ EPn  0   1514 23.20                                     0.5   1018 353 
 CHTH BZ EPn  0   1514 25.07                                     0.3   1034 333 
 KAGH BZ EPn  0   1514 32.83                                     0.7   1093  19 
 MRVT BZ EPn  0   1514 34.07                                    -0.3   1112 360 
 GZV  BZ EPn  4   1514 30.73                                    -4.9   1121 330 
 BNDS BZ  IAML    1512 12.67       1e+02 1.00                            26 173 
 JSSH BZ  IAML    1512 43.95           5 1.00                           227 147 
 LMD1 BZ  IAML    1512 52.76           4 1.00                           296 264 
 CHBR BZ  IAML    1513 17.61         0.8 1.00                           488 117 
 YZKH BZ  IAML    1513 24.90         0.2 1.00                           548 344 
 BSRN BZ  IAML    1513 26.61         0.6 1.00                           561  31 
 KLNJ BZ  IAML    1513 27.85         0.4 1.00                           579 310 
 SRVN BZ  IAML    1513 32.67         0.2 1.00                           619  92 
 NASN BZ  IAML    1513 37.67         0.2 1.00                           657 331 
 TABS BZ  IAML    1513 39.19         0.4 1.00                           674   8 
 SHRT BZ  IAML    1513 52.70         0.2 1.00                           777  31 
 GTMR BZ  IAML    1514  2.94         0.2 1.00                           864 308 
                                                                                
 2021 1114 1522 18.4 L  27.628  56.149 12.0  SC3 22 0.3 4.5LSC3                1
 GAP=117        0.00       1.1     1.1374.3                                    E
 2021-11-14-1522-18.BIN__084                                                   6
 ACTION:NEW 21-11-15 11:09 OP:SEIS STATUS:               ID:20211114152218     I
 STAT SP IPHASW D HRMM SECON CODA AMPLIT PERI AZIMU VELO AIN AR TRES W  DIS CAZ7
 JSSH BZ EPn  0   1522 54.06                                    -0.3    227 147 
 KRBR BZ EPn  4   1522 57.80                                    -2.0    268  13 
 LMD1 BZ EPn  0   1523  3.58                                     0.4    297 264 
 GHIR BZ EPn  0   1523  5.76                                    -0.3    320 283 
 CHBR BZ EPn  0   1523 26.98                                     0.3    487 118 
 AHRM BZ EPn  0   1523 30.18                                     0.4    512 286 
 YZKH BZ EPn  0   1523 35.41                                     0.7    549 344 
 BSRN BZ EPn  0   1523 35.87                                    -0.2    560  31 
 KLNJ BZ EPn  0   1523 38.22                                    -0.4    580 310 
 SRVN BZ EPn  0   1523 43.36                                     0.2    618  92 
 NASN BZ EPn  0   1523 48.05                                    -0.2    657 331 
 TABS BZ EPn  0   1523 49.92                                    -0.2    674   8 
 SHRT BZ EPn  4   1524  5.52                                     2.7    776  31 
 GTMR BZ EPn  0   1524 12.70                                    -1.1    865 308 
 KHMZ BZ EPn  0   1524 17.54                                    -0.8    900 319 
 TBJM BZ EPn  0   1524 22.84                                     0.1    936  25 
 ASAO BZ EPn  0   1524 25.96                                    -0.4    964 323 
 GLO  BZ EPn  0   1524 31.58                                    -0.2   1008 347 
 ABGH BZ EPn  0   1524 32.98                                     0.1   1018 353 
 CHTH BZ EPn  0   1524 35.48                                     0.5   1034 333 
 KAGH BZ EPn  0   1524 41.88                                    -0.3   1093  19 
 MRVT BZ EPn  4   1524 41.25                                    -3.3   1112 360 
 JSSH BZ  IAML    1522 54.06           3 1.00                           227 147 
 LMD1 BZ  IAML    1523  3.58       1e+01 1.00                           297 264 
 CHBR BZ  IAML    1523 26.98         0.7 1.00                           487 118 
 AHRM BZ  IAML    1523 30.18         0.3 1.00                           512 286 
 YZKH BZ  IAML    1523 35.41         0.3 1.00                           549 344 
 BSRN BZ  IAML    1523 35.87         0.4 1.00                           560  31 
 KLNJ BZ  IAML    1523 38.22         0.9 1.00                           580 310 
 SRVN BZ  IAML    1523 43.36         0.1 1.00                           618  92 
 NASN BZ  IAML    1523 48.05         0.4 1.00                           657 331 
 TABS BZ  IAML    1523 49.92         0.4 1.00                           674   8 
                                                                                
