 2021 1120 0455 54.9 L  27.544  56.024 12.0  SC3  8 0.4 3.4LSC3                1
 GAP=142        0.00       1.8     1.8  1.9                                    E
 2021-11-20-0455-54.BIN__085                                                   6
 ACTION:NEW 21-11-20 09:05 OP:SEIS STATUS:               ID:20211120045554     I
 STAT SP IPHASW D HRMM SECON CODA AMPLIT PERI AZIMU VELO AIN AR TRES W  DIS CAZ7
 BNDS BZ EPg  0   0455 58.92                                    -0.5     22 138 
 JSSH BZ EPn  0   0456 31.25                                     0.4    226 143 
 KRBR BZ EPn  0   0456 38.29                                     0.5    280  15 
 GHIR BZ EPn  0   0456 41.50                                     0.1    310 285 
 YZKH BZ EPn  0   0457 12.14                                     0.2    555 346 
 KLNJ BZ EPn  0   0457 14.47                                    -0.3    577 312 
 NASN BZ EPn  0   0457 24.56                                    -0.5    660 332 
 GTMR BZ EPn  0   0457 49.08                                    -0.8    862 309 
 BNDS BZ  IAML    0455 58.92       3e+01 1.00                            22 138 
 JSSH BZ  IAML    0456 31.25         0.5 1.00                           226 143 
 KRBR BZ  IAML    0456 38.29         0.3 1.00                           280  15 
 YZKH BZ  IAML    0457 12.14        0.03 1.00                           555 346 
 KLNJ BZ  IAML    0457 14.47        0.07 1.00                           577 312 
 NASN BZ  IAML    0457 24.56        0.02 1.00                           660 332 
                                                                                
 2021 1120 1844 27.2 L  27.692  56.171 15.6  SC3 16 0.3 3.8LSC3                1
 GAP= 87        0.00       1.8     1.8  3.3                                    E
 2021-11-20-1844-27.BIN__084                                                   6
 ACTION:NEW 21-11-21 07:07 OP:SEIS STATUS:               ID:20211120184427     I
 STAT SP IPHASW D HRMM SECON CODA AMPLIT PERI AZIMU VELO AIN AR TRES W  DIS CAZ7
 BNDS BZ EPg  0   1844 33.62                                    -0.0     32 180 
 KRBR BZ EPn  0   1845  8.07                                     0.7    260  13 
 LMD1 BZ EPn  0   1845 12.14                                     0.1    300 263 
 GHIR BZ EPn  0   1845 14.86                                     0.2    320 282 
 YZKH BZ EPn  0   1845 42.86                                     0.4    543 344 
 KLNJ BZ EPn  0   1845 46.09                                    -0.7    577 310 
 SRVN BZ EPn  0   1845 51.40                                    -0.0    616  93 
 NASN BZ EPn  0   1845 55.70                                    -0.3    652 330 
 TABS BZ EPn  0   1845 57.75                                     0.1    667   8 
 SHRT BZ EPn  0   1846 11.34                                     1.0    769  31 
 GTMR BZ EPn  4   1846 20.32                                    -1.6    862 308 
 KHMZ BZ EPn  0   1846 25.42                                    -0.9    896 318 
 TBJM BZ EPn  4   1846 30.27                                     0.0    928  25 
 ASAO BZ EPn  0   1846 33.88                                    -0.4    960 322 
 GLO  BZ EPn  0   1846 40.30                                     0.9   1002 347 
 CHTH BZ EPn  0   1846 42.10                                    -0.7   1029 332 
 BNDS BZ  IAML    1844 33.62       3e+01 1.00                            32 180 
 KRBR BZ  IAML    1845  8.07           1 1.00                           260  13 
 LMD1 BZ  IAML    1845 12.14           1 1.00                           300 263 
 YZKH BZ  IAML    1845 42.86         0.1 1.00                           543 344 
 SRVN BZ  IAML    1845 51.40        0.03 1.00                           616  93 
 NASN BZ  IAML    1845 55.70        0.05 1.00                           652 330 
 TABS BZ  IAML    1845 57.75        0.08 1.00                           667   8 
 SHRT BZ  IAML    1846 11.34        0.03 1.00                           769  31 
                                                                                
 2021 1120 1917 57.3 L  27.591  56.216  7.0  SC3 12 0.3 3.5LSC3                1
 GAP= 73        0.00       1.5     1.5  3.0                                    E
 2021-11-20-1917-57.BIN__084                                                   6
 ACTION:NEW 21-11-21 07:12 OP:SEIS STATUS:               ID:20211120191757     I
 STAT SP IPHASW D HRMM SECON CODA AMPLIT PERI AZIMU VELO AIN AR TRES W  DIS CAZ7
 BNDS BZ EPg  0   1918  1.67                                     0.1     22 192 
 JSSH BZ EPn  0   1918 32.90                                    -0.1    220 148 
 KRBR BZ EPn  0   1918 39.98                                     0.3    270  11 
 LMD1 BZ EPn  0   1918 42.94                                    -0.5    303 265 
 GHIR BZ EPn  0   1918 47.06                                     0.5    327 284 
 ZHSF BZ EPn  4   1918 41.98                                   -25.9    498  63 
 AHRM BZ EPn  0   1919 10.81                                     0.6    519 286 
 YZKH BZ EPn  0   1919 14.72                                    -0.2    555 344 
 BSRN BZ EPn  0   1919 15.66                                     0.1    561  30 
 KLNJ BZ EPn  0   1919 18.95                                    -0.2    588 310 
 SRVN BZ EPn  0   1919 21.86                                     0.0    611  92 
 NASN BZ EPn  0   1919 27.91                                    -0.7    664 330 
 BNDS BZ  IAML    1918  1.67       3e+01 1.00                            22 192 
 JSSH BZ  IAML    1918 32.90         0.6 1.00                           220 148 
 KRBR BZ  IAML    1918 39.98         0.5 1.00                           270  11 
 LMD1 BZ  IAML    1918 42.94         0.9 1.00                           303 265 
 GHIR BZ  IAML    1918 47.06        0.06 1.00                           327 284 
 YZKH BZ  IAML    1919 14.72        0.04 1.00                           555 344 
 BSRN BZ  IAML    1919 15.66        0.07 1.00                           561  30 
 KLNJ BZ  IAML    1919 18.95        0.08 1.00                           588 310 
 SRVN BZ  IAML    1919 21.86        0.02 1.00                           611  92 
 NASN BZ  IAML    1919 27.91        0.03 1.00                           664 330 
                                                                                
 2021 1121 0555 38.2 L  27.579  56.068  8.0  SC3 11 0.3 3.5LSC3                1
 GAP=132        0.00       1.6     1.6  2.4                                    E
 2021-11-21-0555-38.BIN__084                                                   6
 ACTION:NEW 21-11-21 06:47 OP:SEIS STATUS:               ID:20211121055538     I
 STAT SP IPHASW D HRMM SECON CODA AMPLIT PERI AZIMU VELO AIN AR TRES W  DIS CAZ7
 BNDS BZ EPg  0   0555 42.68                                     0.1     22 153 
 JSSH BZ EPn  0   0556 14.87                                     0.2    227 145 
 KRBR BZ EPn  0   0556 21.42                                     0.4    275  14 
 GHIR BZ EPn  0   0556 25.84                                     0.2    313 284 
 YZKH BZ EPn  0   0556 55.96                                     0.6    552 345 
 KLNJ BZ EPn  0   0556 58.59                                    -0.1    578 311 
 SRVN BZ EPn  0   0557  3.97                                    -0.5    626  92 
 NASN BZ EPn  0   0557  8.43                                    -0.2    658 332 
 GTMR BZ EPn  0   0557 32.87                                    -0.9    863 309 
 KHMZ BZ EPn  0   0557 38.07                                    -0.4    899 319 
 ASAO BZ EPn  0   0557 46.29                                    -0.3    964 323 
 BNDS BZ  IAML    0555 42.68       6e+01 1.00                            22 153 
 JSSH BZ  IAML    0556 14.87         0.8 1.00                           227 145 
 KRBR BZ  IAML    0556 21.42         0.5 1.00                           275  14 
 YZKH BZ  IAML    0556 55.96        0.05 1.00                           552 345 
 KLNJ BZ  IAML    0556 58.59        0.07 1.00                           578 311 
 SRVN BZ  IAML    0557  3.97        0.02 1.00                           626  92 
 NASN BZ  IAML    0557  8.43        0.02 1.00                           658 332 
                                                                                
 2021 1121 2251  5.7 L  27.575  55.990 10.0  SC3 11 0.5 3.4LSC3                1
 GAP=122        0.00       2.5     2.5  3.7                                    E
 2021-11-21-2251-05.BIN__088                                                   6
 ACTION:NEW 21-11-22 04:59 OP:SEIS STATUS:               ID:20211121225105     I
 STAT SP IPHASW D HRMM SECON CODA AMPLIT PERI AZIMU VELO AIN AR TRES W  DIS CAZ7
 BNDS BZ EPg  0   2251 10.39                                    -0.5     26 137 
 JSSH BZ EPn  0   2251 42.67                                     0.1    231 143 
 KRBR BZ EPn  0   2251 48.94                                     0.3    277  16 
 LMD1 BZ EPn  0   2251 49.81                                     1.1    280 265 
 GHIR BZ EPn  0   2251 51.71                                    -0.3    306 285 
 YZKH BZ EPn  0   2252 22.09                                    -0.4    550 346 
 KLNJ BZ EPn  0   2252 24.79                                    -0.5    572 312 
 NASN BZ EPn  0   2252 34.60                                    -0.9    655 332 
 GTMR BZ EPn  4   2252 41.08                                   -19.3    857 309 
 KHMZ BZ EPn  4   2253  3.19                                    -2.0    895 320 
 ASAO BZ EPn  0   2253 12.55                                    -0.8    960 324 
 BNDS BZ  IAML    2251 10.39       2e+01 1.00                            26 137 
 JSSH BZ  IAML    2251 42.67         0.3 1.00                           231 143 
 KRBR BZ  IAML    2251 48.94         0.3 1.00                           277  16 
 LMD1 BZ  IAML    2251 49.81         0.5 1.00                           280 265 
 YZKH BZ  IAML    2252 22.09        0.05 1.00                           550 346 
 KLNJ BZ  IAML    2252 24.79        0.05 1.00                           572 312 
 NASN BZ  IAML    2252 34.60        0.02 1.00                           655 332 
                                                                                
 2021 1122 0329 35.6 L  27.668  56.162  7.0  SC3 12 0.3 3.8LSC3                1
 GAP=117        0.00       1.6     1.6  3.7                                    E
 2021-11-22-0329-35.BIN__084                                                   6
 ACTION:NEW 21-11-22 05:06 OP:SEIS STATUS:               ID:20211122032935     I
 STAT SP IPHASW D HRMM SECON CODA AMPLIT PERI AZIMU VELO AIN AR TRES W  DIS CAZ7
 BNDS BZ EPg  0   0329 41.10                                    -0.1     30 178 
 JSSH BZ EPn  0   0330 12.51                                    -0.1    230 148 
 KRBR BZ EPn  0   0330 17.67                                     0.6    263  13 
 LMD1 BZ EPn  0   0330 21.32                                     0.1    298 263 
 GHIR BZ EPn  0   0330 23.87                                    -0.1    320 282 
 YZKH BZ EPn  0   0330 52.50                                     0.4    545 344 
 KLNJ BZ EPn  0   0330 55.58                                    -0.6    578 310 
 NASN BZ EPn  0   0331  4.94                                    -0.7    654 330 
 TABS BZ EPn  0   0331  7.63                                     0.3    669   8 
 SHRT BZ EPn  0   0331 19.60                                    -0.5    772  31 
 GTMR BZ EPn  4   0331 29.28                                    -2.1    863 308 
 KHMZ BZ EPn  0   0331 34.78                                    -1.1    898 319 
 BNDS BZ  IAML    0329 41.10       5e+01 1.00                            30 178 
 JSSH BZ  IAML    0330 12.51         0.6 1.00                           230 148 
 KRBR BZ  IAML    0330 17.67           1 1.00                           263  13 
 GHIR BZ  IAML    0330 23.87         0.2 1.00                           320 282 
 YZKH BZ  IAML    0330 52.50         0.1 1.00                           545 344 
 KLNJ BZ  IAML    0330 55.58         0.2 1.00                           578 310 
 NASN BZ  IAML    0331  4.94        0.06 1.00                           654 330 
 TABS BZ  IAML    0331  7.63        0.08 1.00                           669   8 
 SHRT BZ  IAML    0331 19.60        0.03 1.00                           772  31 
                                                                                
 2021 1123 0229  8.4 L  27.597  56.173 10.0  SC3  9 0.5 3.5LSC3                1
 GAP=103        0.00       3.7     3.7  5.8                                    E
 2021-11-23-0229-08.BIN__084                                                   6
 ACTION:NEW 21-11-30 10:45 OP:SEIS STATUS:               ID:20211123022908     I
 STAT SP IPHASW D HRMM SECON CODA AMPLIT PERI AZIMU VELO AIN AR TRES W  DIS CAZ7
 BNDS BZ EPg  0   0229 12.75                                    -0.1     22 180 
 KRBR BZ EPn  0   0229 50.63                                     0.1    270  12 
 GHIR BZ EPn  0   0229 57.89                                     1.1    323 284 
 YZKH BZ EPn  0   0230 25.28                                    -0.2    553 344 
 SRVN BZ EPn  0   0230 33.21                                     0.0    616  92 
 NASN BZ EPn  0   0230 38.40                                    -0.6    662 331 
 TABS BZ EPn  4   0230 44.62                                     3.8    677   8 
 KHMZ BZ EPn  0   0231  8.59                                    -0.6    904 319 
 ASAO BZ EPn  0   0231 16.76                                    -0.4    969 323 
 BNDS BZ  IAML    0229 12.75       5e+01 1.00                            22 180 
 YZKH BZ  IAML    0230 25.28        0.04 1.00                           553 344 
 NASN BZ  IAML    0230 38.40        0.02 1.00                           662 331 
                                                                                
 2021 1123 0815 25.0 L  27.547  56.173 16.0  SC3 10 0.4 3.3LSC3                1
 GAP=104        0.00       2.3     2.3  2.8                                    E
 2021-11-23-0815-24.BIN__084                                                   6
 ACTION:NEW 21-12-01 10:43 OP:SEIS STATUS:               ID:20211123081524     I
 STAT SP IPHASW D HRMM SECON CODA AMPLIT PERI AZIMU VELO AIN AR TRES W  DIS CAZ7
 BNDS BZ EPg  0   0815 29.22                                     0.1     16 181 
 JSSH BZ EPn  0   0815 59.53                                     0.1    218 146 
 KRBR BZ EPn  0   0816  7.23                                     0.2    276  12 
 GHIR BZ EPn  0   0816 12.97                                     0.1    324 285 
 YZKH BZ EPn  0   0816 42.39                                     0.3    558 344 
 SRVN BZ EPn  0   0816 48.30                                    -0.7    616  91 
 NASN BZ EPn  0   0816 55.69                                     0.2    666 331 
 GTMR BZ EPn  0   0817 20.10                                    -0.8    873 309 
 ASAO BZ EPn  0   0817 33.98                                     0.4    973 323 
 ILBA BZ EPn  0   0817 56.95                                    -0.8   1169 305 
 BNDS BZ  IAML    0815 29.22       4e+01 1.00                            16 181 
 YZKH BZ  IAML    0816 42.39        0.03 1.00                           558 344 
 NASN BZ  IAML    0816 55.69        0.02 1.00                           666 331 
                                                                                
 2021 1124 0234 26.2 L  27.581  56.083 10.0  SC3 11 0.5 3.6LSC3                1
 GAP=142        0.00       5.1     5.1 10.4                                    E
 2021-11-24-0234-26.BIN__081                                                   6
 ACTION:NEW 21-11-24 06:07 OP:SEIS STATUS:               ID:20211124023426     I
 STAT SP IPHASW D HRMM SECON CODA AMPLIT PERI AZIMU VELO AIN AR TRES W  DIS CAZ7
 BNDS BZ EPg  0   0234 30.33                                    -0.3     22 156 
 KRBR BZ EPn  0   0235  9.33                                     0.6    274  14 
 GHIR BZ EPn  0   0235 13.80                                     0.3    315 284 
 YZKH BZ EPn  0   0235 43.01                                    -0.2    552 345 
 KLNJ BZ EPn  0   0235 45.66                                    -0.8    578 311 
 NASN BZ EPn  0   0235 56.07                                    -0.4    659 331 
 GTMR BZ EPn  0   0236 20.21                                    -1.4    864 309 
 KHMZ BZ EPn  0   0236 25.55                                    -0.8    900 319 
 TBJM BZ EPn  4   0236 25.63                                    -6.0    943  25 
 ASAO BZ EPn  0   0236 33.53                                    -0.9    965 323 
 BJRD BZ EPn  4   0236 35.89                                   -18.8   1129   6 
 BNDS BZ  IAML    0234 30.33       3e+01 1.00                            22 156 
 KRBR BZ  IAML    0235  9.33         0.4 1.00                           274  14 
 KLNJ BZ  IAML    0235 45.66        0.08 1.00                           578 311 
 NASN BZ  IAML    0235 56.07        0.04 1.00                           659 331 
                                                                                
 2021 1125 1102 56.6 L  27.609  56.265 12.0  SC3 12 0.4 3.7LSC3                1
 GAP= 82        0.00       2.1     2.1  3.1                                    E
 2021-11-25-1102-56.BIN__087                                                   6
 ACTION:NEW 21-11-27 06:38 OP:SEIS STATUS:               ID:20211125110256     I
 STAT SP IPHASW D HRMM SECON CODA AMPLIT PERI AZIMU VELO AIN AR TRES W  DIS CAZ7
 BNDS BZ EPg  0   1103  1.49                                    -0.1     25 202 
 JSSH BZ EPn  0   1103 31.88                                     0.3    219 149 
 KRBR BZ EPn  0   1103 38.98                                     1.0    268  10 
 LMD1 BZ EPn  0   1103 42.69                                    -0.0    308 264 
 GHIR BZ EPn  0   1103 46.36                                     0.6    331 283 
 YZKH BZ EPn  0   1104 13.43                                    -0.1    554 343 
 SRVN BZ EPn  0   1104 19.75                                    -0.2    606  92 
 NASN BZ EPn  0   1104 26.78                                    -0.5    665 330 
 TABS BZ EPn  0   1104 28.65                                     0.3    675   7 
 KHMZ BZ EPn  0   1104 56.70                                    -0.9    909 318 
 ASAO BZ EPn  0   1105  4.91                                    -0.7    973 322 
 ILBA BZ EPn  4   1105 27.25                                    -2.9   1172 305 
 BNDS BZ  IAML    1103  1.49       5e+01 1.00                            25 202 
 JSSH BZ  IAML    1103 31.88         0.4 1.00                           219 149 
 KRBR BZ  IAML    1103 38.98           1 1.00                           268  10 
 YZKH BZ  IAML    1104 13.43        0.07 1.00                           554 343 
 SRVN BZ  IAML    1104 19.75        0.04 1.00                           606  92 
 NASN BZ  IAML    1104 26.78        0.04 1.00                           665 330 
 TABS BZ  IAML    1104 28.65        0.08 1.00                           675   7 
                                                                                
