 2021 1115 0145 28.5 L  27.473  56.146 21.0  Teh  8 0.4 2.9LTeh                1
 GAP=131                                                                       E
 Iranian Seismological Center, Institute of Geophysics, University of Tehran   6
 STAT SP IPHASW D HRMM SECON CODA AMPLIT PERI AZIMU VELO SNR AR TRES  W DIS CAZ7
 MZN1 BZ E    0   0146 25.26      4412.3 0.92                           161 294
 ZNGN BZ E    0   0147 10.14       161.0 0.24                           725 316
 BNB  BZ E    0   0145 49.00    125291.0 0.28                          39.0  94
 BNDS BZ EPn  0   0145 33.8                                     -0.4    9.0 163
 BNB  BZ EPg  0   0145 36.8                                     -0.1   39.0  94
 JASK BZ EPn  0   0146 7.1                                       0.2    247 136
 CHMN BZ E    0   0146 33.08      1064.5 0.28                           298  27
 KBAM BZ EPn  0   0146 12.7                                      0.1    292  50
 CHMN BZ EPn  0   0146 13.2                                     -0.6    298  27
 MZN1 BZ ESg  0   0146 18.0                                      0.0    161 294
 SRVN BZ E    0   0147  9.80        65.7 0.32                           618  89
 SRVN BZ EPn  0   0146 53.6                                      0.6    618  89

 2021 1115 0159 52.1 L  27.585  56.315 15.1  Teh  6 0.3 2.8LTeh                1
 GAP=170                                                                       E
 Iranian Seismological Center, Institute of Geophysics, University of Tehran   6
 STAT SP IPHASW D HRMM SECON CODA AMPLIT PERI AZIMU VELO SNR AR TRES  W DIS CAZ7
 BNB  BZ E    0   0200  9.02     71845.9 0.44                          27.0 124
 CHMN BZ E    0   0201 18.48       331.5 0.44                           279  25
 SRVN BZ E    0   0201  7.58        29.2  1.2                           601  91
 JASK BZ E    0   0200 47.00      1114.0 0.36                           245 141
 KBAM BZ E    0   0201 16.60       476.5 0.32                           271  50
 BNDS BZ EPg  0   0159 57.4                                     -0.1   25.0 215
 BNB  BZ EPg  0   0159 57.6                                      0.1   27.0 124
 JASK BZ EPn  0   0200 30.1                                      0.2    245 141
 KBAM BZ EPn  0   0200 33.7                                      0.5    271  50
 CHMN BZ EPn  0   0200 34.3                                     -0.2    279  25
 SRVN BZ EPn  0   0201 13.7                                     -0.5    601  91

 2021 1115 0202 27.1 L  27.576  56.139  7.0  Teh 17 0.4 4.2LTeh                1
 GAP=119                                                                       E
 Iranian Seismological Center, Institute of Geophysics, University of Tehran   6
 STAT SP IPHASW D HRMM SECON CODA AMPLIT PERI AZIMU VELO SNR AR TRES  W DIS CAZ7
 MZN1 BE E    0   0203 29.08     64120.6  0.6                           156 290
 KSHB BZ E    0   0204 22.94      7037.9 0.96                           312 342
 KBAM BZ E    0   0204  6.98     10795.4 0.76                           285  52
 KANR BZ E    0   0203 44.06      4521.2 0.48                           380 349
 BAF  SZ E    0   0203 57.27      2627.2 0.76                           448 353
 BNDS BZ EPg  0   0202 32.1                                     -0.0   20.0 171
 BNB  BZ EPg  0   0202 35.0                                     -0.6   42.0 109
 CHMN BZ E    0   0204  8.60      7564.3 0.72                           288  28
 TAFT BZ E    0   0203 50.68      2393.4 0.28                           497 338
 SHI  BZ E    0   0205  3.04      2739.1 0.72                           421 304
 MZN1 BE EPg  0   0202 54.5                                     -0.1    156 290
 BAZ1 BZ E    0   0204 41.68      2411.8 0.56                           400  85
 KRVR BZ E    0   0204 58.08       -99.0 1.08                           457   9
 KBAM BZ EPn  0   0203 11.7                                     -0.3    285  52
 CHMN BN EPn  0   0203 13.0                                      0.2    288  28
 KANR BN EPn  0   0203 24.5                                      0.7    380 349
 BAZ1 BN EPn  0   0203 26.0                                     -0.2    400  85
 BAF  SZ EPn  0   0203 31.7                                     -0.5    448 353
 CHBR BZ EPn  0   0203 37.1                                      0.7    485 116
 TAFT BZ EPn  0   0203 38.5                                      0.1    497 338
 NHDN BZ EPn  0   0203 47.1                                      0.1    568  41
 KLNJ BN EPn  0   0203 48.9                                     -0.3    583 312
 ANAR BZ EPn  4   0203 58.8                                     -0.0    664 340
 JHBN BZ EPn  4   0204 7.6                                      -0.8    738 316

 2021 1115 0218  4.8 L  27.633  56.174 21.4  Teh  6 0.3 2.9LTeh                1
 GAP=107                                                                       E
 Iranian Seismological Center, Institute of Geophysics, University of Tehran   6
 STAT SP IPHASW D HRMM SECON CODA AMPLIT PERI AZIMU VELO SNR AR TRES  W DIS CAZ7
 BNDS BZ E    0   0218 20.08     35388.9 0.44                          26.0 181
 BNB  BZ E    0   0218 23.86     48199.4  0.4                          41.0 119
 BNDS BZ EPg  0   0218 10.9                                      0.2   26.0 181
 BNB  BZ EPg  0   0218 12.5                                     -0.2   41.0 119
 MZN1 BE E    0   0219  6.68      2193.1 0.76                           157 288
 MZN1 BE EPn  0   0218 30.7                                     -0.1    157 288
 KBAM BZ E    0   0218 49.04      1522.0 0.44                           278  53
 CHMN BZ E    0   0219 25.64       810.3 0.44                           280  28
 CHMN BZ EPn  0   0218 46.1                                     -0.3    280  28
 KBAM BZ EPn  0   0218 46.4                                      0.5    278  53
 SRVN BZ E    0   0220 55.80        45.8 0.64                           615  91
 SRVN BZ EPn  0   0219 27.6                                     -0.1    615  91

 2021 1115 0245 22.8 L  27.525  56.042 10.0  Teh  6 0.4 2.8LTeh                1
 GAP=156                                                                       E
 Iranian Seismological Center, Institute of Geophysics, University of Tehran   6
 STAT SP IPHASW D HRMM SECON CODA AMPLIT PERI AZIMU VELO SNR AR TRES  W DIS CAZ7
 BNDS BZ EPn  0   0245 26.3                                     -0.6   19.0 138
 BNB  BZ EPg  0   0245 32.4                                      0.6   50.0 100
 KBAM BZ E    0   0246 58.78       644.4 0.56                           296  52
 CHMN BZ E    0   0246 53.46       851.7 0.96                           297  29
 JASK BZ EPn  0   0246 3.2                                       0.3    258 135
 KBAM BZ EPn  0   0246 7.6                                      -0.2    296  52
 CHMN BZ EPn  0   0246 8.0                                      -0.2    297  29
 MZN1 BZ ESg  0   0246 8.2                                       0.0    149 294

 2021 1115 0253 43.5 L  27.635  56.168 11.9  Teh 15 0.3 3.7LTeh                1
 GAP=109                                                                       E
 Iranian Seismological Center, Institute of Geophysics, University of Tehran   6
 STAT SP IPHASW D HRMM SECON CODA AMPLIT PERI AZIMU VELO SNR AR TRES  W DIS CAZ7
 MZN1 BZ E    0   0254 35.98     19507.3 0.48                           157 288
 JASK BZ E    0   0255 35.84      5503.4 0.92                           259 139
 KANR BZ E    0   0254 48.44      2145.6 0.72                           374 349
 CHMN BZ E    0   0255 15.50      1812.9 0.44                           281  28
 KBAM BZ E    0   0255 25.10      2175.0  0.6                           279  53
 BNDS BZ EPg  0   0253 48.8                                     -0.1   26.0 179
 KSHB BZ E    0   0255 20.34      2938.1 0.92                           306 341
 BNB  BZ EPg  0   0253 51.1                                     -0.2   42.0 119
 BAF  SZ E    0   0255 55.56       790.6 0.72                           442 353
 TAFT BZ E    0   0254 59.40       833.3 0.28                           492 337
 MZN1 BE EPg  0   0254 10.5                                     -0.1    157 288
 JASK BZ EPn  0   0254 23.9                                      0.3    259 139
 KBAM BZ EPn  0   0254 26.7                                      0.5    279  53
 CHMN BN EPn  0   0254 26.8                                      0.1    281  28
 MZN1 BE ESg  0   0254 31.3                                      0.3    157 288
 KANR BZ EPn  0   0254 38.3                                      0.3    374 349
 BAZ1 BZ EPn  0   0254 40.5                                     -0.3    397  86
 BAF  SZ EPn  0   0254 46.4                                     -0.2    442 353
 KRVR BZ EPn  0   0254 47.4                                     -0.0    450   8
 TAFT BZ EPn  0   0254 53.0                                      0.2    492 337
 KLNJ BE EPn  0   0255 3.5                                      -0.4    581 311
 ANAR BZ EPn  0   0255 13.0                                     -0.4    659 340
 JHBN BE EPn  0   0255 23.0                                     -0.1    736 315

 2021 1115 0304 38.5 L  27.577  56.081 11.0  Teh 12 0.4 3.3LTeh                1
 GAP=135                                                                       E
 Iranian Seismological Center, Institute of Geophysics, University of Tehran   6
 STAT SP IPHASW D HRMM SECON CODA AMPLIT PERI AZIMU VELO SNR AR TRES  W DIS CAZ7
 MZN1 BE E    0   0305 28.74      6542.2 0.48                           151 291
 BNB  BZ E    0   0305  4.12     61519.9 0.44                          48.0 107
 KANR BZ E    0   0306 31.74       727.8 0.92                           378 350
 BNDS BZ EPg  0   0304 42.8                                     -0.2   22.0 156
 BNB  BZ EPg  0   0304 47.4                                      0.3   48.0 107
 TAFT BZ E    0   0305 49.96       481.2 0.24                           495 339
 BAF  SZ E    0   0305 42.63       274.4 0.28                           447 354
 MZN1 BZ EPg  0   0305 4.3                                      -0.2    151 291
 KBAM BZ E    0   0305 30.48      1581.3 0.64                           290  53
 CHMN BZ E    0   0306  6.84       789.4  0.8                           290  29
 KSHB BZ E    0   0306 18.72      1053.3 0.48                           310 343
 CHMN BZ EPn  0   0305 22.9                                     -0.0    290  29
 KBAM BZ EPn  0   0305 23.0                                      0.4    290  53
 MZN1 BZ ESg  0   0305 24.4                                      0.2    151 291
 KSHB BZ EPn  0   0305 25.8                                      0.6    310 343
 SRVN BZ E    0   0306  7.50        72.8 0.28                           624  90
 KANR BZ EPn  0   0305 33.6                                     -0.1    378 350
 BAF  SN EPn  0   0305 41.4                                     -0.8    447 354
 TAFT BZ EPn  0   0305 48.1                                     -0.2    495 339
 KLNJ BE EPn  4   0305 57.2                                     -1.4    578 312
 SRVN BN EPn  0   0306 4.2                                      -0.0    624  90
 ANAR BZ EPn  4   0306 7.6                                      -1.2    662 341

 2021 1115 0314 36.1 L  27.486  56.212 15.6  Teh 20 0.3 3.9LTeh                1
 GAP=90                                                                        E
 Iranian Seismological Center, Institute of Geophysics, University of Tehran   6
 STAT SP IPHASW D HRMM SECON CODA AMPLIT PERI AZIMU VELO SNR AR TRES  W DIS CAZ7
 BNB  BZ E    0   0314 57.48    757432.0 0.48                          33.0  97
 JASK BZ E    0   0316  0.54      9945.0 0.48                           243 137
 MZN1 BZ E    0   0315 46.54      8243.7 0.64                           166 293
 KBAM BZ E    0   0315 58.32      7979.7  0.4                           286  50
 CHMN BZ E    0   0315 24.56      4219.9 0.36                           293  26
 BAF  SZ E    0   0316  5.71       799.2 0.32                           459 352
 KANR BZ E    0   0316 16.44      2167.1 0.48                           391 349
 BNDS BZ EPg  0   0314 39.8                                      0.1   10.0 203
 BNB  BZ EPg  0   0314 42.1                                     -0.3   33.0  97
 KRVR BZ E    0   0317  0.62       -99.0 0.96                           466   8
 KLNJ BZ E    0   0317  3.30       756.2 0.68                           595 312
 MZN1 BE EPg  0   0315 4.2                                       0.1    166 293
 JASK BZ EPn  0   0315 13.5                                     -0.0    243 137
 UOSS BZ EPn  0   0315 18.3                                     -0.0    281 180
 KBAM BZ EPn  0   0315 19.0                                      0.1    286  50
 CHMN BZ EPn  0   0315 20.3                                      0.2    293  26
 KSHB BN EPn  0   0315 24.0                                      0.2    323 341
 KANR BZ EPn  0   0315 32.3                                      0.2    391 349
 BAF  SZ EPn  0   0315 40.0                                     -0.5    459 352
 KRVR BZ EPn  4   0315 40.7                                     -0.6    466   8
 TAFT BZ EPn  0   0315 47.0                                      0.2    509 338
 KLNJ BZ EPn  4   0315 56.4                                     -1.1    595 312
 SRVN BZ EPn  0   0315 59.6                                      0.2    611  89
 ANAR BZ EPn  4   0316 7.1                                      -0.3    676 340
 ZNGN BZ EPn  4   0316 14.9                                      0.8    729 316
 JHBN BZ EPn  4   0316 15.9                                     -0.9    750 316
 PIR  SZ EPn  0   0316 18.7                                     -0.6    771 320
 KLH  SZ EPn  0   0316 21.1                                      0.1    785 327
 SHRT BZ EPn  4   0316 21.3                                      0.2    787  29

 2021 1115 0355 19.7 L  27.541  56.113 16.2  Teh 14 0.3 3.1LTeh                1
 GAP=114                                                                       E
 Iranian Seismological Center, Institute of Geophysics, University of Tehran   6
 STAT SP IPHASW D HRMM SECON CODA AMPLIT PERI AZIMU VELO SNR AR TRES  W DIS CAZ7
 BNB  BZ E    0   0355 41.66     38602.7  0.4                          43.0 103
 KHGB BZ E    0   0357  4.62       557.2 0.88                           316   6
 MZN1 BZ E    0   0356 17.42      2116.9 0.84                           155 292
 KANR BZ E    0   0357 17.92       473.6 0.84                           383 350
 JASK BZ E    0   0357  4.68      1370.1 0.92                           254 136
 KSHB BZ E    0   0356 59.62       692.7    1                           315 342
 BNDS BZ EPg  0   0355 24.2                                      0.2   17.0 160
 CHMN BZ E    0   0356  8.04       536.9 0.32                           292  28
 KBAM BZ E    0   0356 41.38       775.6 0.48                           289  52
 BNB  BZ EPg  0   0355 27.5                                     -0.2   43.0 103
 KLNJ BZ E    0   0358 38.32       154.8    1                           583 312
 BAF  SZ E    0   0356 27.93       155.0  0.4                           452 353
 MZN1 BE EPg  0   0355 45.7                                     -0.1    155 292
 UOSS BZ EPn  0   0356 2.6                                      -0.1    288 178
 KBAM BZ EPn  0   0356 3.2                                       0.3    289  52
 CHMN BN EPn  0   0356 3.4                                      -0.1    292  28
 KHGB BZ EPn  0   0356 6.8                                       0.4    316   6
 KANR BZ EPn  0   0356 14.5                                     -0.1    383 350
 BAF  SZ EPn  0   0356 22.9                                     -0.3    452 353
 KLNJ BZ EPn  0   0356 40.1                                      0.4    583 312
 WBK  BZ EPn  0   0356 43.5                                     -0.1    617 152
 ANAR BZ EPn  0   0356 49.4                                     -0.4    667 340

 2021 1115 0413 31.6 L  27.536  56.199 12.3  Teh 15 0.2 3.3LTeh                1
 GAP=101                                                                       E
 Iranian Seismological Center, Institute of Geophysics, University of Tehran   6
 STAT SP IPHASW D HRMM SECON CODA AMPLIT PERI AZIMU VELO SNR AR TRES  W DIS CAZ7
 BNB  BZ E    0   0414  0.82    135742.0 0.44                          35.0 106
 KBAM BZ E    0   0414 59.60      2475.0 0.72                           283  51
 CHMN BZ E    0   0415  2.86      1423.7 0.88                           289  27
 KHGB BZ E    0   0415 24.12       938.2    1                           316   5
 KANR BZ E    0   0415 34.00       655.9 1.12                           385 349
 BNDS BZ EPg  0   0413 36.2                                      0.1   15.0 190
 BNB  BZ EPg  0   0413 38.8                                     -0.1   35.0 106
 MZN1 BE EPg  0   0414 0.2                                      -0.1    163 291
 KLNJ BZ E    0   0416  6.62       248.0 0.92                           590 312
 BAF  SZ E    0   0416  8.37       213.8 0.76                           453 352
 JASK BZ EPn  0   0414 11.4                                      0.3    248 138
 KBAM BZ EPn  0   0414 15.7                                      0.1    283  51
 CHMN BZ EPn  0   0414 16.5                                     -0.3    289  27
 KHGB BZ EPn  0   0414 20.1                                      0.3    316   5
 KSHB BZ EPn  0   0414 20.4                                      0.2    318 341
 BAZ1 BZ EPn  0   0414 29.4                                      0.1    395  84
 HOQ  BZ EPn  0   0414 35.9                                     -0.4    452 165
 BAF  SZ EPn  0   0414 36.3                                     -0.4    453 352
 KLNJ BZ EPn  0   0414 54.1                                      0.2    590 312
 ANAR BZ EPn  4   0415 3.2                                      -0.2    670 340
 AFRZ BZ EPn  4   0415 9.0                                       1.0    706  22

 2021 1115 0423  3.3 L  27.615  56.224 10.0  Teh  6 0.2 2.8LTeh                1
 GAP=168                                                                       E
 Iranian Seismological Center, Institute of Geophysics, University of Tehran   6
 STAT SP IPHASW D HRMM SECON CODA AMPLIT PERI AZIMU VELO SNR AR TRES  W DIS CAZ7
 KHGB BN E    0   0423 58.54       264.1 0.24                           307   5
 MZN1 BE E    0   0424  1.68      1350.8 0.44                           162 288
 BNB  BZ EPg  0   0423 10.7                                     -0.0   36.0 120
 CHMN BZ E    0   0423 49.54       408.7 0.28                           280  27
 KBAM BE E    0   0424 28.40       895.3 0.36                           276  52
 KANR BZ E    0   0424  0.10       133.1 0.28                           377 348
 MZN1 BE EPg  0   0423 31.9                                     -0.0    162 288
 KBAM BE EPn  0   0423 47.0                                      0.3    276  52
 CHMN BZ EPn  0   0423 47.2                                     -0.4    280  27
 KANR BZ EPn  0   0423 59.5                                      0.2    377 348

