 2021 1115 1124 15.4 L  27.618  56.173  6.0  SC3 13 0.4 3.6LSC3                1
 GAP= 84        0.00       2.1     2.1  5.1                                    E
 2021-11-15-1124-15.BIN__084                                                   6
 ACTION:NEW 21-11-15 13:13 OP:SEIS STATUS:               ID:20211115112415     I
 STAT SP IPHASW D HRMM SECON CODA AMPLIT PERI AZIMU VELO AIN AR TRES W  DIS CAZ7
 BNDS BZ EPg  0   1124 20.07                                     0.0     24 180 
 JSSH BZ EPn  0   1124 51.61                                    -0.2    224 147 
 KRBR BZ EPn  4   1124 54.59                                    -3.0    268  12 
 LMD1 BZ EPn  0   1125  1.95                                     0.8    299 264 
 GHIR BZ EPn  0   1125  3.62                                    -0.5    322 283 
 YZKH BZ EPn  0   1125 32.90                                     0.3    551 344 
 KLNJ BZ EPn  0   1125 36.27                                    -0.4    582 310 
 SRVN BZ EPn  0   1125 40.70                                     0.1    616  92 
 NASN BZ EPn  0   1125 46.23                                     0.1    660 331 
 TABS BZ EPn  0   1125 48.33                                     0.4    675   8 
 GTMR BZ EPn  4   1126  9.89                                    -1.9    868 308 
 ASAO BZ EPn  0   1126 23.57                                    -0.8    967 323 
 ILBA BZ EPn  4   1126 45.11                                    -3.6   1165 305 
 BNDS BZ  IAML    1124 20.07       4e+01 1.00                            24 180 
 JSSH BZ  IAML    1124 51.61           1 1.00                           224 147 
 LMD1 BZ  IAML    1125  1.95         0.8 1.00                           299 264 
 YZKH BZ  IAML    1125 32.90        0.04 1.00                           551 344 
 KLNJ BZ  IAML    1125 36.27        0.08 1.00                           582 310 
 SRVN BZ  IAML    1125 40.70        0.02 1.00                           616  92 
 NASN BZ  IAML    1125 46.23        0.03 1.00                           660 331 
 TABS BZ  IAML    1125 48.33        0.06 1.00                           675   8 
                                                                                
 2021 1115 1336 10.8 L  27.636  56.112 12.0  SC3 25 0.6 5.0LSC3                1
 GAP= 96        0.00       1.9     1.9  3.7                                    E
 2021-11-15-1336-10.BIN__084                                                   6
 ACTION:NEW 21-11-15 14:01 OP:SEIS STATUS:               ID:20211115133610     I
 STAT SP IPHASW D HRMM SECON CODA AMPLIT PERI AZIMU VELO AIN AR TRES W  DIS CAZ7
 BNDS BZ EPg  0   1336 16.39                                     0.3     27 167 
 JSSH BZ EPn  0   1336 46.27                                    -0.9    230 146 
 KRBR BZ EPn  4   1336 48.60                                    -3.6    268  14 
 LMD1 BZ EPn  0   1336 56.17                                     1.1    293 264 
 GHIR BZ EPn  0   1336 58.74                                     0.7    316 283 
 CHBR BZ EPn  0   1337 19.55                                    -0.0    490 117 
 AHRM BZ EPn  0   1337 20.54                                    -1.2    508 286 
 YZKH BZ EPn  0   1337 27.30                                     0.4    547 344 
 BSRN BZ EPn  0   1337 28.23                                    -0.3    561  31 
 KLNJ BZ EPn  0   1337 30.14                                    -0.5    577 310 
 SRVN BZ EPn  0   1337 36.55                                     0.5    622  92 
 NASN BZ EPn  0   1337 40.38                                     0.1    655 331 
 TABS BZ EPn  0   1337 41.92                                    -0.6    674   8 
 SHRT BZ EPn  0   1337 55.55                                     0.2    778  31 
 GTMR BZ EPn  4   1338  3.97                                    -1.8    862 308 
 ANJ  BZ EPn  0   1338  9.91                                     0.1    893 346 
 KHMZ BZ EPn  0   1338 10.15                                    -0.2    897 319 
 TBJM BZ EPn  0   1338 14.84                                    -0.4    936  25 
 ASAO BZ EPn  0   1338 17.89                                    -0.5    962 323 
 GLO  BZ EPn  0   1338 24.33                                     0.4   1006 348 
 ABGH BZ EPn  0   1338 25.62                                     0.5   1016 353 
 CHTH BZ EPn  0   1338 27.35                                     0.2   1032 333 
 QABG BZ EPn  0   1338 33.15                                    -1.0   1088 325 
 KAGH BZ EPn  0   1338 35.54                                     0.9   1093  19 
 MRVT BZ EPn  0   1338 36.95                                     0.1   1112 360 
 BNDS BZ  IAML    1336 16.39       7e+02 1.00                            27 167 
 JSSH BZ  IAML    1336 46.27       1e+01 1.00                           230 146 
 LMD1 BZ  IAML    1336 56.17       2e+01 1.00                           293 264 
 CHBR BZ  IAML    1337 19.55           2 1.00                           490 117 
 AHRM BZ  IAML    1337 20.54         0.6 1.00                           508 286 
 YZKH BZ  IAML    1337 27.30           1 1.00                           547 344 
 BSRN BZ  IAML    1337 28.23           2 1.00                           561  31 
 KLNJ BZ  IAML    1337 30.14           2 1.00                           577 310 
 SRVN BZ  IAML    1337 36.55         0.7 1.00                           622  92 
 NASN BZ  IAML    1337 40.38         0.7 1.00                           655 331 
 TABS BZ  IAML    1337 41.92           1 1.00                           674   8 
 SHRT BZ  IAML    1337 55.55         0.9 1.00                           778  31 
                                                                                
 2021 1115 1424 51.6 L  27.643  56.240  8.0  SC3  9 0.3 3.6LSC3                1
 GAP=183        0.00       8.0     8.0 16.2                                    E
 2021-11-15-1424-51.BIN__084                                                   6
 ACTION:NEW 21-11-17 06:34 OP:SEIS STATUS:               ID:20211115142451     I
 STAT SP IPHASW D HRMM SECON CODA AMPLIT PERI AZIMU VELO AIN AR TRES W  DIS CAZ7
 BNDS BZ EPg  0   1424 56.91                                     0.0     28 194 
 KRBR BZ EPn  0   1425 32.69                                    -0.4    264  11 
 GHIR BZ EPn  0   1425 40.90                                     0.1    328 283 
 YZKH BZ EPn  0   1426  9.69                                     1.2    550 343 
 KLNJ BZ EPn  0   1426 12.39                                    -0.6    586 310 
 NASN BZ EPn  0   1426 22.48                                     0.2    660 330 
 GTMR BZ EPn  4   1426 46.09                                    -2.1    871 308 
 KHMZ BZ EPn  0   1426 52.60                                     0.1    905 318 
 ASAO BZ EPn  0   1427  0.39                                    -0.1    968 322 
 BNDS BZ  IAML    1424 56.91       4e+01 1.00                            28 194 
 KRBR BZ  IAML    1425 32.69         0.4 1.00                           264  11 
 NASN BZ  IAML    1426 22.48        0.05 1.00                           660 330 
                                                                                
 2021 1115 1642 42.8 L  27.637  56.203 12.0  SC3 17 0.6 4.0LSC3                1
 GAP= 77        0.00       1.8     1.8  2.9                                    E
 2021-11-15-1642-42.BIN__085                                                   6
 ACTION:NEW 21-11-16 09:29 OP:SEIS STATUS:               ID:20211115164242     I
 STAT SP IPHASW D HRMM SECON CODA AMPLIT PERI AZIMU VELO AIN AR TRES W  DIS CAZ7
 BNDS BZ EPg  0   1642 47.45                                    -0.6     26 187 
 JSSH BZ EPn  0   1643 19.21                                     0.7    225 148 
 KRBR BZ EPn  4   1643 21.21                                    -2.8    266  12 
 LMD1 BZ EPn  0   1643 28.68                                     0.5    302 264 
 GHIR BZ EPn  0   1643 31.98                                     0.9    324 283 
 YZKH BZ EPn  0   1643 59.91                                     0.7    549 344 
 BSRN BZ EPn  0   1643 59.94                                    -0.1    557  31 
 KLNJ BZ EPn  0   1644  2.88                                    -0.6    583 310 
 SRVN BZ EPn  0   1644  6.70                                    -0.2    613  92 
 NASN BZ EPn  0   1644 12.71                                    -0.1    659 330 
 TABS BZ EPn  0   1644 14.24                                    -0.1    672   8 
 SHRT BZ EPn  0   1644 27.00                                     0.2    773  30 
 GTMR BZ EPn  0   1644 37.39                                    -1.2    869 308 
 TBJM BZ EPn  0   1644 47.50                                     0.8    932  25 
 ASAO BZ EPn  0   1644 50.36                                    -0.7    967 322 
 GLO  BZ EPn  0   1644 55.84                                    -0.3   1008 347 
 ILBA BZ EPn  4   1645 12.94                                    -2.6   1166 305 
 BNDS BZ  IAML    1642 47.45       1e+02 1.00                            26 187 
 JSSH BZ  IAML    1643 19.21           2 1.00                           225 148 
 LMD1 BZ  IAML    1643 28.68           2 1.00                           302 264 
 YZKH BZ  IAML    1643 59.91        0.09 1.00                           549 344 
 BSRN BZ  IAML    1643 59.94         0.1 1.00                           557  31 
 KLNJ BZ  IAML    1644  2.88         0.1 1.00                           583 310 
 NASN BZ  IAML    1644 12.71        0.05 1.00                           659 330 
 TABS BZ  IAML    1644 14.24        0.08 1.00                           672   8 
 SHRT BZ  IAML    1644 27.00        0.04 1.00                           773  30 
                                                                                
 2021 1115 1805 37.8 L  27.635  56.226 12.0  SC3 22 0.3 4.3LSC3                1
 GAP= 72        0.00       1.0     1.0  1.6                                    E
 2021-11-15-1805-37.BIN__084                                                   6
 ACTION:NEW 21-11-16 09:12 OP:SEIS STATUS:               ID:20211115180537     I
 STAT SP IPHASW D HRMM SECON CODA AMPLIT PERI AZIMU VELO AIN AR TRES W  DIS CAZ7
 BNDS BZ EPg  0   1805 42.98                                    -0.1     27 192 
 JSSH BZ EPn  0   1806 13.31                                    -0.1    223 149 
 KRBR BZ EPn  4   1806 15.15                                    -3.8    265  11 
 LMD1 BZ EPn  0   1806 24.13                                     0.7    304 264 
 GHIR BZ EPn  0   1806 26.48                                     0.1    327 283 
 AHRM BZ EPn  0   1806 50.04                                    -0.0    519 285 
 YZKH BZ EPn  0   1806 54.82                                     0.6    550 343 
 BSRN BZ EPn  0   1806 54.50                                    -0.4    556  30 
 KLNJ BZ EPn  0   1806 58.01                                    -0.7    585 310 
 SRVN BZ EPn  0   1807  1.60                                    -0.0    610  92 
 NASN BZ EPn  0   1807  7.91                                    -0.1    660 330 
 TABS BZ EPn  0   1807  9.75                                     0.5    672   7 
 SHRT BZ EPn  0   1807 22.12                                     0.5    772  30 
 GTMR BZ EPn  4   1807 31.62                                    -2.2    871 308 
 KHMZ BZ EPn  0   1807 37.37                                    -0.9    904 318 
 TBJM BZ EPn  0   1807 41.77                                     0.2    932  25 
 ASAO BZ EPn  0   1807 45.38                                    -0.8    968 322 
 GLO  BZ EPn  0   1807 51.06                                    -0.1   1009 347 
 ABGH BZ EPn  0   1807 52.57                                     0.3   1018 352 
 CHTH BZ EPn  0   1807 54.73                                     0.0   1037 332 
 KAGH BZ EPn  0   1808  1.55                                     0.3   1090  19 
 QABG BZ EPn  0   1808  1.25                                    -0.6   1095 325 
 BNDS BZ  IAML    1805 42.98       4e+02 1.00                            27 192 
 JSSH BZ  IAML    1806 13.31           3 1.00                           223 149 
 LMD1 BZ  IAML    1806 24.13           5 1.00                           304 264 
 AHRM BZ  IAML    1806 50.04         0.1 1.00                           519 285 
 YZKH BZ  IAML    1806 54.82         0.2 1.00                           550 343 
 BSRN BZ  IAML    1806 54.50         0.4 1.00                           556  30 
 KLNJ BZ  IAML    1806 58.01         0.5 1.00                           585 310 
 SRVN BZ  IAML    1807  1.60         0.1 1.00                           610  92 
 NASN BZ  IAML    1807  7.91         0.2 1.00                           660 330 
 TABS BZ  IAML    1807  9.75         0.2 1.00                           672   7 
 SHRT BZ  IAML    1807 22.12         0.1 1.00                           772  30 
                                                                                
 2021 1115 1818 16.2 L  27.606  56.013 10.0  SC3 12 0.7 3.5LSC3                1
 GAP=118        0.00       3.6     3.6  5.4                                    E
 2021-11-15-1818-16.BIN__084                                                   6
 ACTION:NEW 21-11-17 07:11 OP:SEIS STATUS:               ID:20211115181816     I
 STAT SP IPHASW D HRMM SECON CODA AMPLIT PERI AZIMU VELO AIN AR TRES W  DIS CAZ7
 BNDS BZ EPg  0   1818 20.60                                    -1.0     28 146 
 JSSH BZ EPn  0   1818 53.03                                    -0.1    232 144 
 KRBR BZ EPn  4   1818 54.74                                    -3.9    273  15 
 LMD1 BZ EPn  0   1819  0.48                                     1.0    283 264 
 GHIR BZ EPn  0   1819  2.40                                    -0.2    307 284 
 YZKH BZ EPn  0   1819 32.94                                     0.3    548 346 
 KLNJ BZ EPn  0   1819 35.01                                    -0.6    572 311 
 SRVN BZ EPn  0   1819 43.61                                     0.7    631  92 
 NASN BZ EPn  0   1819 44.83                                    -0.9    653 332 
 KHMZ BZ EPn  4   1820 13.74                                    -1.8    894 320 
 ASAO BZ EPn  0   1820 22.92                                    -0.8    958 323 
 ILBA BZ EPn  4   1820 44.19                                    -3.4   1153 305 
 BNDS BZ  IAML    1818 20.60       3e+01 1.00                            28 146 
 JSSH BZ  IAML    1818 53.03         0.4 1.00                           232 144 
 YZKH BZ  IAML    1819 32.94        0.05 1.00                           548 346 
 KLNJ BZ  IAML    1819 35.01        0.07 1.00                           572 311 
 NASN BZ  IAML    1819 44.83        0.02 1.00                           653 332 
                                                                                
 2021 1115 1912 13.5 L  27.593  56.073 11.0  SC3 15 0.3 3.9LSC3                1
 GAP=150        0.00       1.7     1.7  2.1                                    E
 2021-11-15-1912-13.BIN__087                                                   6
 ACTION:NEW 21-11-16 09:21 OP:SEIS STATUS:               ID:20211115191213     I
 STAT SP IPHASW D HRMM SECON CODA AMPLIT PERI AZIMU VELO AIN AR TRES W  DIS CAZ7
 BNDS BZ EPg  0   1912 18.26                                    -0.0     24 156 
 JSSH BZ EPn  0   1912 49.98                                     0.2    228 145 
 KRBR BZ EPn  0   1912 52.78                                    -3.0    273  14 
 YZKH BZ EPn  0   1913 30.76                                     0.6    551 345 
 BSRN BZ EPn  0   1913 32.63                                     0.5    567  31 
 KLNJ BZ EPn  0   1913 33.04                                    -0.5    577 311 
 SRVN BZ EPn  0   1913 39.13                                    -0.2    625  92 
 NASN BZ EPn  0   1913 43.81                                     0.4    657 331 
 TABS BZ EPn  0   1913 45.36                                    -0.6    679   8 
 SHRT BZ EPn  0   1913 59.47                                     0.6    784  31 
 GTMR BZ EPn  0   1914  8.20                                    -0.4    862 309 
 KHMZ BZ EPn  0   1914 13.15                                    -0.2    898 319 
 TBJM BZ EPn  0   1914 19.36                                     0.6    942  25 
 ASAO BZ EPn  0   1914 22.24                                     0.8    963 323 
 ILBA BZ EPn  0   1914 45.76                                     0.3   1158 305 
 BNDS BZ  IAML    1912 18.26       5e+01 1.00                            24 156 
 JSSH BZ  IAML    1912 49.98           2 1.00                           228 145 
 KRBR BZ  IAML    1912 52.78           1 1.00                           273  14 
 YZKH BZ  IAML    1913 30.76        0.06 1.00                           551 345 
 BSRN BZ  IAML    1913 32.63         0.2 1.00                           567  31 
 KLNJ BZ  IAML    1913 33.04         0.1 1.00                           577 311 
 SRVN BZ  IAML    1913 39.13        0.05 1.00                           625  92 
 NASN BZ  IAML    1913 43.81        0.04 1.00                           657 331 
 TABS BZ  IAML    1913 45.36        0.08 1.00                           679   8 
 SHRT BZ  IAML    1913 59.47        0.04 1.00                           784  31 
 GTMR BZ  IAML    1914  8.20        0.05 1.00                           862 309 
                                                                                
 2021 1115 1931 51.5 L  27.634  56.129 10.0  SC3  9 0.3 3.4LSC3                1
 GAP=112        0.00       2.6     2.6  4.0                                    E
 2021-11-15-1931-51.BIN__084                                                   6
 ACTION:NEW 21-11-17 07:17 OP:SEIS STATUS:               ID:20211115193151     I
 STAT SP IPHASW D HRMM SECON CODA AMPLIT PERI AZIMU VELO AIN AR TRES W  DIS CAZ7
 BNDS BZ EPg  0   1931 56.32                                    -0.3     26 171 
 JSSH BZ EPn  0   1932 28.13                                     0.2    228 147 
 KRBR BZ EPn  4   1932 31.15                                    -2.0    268  13 
 GHIR BZ EPn  0   1932 39.74                                     0.6    318 283 
 YZKH BZ EPn  0   1933  8.41                                     0.5    548 344 
 KLNJ BZ EPn  0   1933 11.57                                    -0.2    578 310 
 SRVN BZ EPn  0   1933 16.68                                    -0.1    620  92 
 NASN BZ EPn  0   1933 21.04                                    -0.3    656 331 
 GTMR BZ EPn  0   1933 46.02                                    -0.9    863 308 
 BNDS BZ  IAML    1931 56.32       3e+01 1.00                            26 171 
 JSSH BZ  IAML    1932 28.13         0.5 1.00                           228 147 
 YZKH BZ  IAML    1933  8.41        0.03 1.00                           548 344 
 KLNJ BZ  IAML    1933 11.57        0.05 1.00                           578 310 
 SRVN BZ  IAML    1933 16.68        0.01 1.00                           620  92 
 NASN BZ  IAML    1933 21.04        0.02 1.00                           656 331 
                                                                                
