 2021 1114 2041 13.6 L  27.569  56.196  9.8  Teh  6 0.4 2.9LTeh                1
 GAP=102                                                                       E
 Iranian Seismological Center, Institute of Geophysics, University of Tehran   6
 STAT SP IPHASW D HRMM SECON CODA AMPLIT PERI AZIMU VELO SNR AR TRES  W DIS CAZ7
 BNDS BZ EPg  0   2041 18.0                                     -0.6   19.0 188
 BNB  BZ EPg  0   2041 21.4                                      0.4   36.0 111
 CHMN BZ E    0   2042  1.80       795.7 0.32                           286  27
 MZN1 BE EPg  0   2041 42.4                                      0.4    161 290
 KBAM BZ E    0   2042 40.36      1288.9 0.44                           281  51
 JASK BZ EPn  0   2041 54.2                                      0.4    251 138
 KBAM BZ EPn  0   2041 57.2                                     -0.4    281  51
 CHMN BZ EPn  0   2041 58.5                                     -0.2    286  27
 MZN1 BZ E    0   2042  5.44      2964.6 0.48                           161 290

 2021 1114 2113 31.8 L  27.611  56.279 10.0  Teh  7 0.4 2.8LTeh                1
 GAP=84                                                                        E
 Iranian Seismological Center, Institute of Geophysics, University of Tehran   6
 STAT SP IPHASW D HRMM SECON CODA AMPLIT PERI AZIMU VELO SNR AR TRES  W DIS CAZ7
 BNDS BZ EPg  0   2113 36.3                                     -0.6   26.0 204
 BNB  BZ EPg  0   2113 37.8                                      0.1   31.0 125
 BNDS BZ ESg  0   2113 41.2                                      0.4   26.0 204
 MZN1 BE EPg  0   2114 0.3                                      -0.3    168 288
 KRBR BZ EPn  4   2114 9.5                                      -3.9    267  10
 KBAM BZ EPn  0   2114 13.5                                     -0.3    272  51
 CHMN BZ EPn  0   2114 14.9                                      0.1    278  26
 BNB  BZ E    0   2113 49.04     23388.1 0.12                          31.0 125
 RAM  SE EPn  0   2114 55.0                                      0.5    599 322
 MZN1 BE E    0   2114  3.42      1400.2 0.12                           168 288
 KRBR BZ E    0   2114 11.68       374.5 0.24                           267  10
 CHMN BZ E    0   2114 16.06       358.4 0.16                           278  26
 KBAM BZ E    0   2114 17.34       386.1 0.32                           272  51

 2021 1114 2127 37.9 L  27.566  56.161 13.8  Teh  9 0.5 2.7LTeh                1
 GAP=113                                                                       E
 Iranian Seismological Center, Institute of Geophysics, University of Tehran   6
 STAT SP IPHASW D HRMM SECON CODA AMPLIT PERI AZIMU VELO SNR AR TRES  W DIS CAZ7
 BNDS BZ EPg  0   2127 42.0                                     -0.2   19.0 177
 BNB  BZ EPg  0   2127 45.3                                      0.0   40.0 109
 MZN1 BE E    0   2128 28.72      3339.0 0.28                           158 290
 CHMN BZ E    0   2129  0.96       556.0 0.32                           288  28
 JASK BZ E    0   2128 29.80      1386.6  0.2                           253 138
 KRBR BZ E    0   2128 22.12       682.5 0.28                           274  12
 KBAM BZ E    0   2128 59.32       932.1 0.36                           284  52
 BAF  SZ E    0   2128 43.86       138.4 0.16                           450 353
 MZN1 BE EPn  0   2128 4.8                                       0.6    158 290
 BNDS BZ E    0   2127 49.46     68275.4 0.12                          19.0 177
 KANR BZ E    0   2128 33.14       529.8 0.24                           381 349
 BNB  BZ E    0   2127 59.30     48224.1  0.2                          40.0 109
 KRBR BZ EPn  4   2128 15.4                                     -4.3    274  12
 JASK BZ EPn  0   2128 16.7                                     -0.1    253 138
 KBAM BZ EPn  0   2128 21.2                                      0.5    284  52
 CHMN BZ EPn  0   2128 21.9                                      0.5    288  28
 KANR BZ EPn  0   2128 32.5                                     -0.3    381 349
 BAF  SZ EPn  0   2128 40.4                                     -0.9    450 353

 2021 1114 2133 35.3 L  27.619  56.249 11.8  Teh  5 0.1 2.9LTeh                1
 GAP=99                                                                        E
 Iranian Seismological Center, Institute of Geophysics, University of Tehran   6
 STAT SP IPHASW D HRMM SECON CODA AMPLIT PERI AZIMU VELO SNR AR TRES  W DIS CAZ7
 BNDS BZ EPg  0   2133 41.4                                      0.0   26.0 198
 BNB  BZ EPg  0   2133 42.5                                      0.0   34.0 123
 MZN1 BE EPg  0   2134 4.3                                      -0.0    165 288
 CHMN BZ E    0   2134 55.68       847.2  0.6                           279  27
 KBAM BZ EPn  0   2134 18.2                                     -0.1    274  52
 CHMN BZ EPn  0   2134 19.4                                      0.1    279  27
 MZN1 BZ E    0   2134 33.18      3553.0 0.32                           165 288

 2021 1114 2213 17.5 L  27.602  56.217 11.9  Teh 14 0.4 3.2LTeh                1
 GAP=98                                                                        E
 Iranian Seismological Center, Institute of Geophysics, University of Tehran   6
 STAT SP IPHASW D HRMM SECON CODA AMPLIT PERI AZIMU VELO SNR AR TRES  W DIS CAZ7
 BNB  BZ E    0   2213 41.10    107262.0  0.4                          36.0 118
 MZN1 BE E    0   2214 27.16      4189.5    1                           162 289
 KBAM BZ E    0   2214 43.72      1398.2 0.44                           277  52
 CHMN BZ E    0   2214 46.34       902.2  0.8                           282  27
 BNDS BZ EPg  0   2213 22.1                                     -0.2   23.0 191
 BNB  BZ EPg  0   2213 24.4                                      0.1   36.0 118
 KANR BZ E    0   2215  8.86       557.1 0.92                           378 348
 MZN1 BE EPg  0   2213 45.2                                     -0.3    162 289
 TAFT BZ E    0   2215 44.00       172.0 0.84                           498 337
 JASK BZ EPn  0   2213 56.4                                     -0.5    253 139
 KBAM BZ EPn  0   2214 0.3                                       0.3    277  52
 CHMN BZ EPn  0   2214 1.0                                       0.2    282  27
 UOSS BZ EPn  0   2214 2.0                                      -0.0    294 180
 MZN1 BZ ESg  0   2214 7.2                                       0.0    162 289
 KLNJ BZ E    0   2215 44.02       148.1 0.64                           587 311
 KANR BZ EPn  0   2214 12.5                                     -0.1    378 348
 BAF  SZ EPn  0   2214 20.2                                     -0.8    446 352
 KRVR BZ EPn  0   2214 21.4                                     -0.4    453   8
 TAFT BZ EPn  0   2214 27.4                                     -0.1    498 337
 NHDN BZ EPn  0   2214 35.3                                      0.1    561  41
 KLNJ BZ EPn  0   2214 38.6                                     -0.0    587 311
 SRVN BZ EPn  0   2214 42.4                                      0.9    611  91

 2021 1114 2248 53.5 L  27.595  56.188 12.5  Teh 17 0.5 3.4LTeh                1
 GAP=105                                                                       E
 Iranian Seismological Center, Institute of Geophysics, University of Tehran   6
 STAT SP IPHASW D HRMM SECON CODA AMPLIT PERI AZIMU VELO SNR AR TRES  W DIS CAZ7
 BNB  BZ E    0   2249 24.84    108272.0 0.44                          38.0 115
 JASK BZ E    0   2250 30.14      3678.5 0.48                           254 139
 MZN1 BE E    0   2249 59.60      9168.7 0.72                           160 289
 CHMN BZ E    0   2250 20.30      1188.9 0.36                           284  27
 KANR BZ E    0   2249 59.84       693.2 0.36                           378 349
 BNDS BZ EPg  0   2248 58.2                                      0.1   22.0 184
 BNB  BZ EPg  0   2249 0.5                                      -0.2   38.0 115
 KBAM BZ E    0   2250 19.36      1951.5  0.6                           280  52
 TAFT BZ E    0   2250 24.00       332.3 0.52                           497 337
 KSHB BZ E    0   2250 37.02      1227.1 0.44                           311 341
 KRVR BZ E    0   2251 21.84       -99.0 0.72                           454   8
 BAF  SZ E    0   2250 17.48       215.8 0.48                           447 352
 MZN1 BE EPg  0   2249 21.3                                      0.8    160 289
 JASK BZ EPn  0   2249 32.4                                     -0.2    254 139
 CHMN BZ EPn  0   2249 36.1                                     -0.6    284  27
 KBAM BE EPn  0   2249 36.6                                      0.7    280  52
 UOSS BZ EPn  0   2249 38.1                                      0.6    293 180
 MZN1 BZ ESg  0   2249 40.0                                      0.0    160 289
 KANR BZ EPn  0   2249 48.5                                      0.2    378 349
 BAF  SZ EPn  0   2249 56.5                                     -0.2    447 352
 KRVR BZ EPn  0   2249 57.2                                     -0.4    454   8
 TAFT BZ EPn  0   2250 3.5                                       0.5    497 337
 KLNJ BN EPn  0   2250 14.3                                      0.3    585 311
 WBK  BZ EPn  0   2250 17.3                                     -0.6    619 152
 ZEF  SZ EPn  0   2250 27.7                                      0.1    695 329
 JHBN BN EPn  0   2250 33.6                                      0.3    740 315
 KLH  SZ EPn  0   2250 37.1                                     -0.3    773 326

 2021 1114 2250 41.8 L  27.879  56.157 10.0  Teh  4 0.2 2.9LTeh                1
 GAP=137                                                                       E
 Iranian Seismological Center, Institute of Geophysics, University of Tehran   6
 STAT SP IPHASW D HRMM SECON CODA AMPLIT PERI AZIMU VELO SNR AR TRES  W DIS CAZ7
 KBAM BZ E    0   2252 19.68       843.7 0.72                           264  58
 CHMN BZ E    0   2252  6.62       948.0 0.64                           258  31
 MZN1 BE E    0   2251 36.52      5350.3 0.68                           149 278
 BNB  BZ EPg  0   2250 53.4                                      0.1   61.0 141
 MZN1 BE EPg  0   2251 8.2                                      -0.1    149 278
 CHMN BZ EPg  0   2251 26.9                                      0.2    258  31
 KBAM BZ EPg  0   2251 27.2                                     -0.2    264  58

 2021 1115 0032 24.8 L  27.566  56.153 11.0  Teh  8 0.3 2.9LTeh                1
 GAP=116                                                                       E
 Iranian Seismological Center, Institute of Geophysics, University of Tehran   6
 STAT SP IPHASW D HRMM SECON CODA AMPLIT PERI AZIMU VELO SNR AR TRES  W DIS CAZ7
 BNDS BZ EPg  0   0032 29.1                                      0.2   19.0 175
 BNB  BZ EPg  0   0032 31.9                                     -0.4   40.0 109
 MZN1 BE E    0   0033 15.70      3214.6  0.4                           158 291
 JASK BZ E    0   0033 56.28      1043.5 0.44                           254 137
 JASK BZ EPn  0   0033 4.0                                      -0.4    254 137
 KBAM BZ E    0   0033 45.48       742.4 0.44                           285  52
 CHMN BZ E    0   0033 52.54       383.5 0.32                           288  28
 KBAM BZ EPn  0   0033 8.5                                       0.2    285  52
 CHMN BZ EPn  0   0033 8.9                                      -0.1    288  28
 MZN1 BE ESg  0   0033 12.7                                      0.0    158 291
 KANR BZ E    0   0033 29.76       212.6 0.88                           381 349
 KANR BZ EPn  0   0033 20.1                                     -0.3    381 349
 SRVN BZ E    0   0033 52.74        32.3 0.28                           617  90
 SRVN BZ EPn  0   0033 50.3                                      0.7    617  90

 2021 1115 0053 51.5 L  27.640  56.288  8.3  Teh  6 0.4 2.7LTeh                1
 GAP=145                                                                       E
 Iranian Seismological Center, Institute of Geophysics, University of Tehran   6
 STAT SP IPHASW D HRMM SECON CODA AMPLIT PERI AZIMU VELO SNR AR TRES  W DIS CAZ7
 MZN1 BE E    0   0054 50.44      1813.2 0.52                           168 286
 JASK BZ E    0   0054 43.86       632.0 0.56                           251 141
 BNB  BZ EPg  0   0053 58.1                                     -0.2   33.0 130
 CHMN BZ E    0   0055 22.94       192.8 0.36                           275  26
 KBAM BZ E    0   0055 11.92       359.4 0.32                           269  51
 KANR BZ E    0   0054 57.40        95.3 0.24                           376 347
 MZN1 BE EPg  0   0054 21.3                                      0.3    168 286
 JASK BZ EPn  0   0054 31.9                                      0.0    251 141
 KBAM BZ EPn  0   0054 35.0                                      0.7    269  51
 CHMN BZ EPn  0   0054 35.2                                     -0.2    275  26
 KANR BZ EPn  0   0054 47.0                                     -0.6    376 347

 2021 1115 0107  9.2 L  27.560  56.059 10.0  Teh  7 0.5 2.9LTeh                1
 GAP=144                                                                       E
 Iranian Seismological Center, Institute of Geophysics, University of Tehran   6
 STAT SP IPHASW D HRMM SECON CODA AMPLIT PERI AZIMU VELO SNR AR TRES  W DIS CAZ7
 BNDS BZ EPg  0   0107 14.2                                     -0.3   21.0 148
 BNB  BZ E    0   0107 41.78     42119.5 0.68                          49.0 104
 BNB  BZ EPg  0   0107 18.6                                     -0.2   49.0 104
 KBAM BZ E    0   0108 14.16       495.2 0.64                           292  53
 KSHB BZ E    0   0108 58.36       487.6 0.84                           311 343
 CHMN BZ EPn  0   0107 54.1                                     -1.0    293  29
 MZN1 BE ESg  0   0107 55.0                                      0.0    149 292
 KBAM BZ EPn  0   0107 55.1                                      0.5    292  53
 KSHB BZ EPn  0   0107 57.4                                      0.2    311 343
 SRVN BZ E    0   0108 39.26        45.8 0.84                           626  90
 SRVN BZ EPn  0   0108 36.7                                      0.7    626  90

 2021 1115 0123 24.6 L  27.449  56.007 14.3  Teh  7 0.1 2.9LTeh                1
 GAP=164                                                                       E
 Iranian Seismological Center, Institute of Geophysics, University of Tehran   6
 STAT SP IPHASW D HRMM SECON CODA AMPLIT PERI AZIMU VELO SNR AR TRES  W DIS CAZ7
 BNDS BZ EPg  0   0123 28.7                                     -0.0   17.0 109
 BNB  BZ E    0   0124  9.10     29811.9 0.52                          53.0  90
 BNB  BZ EPg  0   0123 34.1                                      0.0   53.0  90
 MZN1 BE E    0   0124 16.28      3682.8 0.64                           150 297
 JASK BZ E    0   0125 13.88      1218.9  0.6                           255 133
 KBAM BZ E    0   0124 49.04       487.9  0.4                           304  52
 CHMN BZ E    0   0124 48.34       362.4 0.84                           306  29
 JASK BZ EPn  0   0124 3.6                                       0.0    255 133
 MZN1 BE ESg  0   0124 9.1                                       0.0    150 297
 KBAM BZ EPn  0   0124 10.0                                      0.2    304  52
 CHMN BZ EPn  0   0124 10.2                                     -0.2    306  29
 SRVN BZ E    0   0127 11.74        35.4 0.96                           632  89
 SRVN BZ EPn  0   0124 50.4                                     -0.1    632  89

 2021 1115 0132 59.7 L  27.430  56.160 10.0  Teh  6 0.4 2.7LTeh                1
 GAP=206                                                                       E
 Iranian Seismological Center, Institute of Geophysics, University of Tehran   6
 STAT SP IPHASW D HRMM SECON CODA AMPLIT PERI AZIMU VELO SNR AR TRES  W DIS CAZ7
 BNB  BZ E    0   0133 22.36     43091.3 0.36                          38.0  87
 BNB  BZ EPg  0   0133 6.7                                      -0.7   38.0  87
 KBAM BZ E    0   0133 50.32       314.2 0.64                           294  49
 CHMN BZ E    0   0133 49.42       290.0 0.36                           301  26
 SRVN BZ E    0   0134 31.22        35.1 0.44                           617  89
 KANR BZ E    0   0134  3.72       124.6 0.32                           396 349
 KBAM BZ EPn  0   0133 45.8                                      0.5    294  49
 CHMN BZ EPn  0   0133 46.7                                      0.1    301  26
 MZN1 BE ESg  0   0133 49.8                                      0.0    164 295
 KANR BZ EPn  0   0133 57.8                                     -0.3    396 349
 SRVN BZ EPn  0   0134 25.8                                      0.5    617  89

 2021 1115 0141 27.9 L  27.552  55.988 11.1  Teh 18 0.5 3.4LTeh                1
 GAP=158                                                                       E
 Iranian Seismological Center, Institute of Geophysics, University of Tehran   6
 STAT SP IPHASW D HRMM SECON CODA AMPLIT PERI AZIMU VELO SNR AR TRES  W DIS CAZ7
 BNB  BZ E    0   0142 14.84     82428.3 0.44                          56.0 102
 MZN1 BE E    0   0142 21.20      8942.8 0.56                           143 293
 JASK BZ E    0   0143 15.80      2518.5 0.52                           264 135
 KBAM BZ E    0   0142 51.74      1421.7 0.96                           298  53
 KSHB BZ E    0   0143 12.36      1260.1 0.68                           310 344
 BNDS BZ EPg  0   0141 32.8                                     -0.2   25.0 133
 CHMN BZ E    0   0142 15.38       978.5 0.44                           297  30
 BNB  BZ EPg  0   0141 38.1                                      0.1   56.0 102
 KANR BZ E    0   0143 20.54       633.9 0.68                           380 352
 BNB  BZ ESg  0   0141 45.2                                     -0.3   56.0 102
 BAF  SZ E    0   0142 33.78       367.3 0.28                           452 355
 TAFT BZ E    0   0142 41.78       675.8 0.24                           494 340
 KLNJ BZ E    0   0144 14.68       198.0 0.64                           573 313
 MZN1 BE EPg  0   0141 53.7                                      1.0    143 293
 JASK BZ EPn  0   0142 8.7                                      -0.1    264 135
 MZN1 BZ ESg  0   0142 11.1                                      0.0    143 293
 CHMN BZ EPn  0   0142 13.2                                     -0.0    297  30
 KBAM BZ EPn  0   0142 13.6                                      0.4    298  53
 KANR BZ EPn  4   0142 23.8                                      0.5    380 352
 BAF  SN EPn  0   0142 31.3                                     -0.6    449 355
 KRVR BZ EPn  0   0142 33.3                                     -0.2    462  10
 TAFT BZ EPn  0   0142 37.8                                      0.2    494 340
 NGCH BZ EPn  0   0142 46.1                                     -0.3    568 114
 KLNJ BE EPn  0   0142 46.9                                     -0.6    573 313
 NHDN BZ EPn  0   0142 48.2                                      0.1    580  42
 SRVN BZ EPn  0   0142 55.7                                      0.9    633  90
 ANAR BZ EPn  4   0142 57.6                                     -0.6    661 341
 ZNGN BZ EPn  4   0143 5.1                                       0.9    708 317
 JHBN BN EPn  4   0143 5.8                                      -1.1    730 317

