 2021 1115 0502  3.5 L  27.822  56.294  6.0  Teh  5 0.5 2.9LTeh                1
 GAP=131                                                                       E
 Iranian Seismological Center, Institute of Geophysics, University of Tehran   6
 STAT SP IPHASW D HRMM SECON CODA AMPLIT PERI AZIMU VELO SNR AR TRES  W DIS CAZ7
 MZN1 BE E    0   0502 58.38      5058.8 0.44                           164 280
 KBAM BZ E    0   0502 55.40       739.7 0.56                           257  55
 BNB  BE EPg  0   0502 12.8                                     -0.0   48.0 149
 MZN1 BE EPg  0   0502 32.7                                      0.4    164 280
 JASK BZ EPn  0   0502 45.8                                     -0.2    267 144
 KBAM BZ EPn  0   0502 46.0                                      1.0    257  55
 CHMN BZ EPg  0   0502 47.8                                     -0.4    256  28

 2021 1115 0504 33.0 L  27.509  56.169 12.0  Teh 11 0.4 3.4LTeh                1
 GAP=114                                                                       E
 Iranian Seismological Center, Institute of Geophysics, University of Tehran   6
 STAT SP IPHASW D HRMM SECON CODA AMPLIT PERI AZIMU VELO SNR AR TRES  W DIS CAZ7
 BNB  BZ E    0   0505 10.82    114974.0  0.6                          37.0 100
 KHGB BE E    0   0506 12.26      1565.0 0.72                           319   5
 JASK BZ E    0   0506  5.10      4218.0 0.76                           248 137
 MZN1 BE E    0   0505 29.12      7464.7 0.96                           161 293
 CHMN BZ E    0   0506 14.14       899.4 0.68                           293  27
 BNDS BZ EPg  0   0504 35.9                                     -0.1   12.0 179
 BAF  SZ E    0   0505 48.84       269.5 0.32                           456 353
 BNB  BZ EPg  0   0504 40.3                                      0.3   37.0 100
 KANR BZ E    0   0505 38.70       527.6 0.72                           387 349
 KBAM BZ E    0   0505 37.22      1350.8 0.44                           287  51
 MZN1 BE EPg  0   0505 0.9                                       0.6    161 293
 KBAM BZ EPn  0   0505 16.1                                     -0.4    287  51
 CHMN BZ EPn  0   0505 16.9                                     -0.5    293  27
 MZN1 BE ESg  0   0505 20.5                                     -0.4    161 293
 KANR BZ EPn  0   0505 28.8                                     -0.1    387 349
 HOQ  BZ EPn  0   0505 36.6                                      0.1    450 165
 BAF  SZ EPn  0   0505 38.0                                      0.6    456 353
 ANAR BZ EPn  0   0506 4.7                                       0.5    672 340

 2021 1115 0558 25.7 L  27.601  56.220 10.0  Teh  6 0.5 2.9LTeh                1
 GAP=150                                                                       E
 Iranian Seismological Center, Institute of Geophysics, University of Tehran   6
 STAT SP IPHASW D HRMM SECON CODA AMPLIT PERI AZIMU VELO SNR AR TRES  W DIS CAZ7
 KBAM BZ E    0   0559 53.52       416.5 0.56                           277  52
 MZN1 BE E    0   0559 19.76      2178.5 0.64                           162 289
 CHMN BZ E    0   0559 56.78       336.2 0.72                           282  27
 BNB  BZ EPg  0   0558 32.4                                     -0.7   36.0 118
 JASK BZ E    0   0600 10.44       994.6 0.56                           252 139
 KANR BZ E    0   0559 24.08       190.8  0.2                           378 348
 MZN1 BE EPg  0   0558 54.1                                     -0.3    162 289
 JASK BZ EPn  0   0559 6.7                                       0.7    252 139
 KBAM BZ EPn  0   0559 9.6                                       0.3    277  52
 CHMN BZ EPn  0   0559 9.9                                      -0.3    282  27
 KANR BZ EPn  0   0559 22.2                                      0.3    378 348

 2021 1115 0623 13.0 L  27.521  55.978 28.0  Teh  5 0.2 2.8LTeh                1
 GAP=161                                                                       E
 Iranian Seismological Center, Institute of Geophysics, University of Tehran   6
 STAT SP IPHASW D HRMM SECON CODA AMPLIT PERI AZIMU VELO SNR AR TRES  W DIS CAZ7
 MZN1 BE E    0   0624  5.78      6411.2 0.76                           144 295
 CHMN BZ E    0   0624 43.34       576.0  0.6                           301  30
 KHGB BZ E    0   0624 40.14       466.0 0.44                           320   9
 BNB  BE EPg  0   0623 24.7                                      0.2   56.0  98
 MZN1 BE EPg  0   0623 38.9                                      0.1    144 295
 JASK BZ EPn  0   0623 52.2                                     -0.3    262 134
 CHMN BZ EPn  0   0623 57.6                                     -0.3    301  30

 2021 1115 0643 48.4 L  27.576  56.193 14.6  Teh 14 0.4 3.3LTeh                1
 GAP=104                                                                       E
 Iranian Seismological Center, Institute of Geophysics, University of Tehran   6
 STAT SP IPHASW D HRMM SECON CODA AMPLIT PERI AZIMU VELO SNR AR TRES  W DIS CAZ7
 BNB  BZ E    0   0644 13.46    184207.0 0.32                          37.0 112
 MZN1 BE E    0   0644 46.32      6610.5 0.72                           161 290
 BAF  SZ E    0   0645  1.85       229.4 0.32                           449 352
 KHGB BZ E    0   0645 28.26       766.5 0.52                           311   5
 CHMN BZ E    0   0644 33.72      1287.7 0.36                           285  27
 KANR BZ E    0   0644 46.06       541.6 0.32                           381 349
 BNDS BZ EPg  0   0643 53.0                                     -0.0   20.0 186
 BNB  BZ EPg  0   0643 55.1                                     -0.3   37.0 112
 KBAM BZ E    0   0644 32.90      2304.3 0.32                           281  52
 MZN1 BE EPg  0   0644 16.0                                      0.5    161 290
 KLNJ BZ E    0   0646 13.96       198.3 0.48                           587 311
 KBAM BE EPn  0   0644 31.1                                      0.3    281  52
 CHMN BZ EPn  0   0644 31.3                                     -0.2    285  27
 UOSS BZ EPn  0   0644 32.4                                      0.4    291 180
 KHGB BZ EPn  0   0644 35.0                                      0.3    311   5
 SRVN BZ E    0   0646 30.00        83.2 0.68                           613  90
 KANR BZ EPn  0   0644 43.3                                      0.1    381 349
 BAF  SZ EPn  4   0644 50.8                                     -0.9    449 352
 KRVR BZ EPn  4   0644 52.0                                     -0.6    456   8
 KLNJ BN EPn  0   0645 8.0                                      -1.0    587 311
 WBK  BZ EPn  0   0645 12.1                                     -0.3    617 152
 SRVN BZ EPn  0   0645 12.3                                      0.2    613  90
 ANAR BZ EPn  4   0645 17.7                                     -0.9    666 340

 2021 1115 0710 25.5 L  27.604  56.055 13.2  Teh  6 0.3 2.9LTeh                1
 GAP=154                                                                       E
 Iranian Seismological Center, Institute of Geophysics, University of Tehran   6
 STAT SP IPHASW D HRMM SECON CODA AMPLIT PERI AZIMU VELO SNR AR TRES  W DIS CAZ7
 MZN1 BZ E    0   0711 25.42       987.8 0.44                           147 290
 BNB  BE E    0   0710 38.84     64362.3 0.32                          51.0 110
 KBAM BZ E    0   0711 23.24       413.8 0.68                           290  54
 BNB  BE EPg  0   0710 35.3                                     -0.1   51.0 110
 CHMN BZ E    0   0711 54.08       370.6  0.8                           289  30
 MZN1 BZ EPg  0   0710 51.7                                      0.1    147 290
 JASK BZ E    0   0711 18.38      1318.4 0.36                           264 136
 KANR BZ E    0   0711 35.78       209.8 0.44                           375 350
 JASK BZ EPn  0   0711 6.8                                       0.0    264 136
 KBAM BZ EPn  0   0711 10.1                                     -0.1    290  54
 CHMN BZ EPn  0   0711 11.1                                      0.6    289  30
 KANR BZ EPn  0   0711 20.3                                     -0.6    375 350

 2021 1115 0744 53.6 L  27.568  56.229 11.0  Teh 17 0.4 3.7LTeh                1
 GAP=93                                                                        E
 Iranian Seismological Center, Institute of Geophysics, University of Tehran   6
 STAT SP IPHASW D HRMM SECON CODA AMPLIT PERI AZIMU VELO SNR AR TRES  W DIS CAZ7
 KANR BZ E    0   0747  7.30      1312.0 0.76                           382 348
 KLNJ BZ E    0   0748 16.62       864.0 0.68                           590 311
 TAFT BZ E    0   0747  6.90       791.2  0.8                           502 337
 BNDS BZ EPg  0   0744 59.2                                      0.5   20.0 197
 BNB  BE EPg  0   0745 0.1                                      -0.5   33.0 113
 KHGB BZ E    0   0746 27.44      1677.2  0.8                           312   4
 CHMN BZ E    0   0746 27.46      2514.4  0.6                           284  26
 KSHB BZ E    0   0746 48.88      2781.9 0.92                           315 340
 BAF  SZ E    0   0746 17.27       515.1  0.4                           450 352
 KRVR BZ E    0   0747 16.16       -99.0 0.88                           457   8
 SRVN BZ E    0   0748 25.38       212.4 0.92                           610  90
 KBAM BZ E    0   0746 26.50      3306.6 0.84                           279  51
 MZN1 BE EPg  0   0745 23.3                                      0.7    165 290
 JASK BZ EPn  0   0745 32.9                                     -0.4    249 139
 KBAM BZ EPn  0   0745 37.5                                      0.3    279  51
 CHMN BZ EPn  0   0745 38.2                                     -0.2    284  26
 UOSS BZ EPn  0   0745 38.6                                      0.2    290 180
 KHGB BZ EPn  0   0745 41.8                                      0.3    312   4
 KSHB BZ EPn  0   0745 42.6                                      0.6    315 340
 MZN1 BE ESg  0   0745 43.0                                     -0.8    165 290
 KANR BZ EPn  0   0745 50.5                                      0.4    382 348
 BAF  SZ EPn  0   0745 58.2                                     -0.3    450 352
 KRVR BZ EPn  0   0745 58.7                                     -0.5    457   8
 KLNJ BE EPn  0   0746 15.9                                     -0.2    590 311
 WBK  BZ EPn  0   0746 18.3                                     -0.3    614 153
 SRVN BN EPn  0   0746 18.4                                      0.3    610  90
 ANAR BZ EPn  0   0746 25.1                                     -0.2    668 340

 2021 1115 0818 12.7 L  27.604  56.224 10.0  Teh  7 0.4 2.9LTeh                1
 GAP=95                                                                        E
 Iranian Seismological Center, Institute of Geophysics, University of Tehran   6
 STAT SP IPHASW D HRMM SECON CODA AMPLIT PERI AZIMU VELO SNR AR TRES  W DIS CAZ7
 KBAM BZ E    0   0819 42.86       459.0    1                           276  52
 KHGB BN E    0   0819 48.34       250.9 0.72                           308   5
 MZN1 BE E    0   0819  6.38      3235.6 0.36                           163 288
 BNDS BZ EPg  0   0818 17.8                                     -0.6   23.0 193
 BNB  BZ EPg  0   0818 20.8                                      0.7   36.0 119
 CHMN BZ E    0   0819 41.16       317.1 0.64                           281  27
 KANR BN E    0   0819 52.46       253.7 0.56                           378 348
 MZN1 BE EPg  0   0818 41.9                                      0.5    163 288
 KBAM BZ EPn  0   0818 56.0                                     -0.2    276  52
 CHMN BZ EPn  0   0818 56.8                                     -0.4    281  27
 KHGB BN EPn  0   0819 0.2                                      -0.1    308   5
 KANR BN EPn  0   0819 8.9                                       0.0    378 348

 2021 1115 0914 12.6 L  27.573  56.209 14.0  Teh  6 0.6 2.9LTeh                1
 GAP=99                                                                        E
 Iranian Seismological Center, Institute of Geophysics, University of Tehran   6
 STAT SP IPHASW D HRMM SECON CODA AMPLIT PERI AZIMU VELO SNR AR TRES  W DIS CAZ7
 JASK BZ E    0   0915 30.70      1508.0 0.48                           251 139
 MZN1 BZ E    0   0915  4.94      1819.2 0.36                           163 290
 CHMN BZ E    0   0915 38.84       657.9  0.6                           285  27
 BNDS BZ EPg  0   0914 17.4                                     -0.6   20.0 191
 KBAM BE E    0   0915 33.88      1542.6 0.44                           280  51
 BNB  BE EPg  0   0914 20.6                                      0.5   35.0 113
 MZN1 BZ EPg  0   0914 40.8                                     -0.5    163 290
 JASK BZ EPn  0   0914 52.5                                      0.3    251 139
 CHMN BZ EPn  0   0914 56.3                                     -0.8    285  27
 KBAM BE EPn  0   0914 56.4                                      0.4    280  51
 MZN1 BE ESg  0   0915 3.0                                       0.0    163 290

 2021 1115 0945 23.9 L  27.573  56.238 15.0  Teh 12 0.4 3.2LTeh                1
 GAP=90                                                                        E
 Iranian Seismological Center, Institute of Geophysics, University of Tehran   6
 STAT SP IPHASW D HRMM SECON CODA AMPLIT PERI AZIMU VELO SNR AR TRES  W DIS CAZ7
 BNB  BE E    0   0945 40.72    156293.0 0.28                          33.0 116
 JASK BZ E    0   0946 56.04      2881.0 0.44                           249 139
 CHMN BZ E    0   0946 11.10       771.7 0.32                           284  26
 BNDS BZ EPg  0   0945 29.0                                      0.5   20.0 199
 BNB  BZ EPg  0   0945 29.9                                     -0.4   33.0 115
 KBAM BZ E    0   0946 52.64      1244.8 0.72                           278  51
 KHGB BZ E    0   0947  8.04       494.2 0.48                           311   4
 KANR BE E    0   0947 20.70       404.9 0.52                           382 348
 MZN1 BE EPg  0   0945 51.0                                     -0.7    165 289
 TAFT BZ E    0   0946 37.04       264.4 0.24                           501 337
 KBAM BE EPn  0   0946 5.9                                       0.1    278  51
 CHMN BN EPn  0   0946 6.7                                      -0.1    284  26
 UOSS BZ EPn  0   0946 7.5                                       0.1    291 181
 KHGB BZ EPn  0   0946 10.3                                      0.2    311   4
 MZN1 BE ESg  0   0946 13.2                                      0.4    165 289
 KANR BE EPn  0   0946 19.5                                      0.6    382 348
 TAFT BZ EPn  0   0946 34.0                                      0.2    501 337
 KLNJ BE EPn  0   0946 43.9                                     -0.9    590 311
 WBK  BZ EPn  0   0946 47.5                                      0.0    615 153

 2021 1115 0955  1.9 L  27.619  56.150  9.7  Teh  9 0.5 2.7LTeh                1
 GAP=114                                                                       E
 Iranian Seismological Center, Institute of Geophysics, University of Tehran   6
 STAT SP IPHASW D HRMM SECON CODA AMPLIT PERI AZIMU VELO SNR AR TRES  W DIS CAZ7
 BNB  BZ E    0   0955 20.34     34828.5  0.4                          43.0 116
 BNDS BZ E    0   0955 15.44     45121.5 0.28                          24.0 175
 CHMN BZ E    0   0955 47.68       232.5  0.4                           283  28
 KRBR BZ E    0   0955 42.06       241.8 0.28                           269  13
 MZN1 BZ E    0   0955 55.04      1241.7  0.6                           155 289
 JASK BZ E    0   0956 28.86      1133.6 0.48                           258 138
 KBAM BZ E    0   0955 47.86       396.1 0.28                           281  53
 BAF  SZ E    0   0956  6.48        70.1 0.12                           444 353
 BNDS BZ EPg  0   0955 7.4                                       0.5   24.0 175
 BNB  BZ EPg  0   0955 9.3                                      -0.5   43.0 116
 BNB  BE ESg  0   0955 15.7                                      0.0   43.0 116
 MZN1 BZ EPg  0   0955 28.4                                     -0.3    155 289
 KRBR BZ EPn  4   0955 40.2                                     -3.6    269  13
 JASK BZ EPn  0   0955 42.0                                     -0.3    258 138
 KBAM BZ EPn  0   0955 45.6                                      0.4    281  53
 CHMN BZ EPn  0   0955 45.7                                      0.1    283  28
 KANR BZ EPn  0   0955 57.6                                      0.7    375 349
 BAF  SZ EPn  0   0956 4.7                                      -0.7    444 353

 2021 1115 1014 18.3 L  27.639  56.237 10.0  Teh  9 0.4 2.8LTeh                1
 GAP=93                                                                        E
 Iranian Seismological Center, Institute of Geophysics, University of Tehran   6
 STAT SP IPHASW D HRMM SECON CODA AMPLIT PERI AZIMU VELO SNR AR TRES  W DIS CAZ7
 BNB  BZ E    0   1014 38.38     62303.2 0.32                          37.0 125
 KBAM BZ E    0   1015 10.72      1070.0 0.32                           273  52
 KHGB BZ E    0   1015 11.04       752.1  0.4                           304   4
 KRBR BZ E    0   1014 58.32       738.2  0.4                           265  11
 CHMN BZ E    0   1015 41.52       818.3 0.44                           277  27
 MZN1 BZ E    0   1015 20.16      1514.7 0.64                           163 287
 BNDS BZ EPg  0   1014 23.1                                     -0.7   27.0 194
 BNB  BZ EPg  0   1014 25.2                                      0.0   37.0 125
 BNB  BE ESg  0   1014 30.3                                      0.0   37.0 125
 MZN1 BZ EPg  0   1014 47.1                                      0.7    163 287
 JASK BZ EPn  0   1014 58.5                                      0.4    254 140
 KBAM BZ EPn  0   1015 0.9                                       0.4    273  52
 CHMN BZ EPn  0   1015 1.0                                      -0.2    277  27
 KHGB BZ EPn  0   1015 4.4                                      -0.1    304   4
 BAF  SZ EPn  0   1015 21.0                                     -0.7    443 352

 2021 1115 1052 25.5 L  27.564  56.194 17.0  Teh  8 0.3 2.9LTeh                1
 GAP=103                                                                       E
 Iranian Seismological Center, Institute of Geophysics, University of Tehran   6
 STAT SP IPHASW D HRMM SECON CODA AMPLIT PERI AZIMU VELO SNR AR TRES  W DIS CAZ7
 BNB  BZ E    0   1052 42.46     49149.8 0.44                          36.0 110
 CHMN BZ E    0   1053 47.18       476.9 0.56                           286  27
 KBAM BZ E    0   1053 52.46       988.3 0.28                           282  51
 BNDS BZ EPg  0   1052 30.6                                      0.4   18.0 187
 KHGB BZ E    0   1053 59.64       449.4 0.48                           313   5
 BNB  BZ EPg  0   1052 32.4                                     -0.2   36.0 110
 BNB  BE ESg  0   1052 37.7                                      0.0   36.0 110
 MZN1 BZ E    0   1053 17.90      1695.7 0.72                           161 290
 MZN1 BZ EPg  0   1052 52.5                                     -0.3    161 290
 KRBR BZ EPn  4   1053 1.9                                      -5.0    273  12
 JASK BZ EPn  0   1053 3.7                                      -0.2    251 138
 KBAM BZ EPn  0   1053 8.2                                       0.5    282  51
 CHMN BZ EPn  0   1053 8.4                                      -0.2    286  27
 KHGB BZ EPn  0   1053 11.8                                      0.1    313   5

