 2021 1114 1559 10.5 L  27.609  56.046  3.0  SC3 16 0.3 4.2LSC3                1
 GAP=112        0.00       1.5     1.5  2.5                                    E
 2021-11-14-1559-10.BIN__084                                                   6
 ACTION:NEW 21-11-15 11:17 OP:SEIS STATUS:               ID:20211114155910     I
 STAT SP IPHASW D HRMM SECON CODA AMPLIT PERI AZIMU VELO AIN AR TRES W  DIS CAZ7
 BNDS BZ EPg  0   1559 15.38                                    -0.1     26 152 
 JSSH BZ EPn  0   1559 48.27                                     0.1    231 145 
 KRBR BZ EPn  4   1559 49.84                                    -3.8    272  15 
 LMD1 BZ EPn  0   1559 55.52                                     0.4    286 264 
 GHIR BZ EPn  0   1559 57.55                                    -0.6    310 284 
 CHBR BZ EPn  0   1600 20.58                                    -0.4    495 117 
 YZKH BZ EPn  0   1600 28.18                                     0.3    548 345 
 BSRN BZ EPn  0   1600 30.60                                     0.5    567  32 
 KLNJ BZ EPn  0   1600 30.99                                    -0.1    574 311 
 SRVN BZ EPn  0   1600 37.80                                     0.1    628  92 
 NASN BZ EPn  0   1600 41.25                                     0.2    654 332 
 TABS BZ EPn  0   1600 43.29                                    -0.5    677   9 
 SHRT BZ EPn  0   1600 56.59                                    -0.3    783  31 
 GTMR BZ EPn  4   1601  2.71                                    -3.5    859 309 
 KHMZ BZ EPn  0   1601 11.17                                     0.2    895 319 
 TBJM BZ EPn  0   1601 17.12                                     0.4    942  26 
 BNDS BZ  IAML    1559 15.38       1e+02 1.00                            26 152 
 JSSH BZ  IAML    1559 48.27           2 1.00                           231 145 
 LMD1 BZ  IAML    1559 55.52           1 1.00                           286 264 
 CHBR BZ  IAML    1600 20.58         0.4 1.00                           495 117 
 YZKH BZ  IAML    1600 28.18         0.1 1.00                           548 345 
 BSRN BZ  IAML    1600 30.60         0.3 1.00                           567  32 
 KLNJ BZ  IAML    1600 30.99         0.2 1.00                           574 311 
 SRVN BZ  IAML    1600 37.80         0.1 1.00                           628  92 
 NASN BZ  IAML    1600 41.25        0.08 1.00                           654 332 
 TABS BZ  IAML    1600 43.29         0.2 1.00                           677   9 
 SHRT BZ  IAML    1600 56.59        0.09 1.00                           783  31 
                                                                                
 2021 1114 1610  8.1 L  27.636  56.234 12.0  SC3  9 0.3 3.7LSC3                1
 GAP=182        0.00       8.1     8.1 13.7                                    E
 2021-11-14-1610-08.BIN__084                                                   6
 ACTION:NEW 21-11-16 10:21 OP:SEIS STATUS:               ID:20211114161008     I
 STAT SP IPHASW D HRMM SECON CODA AMPLIT PERI AZIMU VELO AIN AR TRES W  DIS CAZ7
 BNDS BZ EPg  0   1610 13.48                                     0.0     27 193 
 KRBR BZ EPn  0   1610 48.91                                    -0.3    265  11 
 GHIR BZ EPn  0   1610 56.34                                    -0.5    328 283 
 ZHSF BZ EPn  4   1610 57.12                                   -20.5    494  64 
 YZKH BZ EPn  0   1611 25.34                                     0.7    550 343 
 KLNJ BZ EPn  0   1611 29.62                                     0.6    586 310 
 NASN BZ EPn  0   1611 37.96                                    -0.4    660 330 
 GTMR BZ EPn  0   1612  4.17                                    -0.1    871 308 
 KHMZ BZ EPn  0   1612  8.83                                     0.2    905 318 
 KRBR BZ  IAML    1610 48.91         0.6 1.00                           265  11 
 YZKH BZ  IAML    1611 25.34        0.07 1.00                           550 343 
 KLNJ BZ  IAML    1611 29.62        0.09 1.00                           586 310 
 NASN BZ  IAML    1611 37.96        0.04 1.00                           660 330 
                                                                                
 2021 1114 1619 57.4 L  27.604  56.170 18.0  SC3 19 0.7 4.5LSC3                1
 GAP= 85        0.00       1.7     1.7  2.5                                    E
 2021-11-14-1619-57.BIN__092                                                   6
 ACTION:NEW 21-11-15 08:54 OP:SEIS STATUS:               ID:20211114161957     I
 STAT SP IPHASW D HRMM SECON CODA AMPLIT PERI AZIMU VELO AIN AR TRES W  DIS CAZ7
 BNDS BZ EPg  0   1620  1.56                                    -1.0     23 180 
 JSSH BZ EPn  0   1620 33.29                                     0.9    223 147 
 KRBR BZ EPn  4   1620 35.68                                    -2.8    270  12 
 LMD1 BZ EPn  0   1620 42.81                                     1.1    298 264 
 GHIR BZ EPn  0   1620 45.15                                     0.4    322 284 
 AHRM BZ EPn  0   1621  8.21                                    -0.3    514 286 
 YZKH BZ EPn  0   1621 14.12                                     0.7    552 344 
 BSRN BZ EPn  0   1621 15.06                                     0.5    562  31 
 KLNJ BZ EPn  0   1621 17.03                                    -0.4    583 310 
 SRVN BZ EPn  0   1621 21.17                                    -0.1    616  92 
 NASN BZ EPn  0   1621 26.35                                    -0.6    661 331 
 TABS BZ EPn  0   1621 28.74                                    -0.0    676   8 
 SHRT BZ EPn  0   1621 42.06                                     0.7    778  31 
 GTMR BZ EPn  0   1621 51.41                                    -1.1    869 308 
 KHMZ BZ EPn  0   1621 56.75                                    -0.3    904 319 
 ASAO BZ EPn  0   1622  5.27                                     0.2    968 323 
 GLO  BZ EPn  0   1622  9.72                                    -0.8   1011 347 
 CHTH BZ EPn  0   1622 13.29                                    -0.5   1037 333 
 KAGH BZ EPn  0   1622 21.33                                     0.5   1095  19 
 BNDS BZ  IAML    1620  1.56       2e+02 1.00                            23 180 
 JSSH BZ  IAML    1620 33.29           3 1.00                           223 147 
 LMD1 BZ  IAML    1620 42.81           7 1.00                           298 264 
 AHRM BZ  IAML    1621  8.21         0.2 1.00                           514 286 
 YZKH BZ  IAML    1621 14.12         0.4 1.00                           552 344 
 BSRN BZ  IAML    1621 15.06         0.5 1.00                           562  31 
 KLNJ BZ  IAML    1621 17.03         0.6 1.00                           583 310 
 SRVN BZ  IAML    1621 21.17         0.2 1.00                           616  92 
 NASN BZ  IAML    1621 26.35         0.2 1.00                           661 331 
 TABS BZ  IAML    1621 28.74         0.5 1.00                           676   8 
 SHRT BZ  IAML    1621 42.06         0.2 1.00                           778  31 
 GTMR BZ  IAML    1621 51.41         0.3 1.00                           869 308 
                                                                                
 2021 1114 2009 49.0 L  27.630  56.105 12.0  SC3 10 0.2 3.6LSC3                1
 GAP=162        0.00       2.1     2.1330.7                                    E
 2021-11-14-2009-49.BIN__084                                                   6
 ACTION:NEW 21-11-16 07:37 OP:SEIS STATUS:               ID:20211114200949     I
 STAT SP IPHASW D HRMM SECON CODA AMPLIT PERI AZIMU VELO AIN AR TRES W  DIS CAZ7
 JSSH BZ EPn  0   2010 25.35                                     0.0    229 146 
 KRBR BZ EPn  4   2010 27.44                                    -3.1    268  14 
 LMD1 BZ EPn  0   2010 33.38                                     0.1    292 264 
 GHIR BZ EPn  0   2010 36.43                                     0.2    315 283 
 ZHSF BZ EPn  4   2010 34.17                                   -25.8    506  64 
 YZKH BZ EPn  0   2011  5.25                                     0.1    548 345 
 NASN BZ EPn  0   2011 17.93                                    -0.6    655 331 
 KHMZ BZ EPn  0   2011 47.71                                    -0.9    897 319 
 ASAO BZ EPn  0   2011 55.91                                    -0.7    962 323 
 ILBA BZ EPn  4   2012 17.61                                    -3.3   1158 305 
 JSSH BZ  IAML    2010 25.35         0.6 1.00                           229 146 
 LMD1 BZ  IAML    2010 33.38         0.6 1.00                           292 264 
 YZKH BZ  IAML    2011  5.25        0.06 1.00                           548 345 
 NASN BZ  IAML    2011 17.93        0.03 1.00                           655 331 
                                                                                
 2021 1115 0202 28.6 L  27.587  56.221 12.0  SC3 10 0.5 4.3LSC3                1
 GAP= 90        0.00       3.5     3.5  4.4                                    E
 2021-11-15-0202-28.BIN__094                                                   6
 ACTION:NEW 21-11-15 08:00 OP:SEIS STATUS:               ID:20211115020228     I
 STAT SP IPHASW D HRMM SECON CODA AMPLIT PERI AZIMU VELO AIN AR TRES W  DIS CAZ7
 BNDS BZ EPg  0   0202 32.95                                    -0.1     21 193 
 JSSH BZ EPn  0   0203  4.35                                     0.7    219 148 
 KRBR BZ EPn  0   0203  9.83                                    -0.6    271  11 
 LMD1 BZ EPn  4   0203 17.30                                     3.1    303 265 
 GHIR BZ EPn  0   0203 17.82                                     0.5    328 284 
 CHBR BZ EPn  0   0203 35.22                                    -0.7    478 117 
 YZKH BZ EPn  0   0203 45.84                                     0.1    555 344 
 BSRN BZ EPn  0   0203 47.69                                     1.4    561  30 
 KLNJ BZ EPn  0   0203 49.40                                    -0.5    588 310 
 SRVN BZ EPn  0   0203 52.41                                    -0.1    611  92 
 KRBR BZ  IAML    0203  9.83           3 1.00                           271  11 
 CHBR BZ  IAML    0203 35.22         0.2 1.00                           478 117 
 YZKH BZ  IAML    0203 45.84         0.3 1.00                           555 344 
 BSRN BZ  IAML    0203 47.69         0.3 1.00                           561  30 
                                                                                
 2021 1115 0253 42.6 L  27.599  56.104 10.0  SC3  8 0.6 3.6LSC3                1
 GAP=107        0.00       1.8     1.8  2.8                                    E
 2021-11-15-0253-42.BIN__084                                                   6
 ACTION:NEW 21-11-15 14:08 OP:SEIS STATUS:               ID:20211115025342     I
 STAT SP IPHASW D HRMM SECON CODA AMPLIT PERI AZIMU VELO AIN AR TRES W  DIS CAZ7
 BNDS BZ EPg  0   0253 48.39                                     1.2     23 163 
 JSSH BZ EPn  0   0254 17.98                                    -0.8    227 146 
 KRBR BZ EPn  4   0254 21.05                                    -3.7    272  14 
 LMD1 BZ EPn  0   0254 26.81                                    -0.2    292 264 
 GHIR BZ EPn  0   0254 29.79                                    -0.3    316 284 
 YZKH BZ EPn  0   0255  0.13                                     0.7    551 345 
 KLNJ BZ EPn  0   0255  2.65                                    -0.3    579 311 
 SRVN BZ EPn  0   0255  8.11                                    -0.1    622  92 
 BNDS BZ  IAML    0253 48.39       4e+01 1.00                            23 163 
 JSSH BZ  IAML    0254 17.98         0.7 1.00                           227 146 
 YZKH BZ  IAML    0255  0.13        0.09 1.00                           551 345 
                                                                                
 2021 1115 0643 48.2 L  27.631  56.129 12.0  SC3 12 0.3 3.4LSC3                1
 GAP=112        0.00       1.8     1.8  2.6                                    E
 2021-11-15-0643-48.BIN__084                                                   6
 ACTION:NEW 21-11-17 06:14 OP:SEIS STATUS:               ID:20211115064348     I
 STAT SP IPHASW D HRMM SECON CODA AMPLIT PERI AZIMU VELO AIN AR TRES W  DIS CAZ7
 BNDS BZ EPg  0   0643 53.45                                     0.0     26 171 
 JSSH BZ EPn  0   0644 24.04                                    -0.4    228 147 
 KRBR BZ EPn  4   0644 27.26                                    -2.4    268  13 
 GHIR BZ EPn  0   0644 36.28                                     0.6    318 283 
 YZKH BZ EPn  0   0645  4.12                                    -0.3    548 344 
 BSRN BZ EPn  0   0645  6.31                                     0.4    561  31 
 KLNJ BZ EPn  0   0645  8.04                                    -0.2    578 310 
 SRVN BZ EPn  0   0645 13.46                                     0.2    620  92 
 NASN BZ EPn  0   0645 17.94                                     0.0    656 331 
 TABS BZ EPn  0   0645 19.67                                    -0.3    674   8 
 SHRT BZ EPn  0   0645 33.02                                     0.3    777  31 
 GTMR BZ EPn  0   0645 42.72                                    -0.7    864 308 
 JSSH BZ  IAML    0644 24.04         0.5 1.00                           228 147 
 YZKH BZ  IAML    0645  4.12        0.03 1.00                           548 344 
 BSRN BZ  IAML    0645  6.31        0.04 1.00                           561  31 
 KLNJ BZ  IAML    0645  8.04        0.04 1.00                           578 310 
 SRVN BZ  IAML    0645 13.46        0.02 1.00                           620  92 
 NASN BZ  IAML    0645 17.94        0.02 1.00                           656 331 
 TABS BZ  IAML    0645 19.67        0.03 1.00                           674   8 
 SHRT BZ  IAML    0645 33.02        0.01 1.00                           777  31 
 GTMR BZ  IAML    0645 42.72        0.02 1.00                           864 308 
                                                                                
 2021 1115 0744 53.9 L  27.633  56.276  8.0  SC3 14 0.4 3.9LSC3                1
 GAP= 63        0.00       1.9     1.9  3.5                                    E
 2021-11-15-0744-53.BIN__087                                                   6
 ACTION:NEW 21-11-16 10:16 OP:SEIS STATUS:               ID:20211115074453     I
 STAT SP IPHASW D HRMM SECON CODA AMPLIT PERI AZIMU VELO AIN AR TRES W  DIS CAZ7
 BNDS BZ EPg  0   0744 59.26                                     0.0     28 202 
 JSSH BZ EPn  0   0745 29.50                                    -0.1    221 150 
 KRBR BZ EPn  0   0745 34.63                                    -0.8    265  10 
 LMD1 BZ EPn  0   0745 40.73                                     0.0    309 264 
 GHIR BZ EPn  0   0745 43.86                                     0.3    332 283 
 YZKH BZ EPn  0   0746 12.09                                     1.0    552 343 
 BSRN BZ EPn  0   0746 11.43                                     0.2    554  30 
 KLNJ BZ EPn  0   0746 15.48                                    -0.3    589 309 
 SRVN BZ EPn  0   0746 17.56                                    -0.0    605  92 
 NASN BZ EPn  0   0746 25.41                                     0.5    663 330 
 GTMR BZ EPn  0   0746 49.96                                    -1.0    875 308 
 KHMZ BZ EPn  0   0746 55.34                                     0.1    908 318 
 ASAO BZ EPn  0   0747  3.35                                     0.2    971 322 
 ILBA BZ EPn  4   0747 25.73                                    -2.2   1172 305 
 BNDS BZ  IAML    0744 59.26       3e+02 1.00                            28 202 
 JSSH BZ  IAML    0745 29.50           1 1.00                           221 150 
 KRBR BZ  IAML    0745 34.63           1 1.00                           265  10 
 LMD1 BZ  IAML    0745 40.73           3 1.00                           309 264 
 GHIR BZ  IAML    0745 43.86         0.2 1.00                           332 283 
 YZKH BZ  IAML    0746 12.09        0.07 1.00                           552 343 
 BSRN BZ  IAML    0746 11.43         0.1 1.00                           554  30 
 KLNJ BZ  IAML    0746 15.48         0.2 1.00                           589 309 
 SRVN BZ  IAML    0746 17.56        0.04 1.00                           605  92 
 NASN BZ  IAML    0746 25.41        0.05 1.00                           663 330 
 GTMR BZ  IAML    0746 49.96        0.07 1.00                           875 308 
                                                                                
 2021 1115 0945 23.8 L  27.660  56.264 19.0  SC3  8 0.4 3.3LSC3                1
 GAP=120        0.00       3.3     3.3  4.3                                    E
 2021-11-15-0945-23.BIN__093                                                   6
 ACTION:NEW 21-11-17 06:02 OP:SEIS STATUS:               ID:20211115094523     I
 STAT SP IPHASW D HRMM SECON CODA AMPLIT PERI AZIMU VELO AIN AR TRES W  DIS CAZ7
 BNDS BZ EPg  0   0945 30.03                                    -0.0     30 198 
 JSSH BZ EPn  0   0945 58.70                                    -0.0    224 150 
 KRBR BZ EPn  0   0946  3.09                                    -0.7    262  11 
 GHIR BZ EPn  0   0946 12.30                                     0.2    330 282 
 YZKH BZ EPn  0   0946 39.91                                     0.5    549 343 
 BSRN BZ EPn  0   0946 40.52                                     0.9    552  30 
 KLNJ BZ EPn  0   0946 43.85                                    -0.3    586 309 
 NASN BZ EPn  0   0946 53.31                                     0.1    660 330 
 BNDS BZ  IAML    0945 30.03       2e+01 1.00                            30 198 
 JSSH BZ  IAML    0945 58.70         0.4 1.00                           224 150 
 BSRN BZ  IAML    0946 40.52        0.03 1.00                           552  30 
 NASN BZ  IAML    0946 53.31        0.02 1.00                           660 330 
                                                                                
