 2021 1114 1252 37.8 L  27.518  56.093 15.1  Teh 17 0.4 4.0LTeh                1
 GAP=135                                                                       E
 Iranian Seismological Center, Institute of Geophysics, University of Tehran   6
 STAT SP IPHASW D HRMM SECON CODA AMPLIT PERI AZIMU VELO SNR AR TRES  W DIS CAZ7
 KSHB BZ E    0   1254 22.94      4172.4 0.76                           316 343
 JASK BZ E    0   1254  5.32     13178.9 0.32                           254 136
 CHMN BZ E    0   1253 28.42      4561.6 0.32                           296  28
 KBAM BZ E    0   1253 32.78      7293.8 0.76                           293  52
 BAF  SZ E    0   1253 56.93       908.8  0.4                           454 354
 KANR BZ E    0   1254 36.68      2585.6 0.68                           385 350
 BNDS BZ EPg  0   1252 41.8                                      0.0   15.0 150
 KHGB BZ E    0   1254 11.04      3025.1 0.56                           319   7
 LMD1 BZ E    0   1254 25.78     13456.0  0.4                           290 267
 TAFT BZ E    0   1253 55.66      1071.4 0.28                           502 339
 NGCH BZ E    0   1253 58.38      1679.6 0.28                           557 114
 GAR  SZ E    0   1254 16.04       702.0 0.16                           668 325
 UOSS BZ EPn  0   1253 21.1                                      0.6    285 178
 KBAM BZ EPn  0   1253 22.0                                      0.4    293  52
 CHMN BZ EPn  0   1253 22.6                                      0.4    296  28
 KHGB BZ EPn  0   1253 25.3                                      0.3    319   7
 HOQ  BZ EPn  0   1253 41.1                                     -0.2    453 164
 BAF  SZ EPn  0   1253 41.1                                     -0.6    454 354
 TAFT BE EPn  0   1253 47.2                                     -0.5    502 339
 NGCH BZ EPn  0   1253 53.5                                     -0.7    557 114
 KLNJ BZ EPn  0   1253 58.2                                      0.2    584 313
 GAR  SZ EPn  4   1254 7.6                                      -0.7    668 325
 ZEF  SN EPn  4   1254 11.1                                     -0.9    697 330
 KLH  SZ EPn  4   1254 22.2                                      0.5    775 327

 2021 1114 1305 48.4 L  27.525  56.245  9.0  Teh 15 0.3 3.6LTeh                1
 GAP=89                                                                        E
 Iranian Seismological Center, Institute of Geophysics, University of Tehran   6
 STAT SP IPHASW D HRMM SECON CODA AMPLIT PERI AZIMU VELO SNR AR TRES  W DIS CAZ7
 KRBR BZ E    0   1307  7.04      2213.5 0.32                           277  10
 CHMN BZ E    0   1307  9.38      1912.4 0.56                           288  26
 BAZ1 BZ E    0   1307 48.52       813.5 0.64                           390  84
 BNDS BZ ESg  0   1305 54.2                                      0.0   16.0 208
 KBAM BZ E    0   1307  8.92      2628.6 0.88                           280  50
 KANR BZ E    0   1307 49.04      1083.2 0.64                           387 348
 MZN1 BE EPg  0   1306 17.3                                      0.1    168 291
 CHMN BE EPn  0   1306 32.6                                     -0.2    288  26
 KSHB BE EPn  0   1306 37.1                                      0.4    320 340
 MZN1 BZ ESg  0   1306 39.3                                      0.4    168 291
 KANR BN EPn  0   1306 44.7                                     -0.2    387 348
 BAF  SN EPn  4   1306 52.7                                     -0.6    455 352
 KRVR BZ EPn  0   1306 53.7                                     -0.4    461   7
 TAFT BZ EPn  4   1306 57.9                                     -2.0    507 337
 NGCH BZ EPn  0   1307 4.3                                       0.2    543 115
 WBK  BZ EPn  0   1307 12.6                                      0.3    609 153
 ANAR BZ EPn  4   1307 19.5                                     -0.9    673 340
 ZEF  SZ EPn  4   1307 22.1                                     -2.3    704 329

 2021 1114 1313 15.9 L  27.567  56.161 19.7  Teh 17 0.4 4.0LTeh                1
 GAP=133                                                                       E
 Iranian Seismological Center, Institute of Geophysics, University of Tehran   6
 STAT SP IPHASW D HRMM SECON CODA AMPLIT PERI AZIMU VELO SNR AR TRES  W DIS CAZ7
 KBAM BZ E    0   1315  9.66      5675.4 0.44                           284  52
 MZN1 BE E    0   1314 34.84     22395.8 0.48                           158 290
 KSHB BN E    0   1315 35.38      5197.8 0.96                           313 341
 BNDS BZ EPg  0   1313 20.8                                      0.0   19.0 177
 KANR BZ E    0   1315 44.86      3103.5 0.88                           381 349
 BNDS BZ ESg  0   1313 24.5                                      0.0   19.0 177
 CHMN BZ E    0   1315  6.56      3888.3    1                           288  28
 BAF  SZ E    0   1315 56.15      1587.0  0.8                           445 353
 TAFT BZ E    0   1315 13.72      1160.1 0.92                           499 338
 NGCH BZ E    0   1315 33.60      1671.8 0.68                           553 115
 KBAM BN EPn  0   1313 58.6                                      0.5    284  52
 CHMN BN EPn  0   1313 59.2                                      0.4    288  28
 UOSS BZ EPn  0   1313 59.3                                      0.5    290 179
 KSHB BZ EPn  0   1314 1.9                                       0.0    313 341
 KANR BZ EPn  0   1314 10.4                                      0.1    381 349
 BAF  SN EPn  0   1314 18.4                                     -0.3    450 353
 HOQ  BZ EPn  0   1314 20.2                                      0.8    456 165
 TAFT BZ EPn  0   1314 25.1                                      0.2    499 338
 NGCH BZ EPn  0   1314 30.4                                     -0.9    553 115
 KLNJ BE EPn  0   1314 35.3                                     -0.4    585 312
 WBK  BZ EPn  0   1314 38.7                                     -0.7    617 152
 ANAR BN EPn  0   1314 45.5                                     -0.0    665 340
 BRJ  SZ EPn  0   1314 46.6                                     -0.2    675 317
 JHBN BZ EPn  4   1314 54.0                                     -1.0    741 316
 PIR  SZ EPn  4   1314 56.7                                     -0.8    761 319

 2021 1114 1345  0.8 L  27.522  56.135 18.8  Teh 14 0.3 3.6LTeh                1
 GAP=127                                                                       E
 Iranian Seismological Center, Institute of Geophysics, University of Tehran   6
 STAT SP IPHASW D HRMM SECON CODA AMPLIT PERI AZIMU VELO SNR AR TRES  W DIS CAZ7
 CHMN BZ E    0   1346 35.32      2218.8 0.76                           293  28
 MZN1 BE E    0   1346  3.62     10597.3 1.24                           158 292
 BAF  SZ E    0   1346 27.58       408.2 0.52                           454 353
 KBAM BZ E    0   1346 36.90      3522.3  0.8                           289  51
 KSHB BZ E    0   1346 53.94      1649.0 0.68                           317 342
 BNDS BZ EPg  0   1345 5.0                                      -0.1   14.0 165
 TAFT BZ E    0   1346 33.58       449.8 0.84                           503 338
 KANR BZ E    0   1347 34.76       862.1 0.72                           385 350
 NGCH BZ E    0   1346 52.08       829.1 0.48                           553 115
 KBAM BN EPn  0   1345 44.3                                      0.6    289  51
 CHMN BN EPn  0   1345 44.6                                      0.1    293  28
 MZN1 BE ESg  0   1345 47.7                                     -0.2    158 292
 KANR BZ EPn  0   1345 55.5                                     -0.3    385 350
 HOQ  BZ EPn  0   1346 3.5                                      -0.4    452 165
 BAF  SZ EPn  0   1346 3.9                                      -0.3    454 353
 TAFT BZ EPn  0   1346 9.9                                      -0.5    503 338
 NGCH BZ EPn  0   1346 16.3                                     -0.1    553 115
 KLNJ BE EPn  0   1346 21.3                                      0.5    586 312
 WBK  BZ EPn  0   1346 24.4                                      0.4    614 152
 SRVN BZ EPn  0   1346 24.6                                     -0.1    619  90
 ANAR BN EPn  4   1346 30.7                                     -0.2    669 340

 2021 1114 1402 56.4 L  27.590  56.136 17.0  Teh 46 0.3 4.6LTeh                1
 GAP=86                                                                        E
 Iranian Seismological Center, Institute of Geophysics, University of Tehran   6
 STAT SP IPHASW D HRMM SECON CODA AMPLIT PERI AZIMU VELO SNR AR TRES  W DIS CAZ7
 MZN1 BZ E    0   1404  0.52     55254.6 0.64                           155 290
 CHMN BZ E    0   1404 31.90     14699.8 0.64                           287  28
 JASK BZ E    0   1404 51.50     52806.8    1                           257 138
 KBAM BZ E    0   1404 26.86     29132.3 0.84                           284  52
 SHI  BZ E    0   1405 15.38      5273.5 0.92                           420 304
 BAZ1 BZ E    0   1404 57.92      5838.4 0.64                           400  85
 TAFT BZ E    0   1404 23.34      5316.3 0.88                           496 338
 KSHB BZ E    0   1404 39.32     17756.8 0.88                           310 342
 KANR BZ E    0   1404 46.22     11257.0 0.64                           378 349
 KAZ2 SN E    0   1406  1.18     21018.9    1                           491 298
 KRVR BZ E    0   1405 17.50       -99.0 0.88                           455   9
 BNDS BZ EPg  0   1403 1.3                                      -0.0   21.0 171
 NGCH BZ E    0   1404 40.90      3893.6 0.44                           556 115
 NHDN BZ E    0   1405 43.56      6982.7 0.56                           567  41
 CHBR BZ E    0   1405 12.42       -99.0 0.92                           486 116
 MZN1 BZ EPg  0   1403 23.0                                      0.5    155 290
 JASK BZ EPn  0   1403 35.5                                      0.1    257 138
 CHMN BZ EPn  0   1403 39.2                                     -0.3    287  28
 KBAM BZ EPn  0   1403 39.4                                      0.5    284  52
 UOSS BZ EPn  0   1403 40.4                                      0.5    293 179
 LMD1 BZ EPn  0   1403 40.4                                      0.3    295 265
 KSHB BZ EPn  0   1403 41.7                                     -0.6    310 342
 MZN1 BZ ESg  0   1403 42.0                                     -0.4    155 290
 KANR BZ EPn  0   1403 50.9                                      0.2    378 349
 BAZ1 BZ EPn  0   1403 53.0                                     -0.3    400  85
 SHI  BZ EPn  0   1403 55.4                                     -0.4    420 304
 KRVR BZ EPn  4   1403 59.6                                     -0.6    455   9
 HOQ  BZ EPn  0   1404 0.0                                      -0.5    459 165
 CHBR BZ EPn  0   1404 3.6                                      -0.2    486 116
 KAZ2 SN EPn  0   1404 4.9                                       0.3    491 298
 TAFT BZ EPn  0   1404 5.8                                       0.5    496 338
 NGCH BZ EPn  0   1404 12.3                                     -0.3    556 115
 NHDN BZ EPn  0   1404 14.1                                      0.1    567  41
 BRJ  SZ E    0   1405 36.88      3154.8 1.04                           671 317
 KLNJ BZ EPn  4   1404 15.5                                     -0.5    581 312
 TPRV BZ EPn  4   1404 18.5                                     -0.3    605   5
 SRVN BZ EPn  0   1404 20.6                                      0.1    619  90
 WBK  BZ EPn  0   1404 20.7                                      0.1    621 152
 ANAR BZ EPn  4   1404 25.3                                     -0.6    662 340
 TSHB BZ EPn  4   1404 26.4                                     -1.3    677   3
 BRJ  SZ EPn  0   1404 26.9                                     -0.2    671 317
 TKDS BZ EPn  4   1404 27.2                                     -0.1    674   8
 ZEF  SZ EPn  4   1404 28.5                                     -1.2    693 329
 TNSJ BZ EPn  4   1404 31.0                                     -0.5    708   4
 AFRZ BZ EPn  4   1404 31.8                                      0.8    703  22
 JHBN BZ EPn  4   1404 34.6                                     -0.7    737 316
 PIR  SZ EPn  4   1404 36.4                                     -1.5    757 319
 KLH  SZ EPn  4   1404 37.5                                     -2.0    771 327
 SHRT BZ EPn  4   1404 41.1                                      0.7    780  30
 TAPT BZ EPn  4   1404 45.4                                      0.6    814   7
 SFB  BZ EPn  4   1404 46.5                                     -0.9    836 335
 LAS  SZ EPn  4   1404 57.2                                      0.0    915 342
 VRN  BZ EPn  4   1404 57.7                                     -0.3    922 334
 FIR  BZ EPn  4   1405 0.9                                      -0.6    948 341
 DMV  SZ EPn  4   1405 3.1                                      -0.7    967 337
 GLO  SZ EPn  4   1405 9.7                                       0.4   1012 348
 PAY  SZ EPn  4   1405 9.8                                      -0.4   1019  15
 PRN  SZ EPn  4   1405 11.4                                      0.7   1024 340
 AKL  SZ EPn  4   1405 12.1                                      0.6   1028  13
 SFR  SZ EPn  4   1405 15.0                                     -0.8   1064   9
 MZPU BZ EPn  4   1405 16.9                                      0.2   1071 337
 QABG BZ EPn  4   1405 17.5                                     -1.9   1093 327

 2021 1114 1413 57.4 L  27.496  56.213 12.5  Teh 15 0.3 3.6LTeh                1
 GAP=91                                                                        E
 Iranian Seismological Center, Institute of Geophysics, University of Tehran   6
 STAT SP IPHASW D HRMM SECON CODA AMPLIT PERI AZIMU VELO SNR AR TRES  W DIS CAZ7
 CHMN BZ E    0   1414 50.50      1313.0 0.48                           292  26
 JASK BZ E    0   1415 55.38      5452.3  0.8                           244 137
 BNDS BZ EPg  0   1414 0.7                                      -0.0   12.0 201
 KBAM BZ E    0   1415 15.06      2289.3 0.36                           285  50
 KANR BZ E    0   1414 54.36       947.3 0.28                           390 349
 KSHB BZ E    0   1415 42.54      1324.0 0.56                           322 341
 TAFT BZ E    0   1415 10.24       431.5 0.24                           508 338
 KLNJ BZ E    0   1416 52.70       310.7 0.44                           594 312
 MZN1 BE EPg  0   1414 25.4                                      0.1    166 292
 NHDN BZ E    0   1416 52.74       703.3 0.52                           570  40
 JASK BZ EPn  0   1414 35.4                                      0.1    244 137
 UOSS BZ EPn  0   1414 40.4                                      0.3    282 180
 KBAM BZ EPn  0   1414 40.6                                      0.1    285  50
 CHMN BZ EPn  0   1414 41.6                                      0.0    292  26
 KSHB BE EPn  0   1414 45.5                                      0.2    322 341
 KANR BZ EPn  0   1414 53.5                                     -0.1    390 349
 KRVR BZ EPn  0   1415 2.7                                      -0.2    465   8
 TAFT BZ EPn  0   1415 8.1                                      -0.3    508 338
 NHDN BZ EPn  0   1415 15.5                                     -0.4    570  40
 KLNJ BN EPn  0   1415 19.3                                      0.2    594 312
 WBK  BZ EPn  0   1415 19.8                                     -0.7    608 152
 SRVN BZ EPn  0   1415 21.7                                      0.7    611  90
 JHBN BN EPn  4   1415 38.0                                     -0.4    750 316

 2021 1114 1419 32.6 L  27.625  56.176 10.0  Teh  5 0.4 2.7LTeh                1
 GAP=168                                                                       E
 Iranian Seismological Center, Institute of Geophysics, University of Tehran   6
 STAT SP IPHASW D HRMM SECON CODA AMPLIT PERI AZIMU VELO SNR AR TRES  W DIS CAZ7
 BNDS BZ EPg  0   1419 38.5                                     -0.0   25.0 181
 KRBR BZ EPn  4   1420 11.1                                     -4.3    267  12
 CHMN BZ EPn  0   1420 16.5                                     -0.6    281  28
 KBAM BZ EPn  0   1420 16.8                                      0.4    279  53
 KANR BZ EPn  0   1420 28.6                                      0.2    375 349
 CHMN BZ E    0   1420 18.38       518.9 0.16                           281  28
 KBAM BZ E    0   1420 17.90       691.3  0.2                           279  53
 KANR BZ E    0   1420 29.78       539.3  0.2                           375 349

 2021 1114 1424 13.8 L  27.576  56.172 13.1  Teh 20 0.3 3.8LTeh                1
 GAP=110                                                                       E
 Iranian Seismological Center, Institute of Geophysics, University of Tehran   6
 STAT SP IPHASW D HRMM SECON CODA AMPLIT PERI AZIMU VELO SNR AR TRES  W DIS CAZ7
 CHMN BZ E    0   1425 41.16      1491.3 0.88                           286  27
 JASK BZ E    0   1426  8.60      5222.3 0.72                           253 138
 KSHB BZ E    0   1426  3.34      3832.1 0.72                           313 341
 KBAM BZ E    0   1426  6.26      2075.2 0.68                           282  52
 BNDS BZ EPg  0   1424 18.8                                     -0.2   20.0 180
 MZN1 BZ E    0   1425  7.38     19635.4 0.64                           159 290
 KANR BZ E    0   1426 13.50      1524.1  0.8                           380 349
 TAFT BZ E    0   1426 51.80       889.4 0.88                           499 338
 KRVR BZ E    0   1426 58.06       -99.0 1.08                           457   8
 NHDN BZ E    0   1427 15.26       942.9 0.76                           566  41
 MZN1 BE EPg  0   1424 41.7                                     -0.1    159 290
 ANAR BZ E    0   1427 42.32       285.0 0.92                           665 340
 KLNJ BZ E    0   1426 56.28       852.6 0.56                           585 312
 KLH  SZ E    0   1426 17.96       157.0 0.48                           774 326
 JASK BZ EPn  0   1424 53.8                                     -0.0    253 138
 KBAM BZ EPn  0   1424 57.6                                     -0.1    282  52
 JHBN BZ E    0   1427 26.42       480.4    1                           741 315
 CHMN BZ EPn  0   1424 58.2                                     -0.4    286  27
 UOSS BZ EPn  0   1424 58.5                                     -0.0    291 179
 SHI  BZ E    0   1426 49.56      2314.7 1.04                           424 303
 MZN1 BE ESg  0   1425 2.8                                       0.4    159 290
 KANR BN EPn  0   1425 9.7                                      -0.2    380 349
 KRVR BZ EPn  0   1425 19.0                                     -0.1    457   8
 TAFT BZ EPn  0   1425 24.6                                     -0.0    499 338
 KLNJ BN EPn  0   1425 35.4                                     -0.1    585 312
 WBK  BZ EPn  0   1425 38.7                                     -0.2    618 152
 SRVN BN EPn  0   1425 39.8                                      1.0    615  90
 ANAR BZ EPn  4   1425 44.2                                     -0.7    665 340
 BRJ  SZ EPn  0   1425 46.5                                      0.0    675 317
 ZEF  SN EPn  4   1425 47.8                                     -1.3    696 329
 JHBN BZ EPn  0   1425 54.6                                     -0.1    741 315
 KLH  SZ EPn  4   1425 58.0                                     -0.7    774 326

