 2021 0824 0624 40.4 L  27.681  56.465 12.0  SC3 11 0.3 3.7LSC3                1
 GAP=149        0.00       2.2     2.2  3.3                                    E
 2021-08-24-0624-40.BIN__078                                                   6
 ACTION:NEW 21-08-24 06:58 OP:SEIS STATUS:               ID:20210824062440     I
 STAT SP IPHASW D HRMM SECON CODA AMPLIT PERI AZIMU VELO AIN AR TRES W  DIS CAZ7
 BNDS BZ EPg  0   0624 48.41                                     0.1     43 223 
 JSSH BZ EPn  0   0625 14.96                                    -0.2    217 155 
 KRBR BZ EPn  0   0625 20.66                                     0.2    257   6 
 LMD1 BZ EPn  0   0625 29.25                                     0.2    328 263 
 GHIR BZ EPn  0   0625 31.74                                     0.0    349 281 
 YZKH BZ EPn  0   0625 56.35                                    -0.8    552 341 
 KLNJ BZ EPn  0   0626  2.44                                    -0.7    600 308 
 TABS BZ EPn  0   0626 11.51                                     0.6    664   5 
 NASN BZ EPn  0   0626 10.66                                    -0.8    668 328 
 GTMR BZ EPn  4   0626 36.39                                    -1.9    886 307 
 KHMZ BZ EPn  4   0626 36.27                                    -6.0    916 317 
 KRBR BZ  IAML    0625 20.66           1 1.00                           257   6 
 YZKH BZ  IAML    0625 56.35        0.05 1.00                           552 341 
 KLNJ BZ  IAML    0626  2.44        0.07 1.00                           600 308 
 TABS BZ  IAML    0626 11.51        0.05 1.00                           664   5 
 NASN BZ  IAML    0626 10.66        0.04 1.00                           668 328 
                                                                                
 2021 1014 1417 47.8 L  27.499  56.173 14.0  SC3  7 0.5 3.1LSC3                1
 GAP=134        0.00       4.3     4.3  4.1                                    E
 2021-10-14-1417-47.BIN__075                                                   6
 ACTION:NEW 21-10-16 05:31 OP:SEIS STATUS:               ID:20211014141747     I
 STAT SP IPHASW D HRMM SECON CODA AMPLIT PERI AZIMU VELO AIN AR TRES W  DIS CAZ7
 BNDS BZ EPg  0   1417 51.08                                    -0.1     11 181 
 JSSH BZ EPn  0   1418 21.74                                    -0.2    214 146 
 KRBR BZ EPn  0   1418 31.14                                     0.5    281  12 
 GHIR BZ EPn  0   1418 36.77                                     0.8    326 286 
 YZKH BZ EPn  0   1419  5.57                                    -0.1    563 344 
 NASN BZ EPn  0   1419 18.64                                    -0.5    671 331 
 GTMR BZ EPn  0   1419 43.40                                    -0.9    876 309 
 BNDS BZ  IAML    1417 51.08       2e+01 1.00                            11 181 
 KRBR BZ  IAML    1418 31.14         0.2 1.00                           281  12 
 YZKH BZ  IAML    1419  5.57        0.02 1.00                           563 344 
 NASN BZ  IAML    1419 18.64        0.01 1.00                           671 331 
                                                                                
 2021 1114 1207  4.0 L  27.668  56.075 14.0  SC3 32 0.7 6.3LSC3                1
 GAP=100        0.00       2.1     2.1  5.8                                    E
 2021-11-14-1207-03.BIN__086                                                   6
 ACTION:NEW 21-11-14 12:41 OP:SEIS STATUS:               ID:20211114120703     I
 STAT SP IPHASW D HRMM SECON CODA AMPLIT PERI AZIMU VELO AIN AR TRES W  DIS CAZ7
 BNDS BZ EPg  0   1207  9.67                                    -0.4     31 162 
 BNDS BZ ESg  0   1207 15.11                                     0.5     31 162 
 JSSH BZ EPn  0   1207 41.04                                     0.3    234 146 
 KRBR BZ EPn  0   1207 42.71                                    -2.1    265  15 
 LMD1 BZ EPn  0   1207 48.28                                     0.6    290 263 
 GHIR BZ EPn  0   1207 51.28                                     0.8    312 283 
 CHBR BZ EPn  0   1208 12.24                                    -0.9    495 118 
 AHRM BZ EPn  0   1208 12.80                                    -1.3    503 285 
 YZKH BZ EPn  0   1208 20.44                                     1.2    543 345 
 BSRN BZ EPn  0   1208 21.55                                     0.2    560  32 
 KLNJ BZ EPn  0   1208 22.73                                    -0.2    572 310 
 SRVN BZ EPn  0   1208 29.50                                     0.1    625  93 
 NASN BZ EPn  0   1208 32.93                                     0.3    650 331 
 TABS BZ EPn  0   1208 36.02                                     1.0    670   9 
 SHRT BZ EPn  0   1208 49.20                                     1.1    776  31 
 GTMR BZ EPn  0   1208 56.25                                    -1.8    857 308 
 ANJ  BZ EPn  0   1209  3.17                                     0.9    889 347 
 KHMZ BZ EPn  0   1209  1.81                                    -0.8    892 319 
 SHRO BZ EPn  0   1209  5.68                                    -0.9    925 360 
 TBJM BZ EPn  0   1209  8.71                                     0.8    935  26 
 ASAO BZ EPn  0   1209  9.88                                    -0.8    956 323 
 GLO  BZ EPn  0   1209 17.68                                     1.3   1002 348 
 ABGH BZ EPn  0   1209 17.80                                     0.3   1013 353 
 CHTH BZ EPn  0   1209 19.41                                    -0.0   1027 333 
 KAGH BZ EPn  0   1209 28.72                                     1.4   1091  20 
 MRVT BZ EPn  0   1209 29.21                                    -0.1   1108   0 
 GZV  BZ EPn  0   1209 29.77                                    -0.5   1114 330 
 BJRD BZ EPn  0   1209 31.04                                     0.2   1120   6 
 GIDE BZ EPn  0   1209 38.73                                    -0.1   1183 330 
 AZR  BZ EPn  0   1210 11.54                                    -1.5   1459 320 
 MRD  BZ EPn  0   1210 24.72                                    -0.9   1561 322 
 MAKU BZ EPn  0   1210 37.83                                    -1.6   1674 321 
 BNDS BZ  IAML    1207  9.67       3e+03 1.00                            31 162 
 BNDS BZ  IAML    1207 15.11       3e+03 1.00                            31 162 
 JSSH BZ  IAML    1207 41.04       3e+02 1.00                           234 146 
 KRBR BZ  IAML    1207 42.71       3e+02 1.00                           265  15 
 LMD1 BZ  IAML    1207 48.28       2e+02 1.00                           290 263 
 AHRM BZ  IAML    1208 12.80           9 1.00                           503 285 
 YZKH BZ  IAML    1208 20.44       2e+01 1.00                           543 345 
 BSRN BZ  IAML    1208 21.55       7e+01 1.00                           560  32 
 KLNJ BZ  IAML    1208 22.73       5e+01 1.00                           572 310 
 SRVN BZ  IAML    1208 29.50       3e+01 1.00                           625  93 
 NASN BZ  IAML    1208 32.93       2e+01 1.00                           650 331 
 TABS BZ  IAML    1208 36.02       4e+01 1.00                           670   9 
 GTMR BZ  IAML    1208 56.25       1e+01 1.00                           857 308 
                                                                                
 2021 1114 1208 36.9 L  27.565  56.367 15.0  SC3 10 0.5 6.4LSC3                1
 GAP=126        0.00       3.8     3.8  6.7                                    E
 2021-11-14-1208-36.BIN__087                                                   6
 ACTION:NEW 21-11-14 14:48 OP:SEIS STATUS:               ID:20211114120836     I
 STAT SP IPHASW D HRMM SECON CODA AMPLIT PERI AZIMU VELO AIN AR TRES W  DIS CAZ7
 BNDS BZ EPg  0   1208 41.79                                    -0.6     27 227 
 BNDS BZ ESg  0   1208 46.76                                     0.4     27 227 
 CHBR BZ EPn  0   1209 42.06                                    -0.1    464 118 
 YZKH BZ EPn  0   1209 54.57                                     0.1    562 342 
 NASN BZ EPn  0   1210  7.83                                    -0.6    674 329 
 ASAO BZ EPn  0   1210 47.42                                     0.6    983 322 
 ASAO BZ ES   0   1212 22.17                                     0.6    983 322 
 GLO  BZ EPn  0   1210 52.59                                     1.3   1020 346 
 ABGH BZ EPn  0   1210 51.16                                    -1.1   1028 352 
 CHTH BZ EPn  0   1210 54.39                                    -0.8   1050 332 
 BNDS BZ  IAML    1208 41.79       3e+03 1.00                            27 227 
 BNDS BZ  IAML    1208 46.76       3e+03 1.00                            27 227 
 CHBR BZ  IAML    1209 42.06       1e+02 1.00                           464 118 
 YZKH BZ  IAML    1209 54.57       4e+01 1.00                           562 342 
 NASN BZ  IAML    1210  7.83       2e+01 1.00                           674 329 
                                                                                
 2021 1114 1240 51.5 L  27.591  56.173 26.0  SC3 19 0.5 4.2LSC3                1
 GAP= 84        0.00       1.8     1.8  1.7                                    E
 2021-11-14-1240-51.BIN__084                                                   6
 ACTION:NEW 21-11-15 05:50 OP:SEIS STATUS:               ID:20211114124051     I
 STAT SP IPHASW D HRMM SECON CODA AMPLIT PERI AZIMU VELO AIN AR TRES W  DIS CAZ7
 BNDS BZ EPg  0   1240 57.76                                     0.4     21 180 
 BNDS BZ ESg  0   1241  1.21                                    -0.4     21 180 
 JSSH BZ EPn  0   1241 25.65                                     0.0    222 147 
 KRBR BZ EPn  0   1241 31.94                                    -0.1    271  12 
 LMD1 BZ EPn  0   1241 35.33                                     0.1    299 265 
 GHIR BZ EPn  0   1241 38.80                                     0.5    323 284 
 CHBR BZ EPn  0   1241 57.48                                    -0.6    483 117 
 ZHSF BZ EPn  4   1241 41.34                                   -19.3    502  64 
 AHRM BZ EPn  0   1242  1.67                                    -0.4    515 286 
 YZKH BZ EPn  0   1242  7.00                                    -0.1    553 344 
 BSRN BZ EPn  0   1242  8.01                                    -0.1    563  30 
 KLNJ BZ EPn  0   1242 10.87                                    -0.1    584 310 
 SRVN BZ EPn  0   1242 15.52                                     0.8    616  92 
 NASN BZ EPn  0   1242 21.33                                     0.7    662 331 
 TABS BZ EPn  0   1242 22.48                                     0.1    678   8 
 SHRT BZ EPn  0   1242 34.58                                    -0.3    779  30 
 GTMR BZ EPn  0   1242 45.18                                    -1.0    870 308 
 KHMZ BZ EPn  0   1242 51.11                                     0.4    905 319 
 ASAO BZ EPn  0   1242 58.73                                    -0.0    969 323 
 BNDS BZ  IAML    1240 57.76       1e+02 1.00                            21 180 
 BNDS BZ  IAML    1241  1.21       1e+02 1.00                            21 180 
 JSSH BZ  IAML    1241 25.65           2 1.00                           222 147 
 KRBR BZ  IAML    1241 31.94           2 1.00                           271  12 
 LMD1 BZ  IAML    1241 35.33           3 1.00                           299 265 
 CHBR BZ  IAML    1241 57.48         0.4 1.00                           483 117 
 YZKH BZ  IAML    1242  7.00         0.2 1.00                           553 344 
 BSRN BZ  IAML    1242  8.01         0.2 1.00                           563  30 
 KLNJ BZ  IAML    1242 10.87         0.3 1.00                           584 310 
 SRVN BZ  IAML    1242 15.52         0.1 1.00                           616  92 
 NASN BZ  IAML    1242 21.33         0.2 1.00                           662 331 
 TABS BZ  IAML    1242 22.48         0.2 1.00                           678   8 
                                                                                
 2021 1114 1252 38.6 L  27.523  56.199 15.0  SC3 14 0.4 4.0LSC3                1
 GAP= 75        0.00       2.3     2.3  2.5                                    E
 2021-11-14-1252-38.BIN__084                                                   6
 ACTION:NEW 21-11-15 06:37 OP:SEIS STATUS:               ID:20211114125238     I
 STAT SP IPHASW D HRMM SECON CODA AMPLIT PERI AZIMU VELO AIN AR TRES W  DIS CAZ7
 BNDS BZ EPg  0   1252 42.41                                     0.0     14 191 
 JSSH BZ EPn  0   1253 12.65                                    -0.1    214 147 
 KRBR BZ EPn  4   1253 18.22                                    -2.8    278  11 
 LMD1 BZ EPn  0   1253 23.89                                     0.3    301 266 
 GHIR BZ EPn  0   1253 27.87                                     0.9    327 285 
 CHBR BZ EPn  0   1253 44.94                                    -0.5    477 117 
 YZKH BZ EPn  0   1253 55.92                                    -0.2    561 344 
 BSRN BZ EPn  0   1253 57.64                                     0.8    568  30 
 KLNJ BZ EPn  0   1254  0.13                                     0.2    591 311 
 SRVN BZ EPn  0   1254  2.86                                     0.4    613  91 
 NASN BZ EPn  0   1254  8.94                                    -0.7    670 331 
 GTMR BZ EPn  0   1254 34.25                                    -0.8    877 309 
 KHMZ BZ EPn  0   1254 39.35                                    -0.4    912 319 
 ASAO BZ EPn  0   1254 47.50                                    -0.3    977 323 
 BNDS BZ  IAML    1252 42.41       3e+02 1.00                            14 191 
 JSSH BZ  IAML    1253 12.65           2 1.00                           214 147 
 LMD1 BZ  IAML    1253 23.89           2 1.00                           301 266 
 CHBR BZ  IAML    1253 44.94         0.2 1.00                           477 117 
 YZKH BZ  IAML    1253 55.92         0.1 1.00                           561 344 
 BSRN BZ  IAML    1253 57.64         0.2 1.00                           568  30 
 KLNJ BZ  IAML    1254  0.13         0.2 1.00                           591 311 
 SRVN BZ  IAML    1254  2.86        0.07 1.00                           613  91 
 NASN BZ  IAML    1254  8.94        0.08 1.00                           670 331 
                                                                                
 2021 1114 1305 53.8 L  27.401  56.099  9.0  SC3 18 0.6 3.7LSC3                1
 GAP=126        0.00       2.5     2.5  2.7                                    E
 2021-11-14-1305-53.BIN__084                                                   6
 ACTION:NEW 21-11-15 11:37 OP:SEIS STATUS:               ID:20211114130553     I
 STAT SP IPHASW D HRMM SECON CODA AMPLIT PERI AZIMU VELO AIN AR TRES W  DIS CAZ7
 BNDS BZ EPg  0   1305 56.19                                     0.1      7  91 
 JSSH BZ EPn  0   1306 27.26                                    -0.6    209 142 
 LMD1 BZ EPn  0   1306 38.39                                     0.3    290 269 
 KRBR BZ EPn  4   1306 25.14                                   -13.6    293  13 
 GHIR BZ EPn  0   1306 42.78                                     0.7    322 288 
 CHBR BZ EPn  0   1307  2.23                                     0.6    481 115 
 AHRM BZ EPn  0   1307  5.24                                    -0.7    515 288 
 ZHSF BZ EPn  4   1306 39.70                                   -26.9    518  62 
 YZKH BZ EPn  0   1307 14.13                                     0.8    572 345 
 BSRN BZ EPn  4   1307 23.27                                     8.5    585  30 
 KLNJ BZ EPn  0   1307 15.57                                    -0.5    593 312 
 KHRK BZ EPn  0   1307 17.16                                     0.2    603 290 
 SRVN BZ EPn  0   1307 18.67                                    -0.9    623  90 
 NASN BZ EPn  4   1307 19.34                                    -7.1    677 332 
 TABS BZ EPn  0   1307 29.15                                     0.1    700   8 
 SHRT BZ EPn  0   1307 42.28                                     0.7    801  30 
 GTMR BZ EPn  0   1307 50.25                                    -0.8    878 310 
 KHMZ BZ EPn  0   1307 55.43                                    -0.7    917 320 
 BNDS BZ  IAML    1305 56.19       6e+01 1.00                             7  91 
 JSSH BZ  IAML    1306 27.26           1 1.00                           209 142 
 LMD1 BZ  IAML    1306 38.39           1 1.00                           290 269 
 CHBR BZ  IAML    1307  2.23         0.2 1.00                           481 115 
 AHRM BZ  IAML    1307  5.24        0.03 1.00                           515 288 
 YZKH BZ  IAML    1307 14.13        0.06 1.00                           572 345 
 KLNJ BZ  IAML    1307 15.57         0.1 1.00                           593 312 
 SRVN BZ  IAML    1307 18.67        0.03 1.00                           623  90 
 TABS BZ  IAML    1307 29.15        0.07 1.00                           700   8 
 SHRT BZ  IAML    1307 42.28        0.04 1.00                           801  30 
                                                                                
