 2021 0824 0624 40.8 L  27.627  56.472 20.8  Teh 18 0.3 3.7LTeh                1
 GAP=90                                                                        E
 Iranian Seismological Center, Institute of Geophysics, University of Tehran   6
 STAT SP IPHASW D HRMM SECON CODA AMPLIT PERI AZIMU VELO SNR AR TRES  W DIS CAZ7
 KSHB BZ E    0   0626 26.54      1813.0  0.4                           318 336
 KRBR BZ E    0   0625 22.92      4528.8 0.32                           262   6
 KBAM BZ E    0   0625 26.62      6202.3 0.32                           256  49
 MEH  SZ E    0   0625 44.67      1001.1 0.16                           454 337
 BNB  BZ EPg  0   0624 45.7                                     -0.1   21.0 161
 KANR BZ E    0   0626 31.98      1024.2 0.76                           381 344
 JASK BZ E    0   0625 36.64      4622.4 0.28                           239 144
 KHGB BZ E    0   0625 32.98      2498.9 0.32                           305   0
 GENO BZ EPg  0   0624 48.5                                      0.1   39.0 230
 BNDS BZ EPg  4   0624 48.6                                      0.2   39.0 230
 CHMN BZ E    0   0625 28.64      3246.2 0.36                           269  23
 KRVR BZ E    0   0626 53.08       -99.0 0.88                           448   5
 TAFT BZ E    0   0626 47.42       646.7 0.64                           505 334
 RAM  SZ E    0   0627  6.36       421.1 0.48                           609 320
 KLNJ BZ E    0   0627 15.04       414.3 0.36                           604 310
 BAF  SZ E    0   0625 43.12       529.0 0.16                           446 349
 BAZ1 BZ E    0   0626 33.62      1307.8 1.08                           367  85
 JASK BZ EPn  0   0625 17.4                                      0.1    239 144
 KBAM BZ EPn  0   0625 19.6                                      0.1    256  49
 KRBR BZ EPn  0   0625 20.5                                      0.1    262   6
 CHMN BZ EPn  0   0625 21.0                                     -0.2    269  23
 KHGB BZ EPn  0   0625 26.0                                      0.4    305   0
 KSHD BZ EPn  4   0625 27.4                                      0.3    318  18
 KSHB BZ EPn  0   0625 27.8                                      0.5    318 336
 BAZ1 BZ EPn  0   0625 33.0                                     -0.2    367  85
 KANR BZ EPn  4   0625 34.8                                     -0.3    381 344
 KRVR BZ EPn  0   0625 43.0                                     -0.2    448   5
 MEH  SZ EPn  4   0625 43.7                                     -0.4    454 337
 TAFT BZ EPn  4   0625 50.7                                      0.2    505 334
 RAM  SE EPn  0   0626 2.7                                      -0.7    609 320

 2021 0901 1632  6.6 L  27.871  56.337  1.2  Teh  4 0.2 2.8LTeh                1
 GAP=173                                                                       E
 Iranian Seismological Center, Institute of Geophysics, University of Tehran   6
 STAT SP IPHASW D HRMM SECON CODA AMPLIT PERI AZIMU VELO SNR AR TRES  W DIS CAZ7
 BNB  BZ E    0   1632 35.24     18467.0 0.52                          51.0 157
 GENO BN E    0   1632 30.86     40410.5 0.28                          55.0 197
 KRBR BZ E    0   1632 54.50       341.9 0.56                           237  10
 KBAM BZ E    0   1633 28.50       605.8 0.52                           250  55
 BNB  BZ EPg  0   1632 16.2                                      0.2   51.0 157
 GENO BN EPg  0   1632 16.6                                     -0.2   55.0 197
 GENO BE ESg  0   1632 24.6                                      0.0   55.0 197
 KRBR BZ EPn  0   1632 46.3                                      0.2    237  10
 KBAM BZ EPn  0   1632 47.2                                     -0.2    250  55

 2021 1014 1417 46.2 L  27.487  56.242 11.2  Teh  9 0.3 2.8LTeh                1
 GAP=154                                                                       E
 Iranian Seismological Center, Institute of Geophysics, University of Tehran   6
 STAT SP IPHASW D HRMM SECON CODA AMPLIT PERI AZIMU VELO SNR AR TRES  W DIS CAZ7
 BNB  BZ E    0   1418  2.24    133298.0 0.16                          30.0  98
 CHMN BZ E    0   1419 14.82       662.0 0.52                           292  25
 BNB  BZ EPg  0   1417 52.5                                     -0.2   30.0  98
 KBAM BZ E    0   1418 37.00       806.4 0.28                           283  49
 KSHB BZ E    0   1418 44.14       472.4 0.24                           324 340
 KANR BZ E    0   1418 50.28       340.6 0.28                           391 348
 KHGB BN E    0   1419 28.98       437.2 0.44                           321   4
 KSHD BE E    0   1419 33.40       357.5 0.92                           340  21
 MZN1 BZ EPg  0   1418 16.5                                      0.5    169 292
 JASK BZ EPn  0   1418 25.0                                     -0.1    241 138
 KBAM BZ EPn  0   1418 30.7                                      0.3    283  49
 CHMN BZ EPn  0   1418 31.6                                     -0.3    292  25
 KHGB BN EPn  0   1418 35.5                                      0.3    321   4
 MZN1 BE ESg  0   1418 37.4                                      0.0    169 292
 KSHD BE EPn  0   1418 37.6                                      0.1    340  21
 KANR BZ EPn  0   1418 43.4                                     -0.5    391 348

 2021 1029 0526  4.0 L  27.151  56.206  6.0  Teh  8 0.4 2.8LTeh                1
 GAP=212                                                                       E
 Iranian Seismological Center, Institute of Geophysics, University of Tehran   6
 STAT SP IPHASW D HRMM SECON CODA AMPLIT PERI AZIMU VELO SNR AR TRES  W DIS CAZ7
 MEH  SZ E    0   0527 19.33       204.5 0.24                           494 342
 CHMN BZ E    0   0527 45.70       555.6 0.56                           327  23
 KBAM BZ E    0   0527 42.80       816.6  0.4                           311  45
 JASK BZ E    0   0527 23.20      3641.3 0.32                           218 130
 KHGB BZ E    0   0527 45.98       456.9 0.68                           358   4
 BNDS BZ ESg  0   0526 14.3                                      0.0   28.0 353
 KANR BZ E    0   0528 18.36       279.2  0.6                           427 350
 JASK BZ EPn  0   0526 39.9                                     -0.6    218 130
 KBAM BZ EPn  0   0526 52.8                                      0.6    311  45
 CHMN BZ EPn  0   0526 54.4                                     -0.1    327  23
 KHGB BZ EPn  0   0526 58.9                                      0.7    358   4
 KANR BZ EPn  0   0527 6.4                                      -0.2    427 350
 MEH  SZ EPn  0   0527 15.3                                      0.3    494 342

 2021 1029 0555 26.4 L  27.187  56.267 13.3  Teh  5 0.3 2.7LTeh                1
 GAP=206                                                                       E
 Iranian Seismological Center, Institute of Geophysics, University of Tehran   6
 STAT SP IPHASW D HRMM SECON CODA AMPLIT PERI AZIMU VELO SNR AR TRES  W DIS CAZ7
 KBAM BZ E    0   0557  7.80       200.3 0.36                           304  44
 JASK BZ E    0   0556 13.72       755.9 0.28                           216 132
 CHMN BN E    0   0556 59.82       170.5 0.36                           321  23
 BNDS BZ EPg  0   0555 32.6                                      0.1   25.0 338
 BNB  BZ EPg  0   0555 34.4                                     -0.1   40.0  43
 JASK BZ EPn  0   0556 1.8                                      -0.1    216 132
 KBAM BZ EPn  0   0556 13.4                                      0.4    304  44
 CHMN BN EPn  0   0556 15.1                                     -0.4    321  23

 2021 1114 1207  4.4 L  27.568  56.084 19.5  Teh 88 0.4 6.2LTeh                1
 GAP=88                                                                        E
 Iranian Seismological Center, Institute of Geophysics, University of Tehran   6
 STAT SP IPHASW D HRMM SECON CODA AMPLIT PERI AZIMU VELO SNR AR TRES  W DIS CAZ7
 MZN1 BE E    0   1208  2.84     1879170 0.72                           151 291
 CHMN BZ E    0   1208 51.06    738194.0 0.84                           291  29
 JASK BZ E    0   1208 36.56     2150480  1.2                           259 136
 JHRM BZ E    0   1208 48.30    776704.0 0.52                           267 293
 CHBR BZ E    0   1208 49.34       -99.0 0.84                           489 116
 KBAM BZ E    0   1208 35.68     1509310 0.92                           290  53
 BNDS BZ EPg  0   1207 9.2                                      -0.3   21.0 155
 LMD1 BE E    0   1208 55.84     1550830    1                           290 266
 KHGB BZ E    0   1208 19.42    384782.0 0.64                           313   7
 BAF  SZ E    0   1209 43.29    120991.0 0.72                           448 354
 MZN1 BE EPg  0   1207 29.9                                     -0.1    151 291
 MON  SZ E    0   1209 16.68       -99.0 0.84                           712  28
 JASK BZ EPn  0   1207 43.8                                      0.4    259 136
 JHRM BZ EPn  0   1207 44.7                                      0.2    267 293
 LMD1 BE EPn  0   1207 47.1                                     -0.1    290 266
 KBAM BZ EPn  0   1207 47.6                                      0.3    290  53
 UOSS BZ EPn  0   1207 47.9                                      0.5    291 178
 CHMN BZ EPn  0   1207 48.0                                      0.3    291  29
 MZN1 BE ESg  0   1207 49.9                                      0.6    151 291
 KSHB BZ EPn  0   1207 50.0                                     -0.1    311 343
 KHGB BZ EPn  0   1207 50.9                                      0.6    313   7
 KANR BE EPn  4   1207 59.3                                      0.8    379 350
 BAZ1 BZ EPn  0   1208 1.6                                      -0.1    406  85
 SHI  BZ EPn  0   1208 2.7                                      -0.7    417 304
 BAF  SZ EPn  0   1208 6.6                                      -0.5    448 354
 HOQ  BZ EPn  4   1208 7.0                                      -1.1    458 164
 KRVR BZ EPn  4   1208 7.9                                      -0.6    459   9
 KAZ2 SN EPn  4   1208 11.3                                     -0.7    488 299
 CHBR BZ EPn  0   1208 11.5                                     -0.8    489 116
 TAFT BZ EPn  0   1208 13.3                                      0.2    496 339
 NGCH BZ EPn  0   1208 20.5                                     -0.2    560 115
 BSRN BZ EPn  4   1208 21.6                                     -1.1    572  30
 NHDN BZ EPn  4   1208 22.4                                     -0.0    572  41
 KLNJ BN EPn  0   1208 22.8                                     -0.7    579 312
 TPRV BZ EPn  4   1208 26.4                                     -0.4    608   5
 WBK  BZ EPn  0   1208 28.5                                      0.1    621 151
 SRVN BZ EPn  0   1208 29.2                                      0.4    624  90
 ANAR BZ EPn  4   1208 33.0                                     -0.7    663 341
 GAR  SZ EPn  4   1208 33.0                                     -0.7    663 325
 TKDS BZ EPn  4   1208 34.6                                     -1.4    677   8
 BRJ  SZ EPn  0   1208 34.7                                      0.0    670 317
 TSHB BZ EPn  4   1208 34.7                                     -1.0    680   3
 ZEF  SZ EPn  4   1208 35.6                                     -1.8    692 329
 AFRZ BZ EPn  4   1208 38.6                                     -0.6    707  23
 TNSJ BZ EPn  4   1208 38.7                                     -1.1    711   4
 MON  SE EPn  4   1208 38.9                                      0.0    0.0   0
 ZNGN BZ EPn  4   1208 40.2                                      0.1    714 316
 JHBN BZ EPn  4   1208 41.4                                      0.0    0.0   0
 PIR  SZ EPn  4   1208 43.7                                      0.0    0.0   0
 KLH  SZ EPn  4   1208 45.2                                      0.0    0.0   0
 KKHK BZ EPn  4   1208 46.5                                     -0.2    768  18
 SHRT BZ EPn  4   1208 48.3                                      0.0    0.0   0
 TAPT BZ EPn  4   1208 51.8                                     -1.0    817   7
 SFB  BE EPn  4   1208 54.3                                      0.0    0.0   0
 ANJ  SZ EPn  4   1209 2.2                                      -1.1    900 347
 VRN  BZ EPn  4   1209 3.4                                      -2.3    922 334
 LAS  SZ EPn  4   1209 4.2                                       0.0    0.0   0
 QOM  SZ EPn  4   1209 5.4                                       0.0    0.0   0
 TBHD SN EPn  4   1209 5.5                                       0.3    920  18
 FIR  BE EPn  4   1209 7.8                                       0.0    0.0   0
 TBJM BZ EPn  4   1209 8.2                                      -0.7    944  24
 DMV  SZ EPn  4   1209 9.8                                       0.0    0.0   0
 MOG  SZ EPn  4   1209 15.0                                      0.0    0.0   0
 JRKH BZ EPn  4   1209 16.7                                      0.0    0.0   0
 GLO  SZ EPn  4   1209 17.0                                      0.0    0.0   0
 PAY  SZ EPn  4   1209 18.5                                      0.0    0.0   0
 PRN  SZ EPn  4   1209 18.7                                      0.0    0.0   0
 AKL  SZ EPn  4   1209 19.4                                      0.0    0.0   0
 HNVD BZ EPn  4   1209 19.6                                      0.0    0.0   0
 MYA  SZ EPn  4   1209 21.2                                      0.0    0.0   0
 SFR  SZ EPn  4   1209 23.1                                      0.0    0.0   0
 MND  BZ EPn  4   1209 23.3                                      0.0    0.0   0
 BZA  BN EPn  4   1209 23.8                                      0.0    0.0   0
 QABG BZ EPn  4   1209 24.4                                      0.0    0.0   0
 KKOM BZ EPn  4   1209 24.4                                      0.0    0.0   0
 QUCH BZ EPn  4   1209 24.6                                      0.0    0.0   0
 MZPU BZ EPn  4   1209 24.6                                      0.0    0.0   0
 KRD  SZ EPn  4   1209 24.7                                      0.0    0.0   0
 SRKH BZ EPn  4   1209 28.5                                      0.5   1102  24
 EMG  SZ EPn  4   1209 29.0                                      0.0    0.0   0
 SNQR BZ EPn  4   1209 29.1                                      0.0    0.0   0
 GZV  SZ EPn  4   1209 29.3                                      0.0    0.0   0
 KCHF BE EPn  4   1209 29.4                                      0.0    0.0   0
 RAYN BZ EPn  4   1209 30.2                                      0.0    0.0   0
 MRVT BZ EPn  4   1209 30.3                                      0.0    0.0   0
 ILBA BZ EPn  4   1209 30.7                                      0.0    0.0   0
 QSDN BZ EPn  4   1209 36.3                                      0.0    0.0   0
 GIDE BZ EPn  4   1209 37.7                                      0.0    0.0   0
 SNJK BZ EPn  4   1209 39.5                                      0.0    0.0   0
 SAQZ BZ EPn  4   1209 53.3                                      0.0    0.0   0
 HSH  SZ EPn  4   1209 56.0                                      0.0    0.0   0
 GAS1 BZ EPn  4   1209 59.9                                      0.0    0.0   0
 SRB  SZ EPn  4   1210 0.4                                      -3.0   1383 327
 MAHB BZ EPn  4   1210 2.2                                       0.0    0.0   0
 HRS  SZ EPn  4   1210 9.3                                       0.0    0.0   0
 AZR  SZ EPn  4   1210 10.9                                      0.0    0.0   0
 SHB  SZ EPn  4   1210 20.5                                      0.0    0.0   0
 MRD  BE EPn  4   1210 25.0                                      0.0    0.0   0
 MAKU BZ EPn  4   1210 36.5                                      0.0    0.0   0

 2021 1114 1208 38.1 L  27.536  56.174 10.0  Teh 16 0.3 6.3LTeh                1
 GAP=130                                                                       E
 Iranian Seismological Center, Institute of Geophysics, University of Tehran   6
 STAT SP IPHASW D HRMM SECON CODA AMPLIT PERI AZIMU VELO SNR AR TRES  W DIS CAZ7
 BAZ1 BZ E    0   1210 38.78    430203.0 1.04                           397  84
 CHMN BZ E    0   1210 13.72    908430.0 1.04                           290  27
 KSHB BZ E    0   1210 19.14     1155490 1.16                           317 341
 KBAM BZ E    0   1210  4.68     1187520 1.04                           285  51
 KRVR BZ E    0   1211  2.72       -99.0  1.2                           461   8
 KHGB BZ E    0   1210 24.86    674613.0 0.72                           316   5
 BAF  SZ E    0   1211  2.56    251508.0  0.8                           453 353
 KANR BZ E    0   1210 34.94    461371.0 0.88                           385 349
 LMD1 BZ E    0   1210 34.52     1813940    1                           298 267
 SHI  BZ E    0   1211 12.98    470248.0 1.24                           426 304
 RAM  SZ E    0   1211 48.60    234214.0 1.04                           599 323
 SRVN BZ E    0   1210 35.76    127742.0 1.08                           615  90
 TAFT BZ E    0   1210 50.78    283574.0 0.96                           503 338
 NGCH BZ E    0   1210 41.18    323623.0 1.12                           550 115
 BNDS BZ EPg  0   1208 41.5                                     -0.1   15.0 181
 MZN1 BE EPg  0   1209 6.3                                       0.5    161 291
 KBAM BZ EPn  0   1209 22.0                                      0.2    285  51
 CHMN BZ EPn  0   1209 22.3                                     -0.3    290  27
 MZN1 BE ESg  0   1209 26.5                                     -0.3    161 291

 2021 1114 1240 52.6 L  27.550  56.211 19.2  Teh 14 0.3 4.2LTeh                1
 GAP=98                                                                        E
 Iranian Seismological Center, Institute of Geophysics, University of Tehran   6
 STAT SP IPHASW D HRMM SECON CODA AMPLIT PERI AZIMU VELO SNR AR TRES  W DIS CAZ7
 JASK BZ E    0   1242 12.38     14013.6 0.92                           249 138
 KHGB BE E    0   1242 31.02      5241.6 0.44                           314   5
 KBAM BZ E    0   1241 36.32     10974.6 0.24                           281  51
 KSHB BZ E    0   1242 36.32      6107.6 0.72                           317 341
 MZN1 BE E    0   1241 50.48     32693.1 0.84                           164 291
 LMD1 BZ E    0   1242 45.40     13601.9 0.56                           302 266
 CHMN BZ E    0   1241 49.52      4666.5  0.4                           287  27
 KRVR BZ E    0   1243 16.92       -99.0 0.88                           459   8
 NHDN BZ E    0   1243 34.52      2786.6  0.8                           565  40
 JHRM BZ E    0   1242 34.06     19503.5 0.48                           280 293
 BAZ1 BZ E    0   1242  0.10      2925.1 0.52                           393  84
 BNDS BZ EPg  0   1240 57.3                                      0.0   17.0 193
 NGCH BZ E    0   1242  9.00      3240.8 0.32                           548 115
 KBAM BZ EPn  0   1241 34.7                                      0.1    281  51
 CHMN BZ EPn  0   1241 35.8                                      0.3    287  27
 MZN1 BE ESg  0   1241 41.1                                     -0.1    164 291
 BAZ1 BZ EPn  0   1241 47.9                                     -0.6    393  84
 BAF  SZ EPn  0   1241 55.7                                     -0.1    452 352
 NGCH BZ EPn  0   1242 7.7                                       0.3    548 115

