 2021 1116 1933 45.9 L  27.609  56.062  9.0  SC3 10 0.4 3.2LSC3                1
 GAP=109        0.00       2.9     2.9  4.7                                    E
 2021-11-16-1933-45.BIN__085                                                   6
 ACTION:NEW 21-11-17 05:45 OP:SEIS STATUS:               ID:20211116193345     I
 STAT SP IPHASW D HRMM SECON CODA AMPLIT PERI AZIMU VELO AIN AR TRES W  DIS CAZ7
 BNDS BZ EPg  0   1933 50.67                                    -0.2     26 155 
 JSSH BZ EPn  0   1934 22.77                                     0.1    230 145 
 KRBR BZ EPn  4   1934 25.23                                    -3.0    272  15 
 LMD1 BZ EPn  0   1934 29.53                                    -0.4    288 264 
 GHIR BZ EPn  0   1934 33.92                                     0.9    312 284 
 YZKH BZ EPn  0   1935  3.00                                     0.4    549 345 
 KLNJ BZ EPn  0   1935  5.37                                    -0.5    575 311 
 SRVN BZ EPn  0   1935 11.91                                    -0.2    626  92 
 NASN BZ EPn  0   1935 16.20                                     0.4    655 331 
 GTMR BZ EPn  0   1935 40.70                                    -0.3    860 309 
 BNDS BZ  IAML    1933 50.67       2e+01 1.00                            26 155 
 JSSH BZ  IAML    1934 22.77         0.3 1.00                           230 145 
 LMD1 BZ  IAML    1934 29.53         0.4 1.00                           288 264 
 YZKH BZ  IAML    1935  3.00        0.02 1.00                           549 345 
 KLNJ BZ  IAML    1935  5.37        0.03 1.00                           575 311 
 SRVN BZ  IAML    1935 11.91        0.01 1.00                           626  92 
 NASN BZ  IAML    1935 16.20        0.01 1.00                           655 331 
                                                                                
 2021 1117 0159 40.0 L  27.675  56.173 12.0  SC3 11 0.5 3.7LSC3                1
 GAP=109        0.00       4.0     4.0  6.0                                    E
 2021-11-17-0159-40.BIN__078                                                   6
 ACTION:NEW 21-11-17 05:40 OP:SEIS STATUS:               ID:20211117015940     I
 STAT SP IPHASW D HRMM SECON CODA AMPLIT PERI AZIMU VELO AIN AR TRES W  DIS CAZ7
 BNDS BZ EPg  0   0159 46.09                                     0.1     31 180 
 JSSH BZ EPn  0   0200 16.18                                    -0.3    230 148 
 KRBR BZ EPn  4   0200 17.53                                    -3.3    262  13 
 LMD1 BZ EPn  0   0200 25.75                                     0.6    300 263 
 GHIR BZ EPn  0   0200 27.28                                    -0.6    321 282 
 YZKH BZ EPn  0   0200 56.79                                     1.0    544 344 
 KLNJ BZ EPn  0   0200 59.84                                    -0.2    578 310 
 SRVN BZ EPn  0   0201  4.73                                     0.2    616  93 
 GTMR BZ EPn  4   0201 33.94                                    -1.3    864 308 
 KHMZ BZ EPn  0   0201 38.75                                    -0.9    898 319 
 ILBA BZ EPn  4   0202  9.46                                    -2.7   1161 305 
 JSSH BZ  IAML    0200 16.18           1 1.00                           230 148 
 YZKH BZ  IAML    0200 56.79        0.07 1.00                           544 344 
 KLNJ BZ  IAML    0200 59.84        0.09 1.00                           578 310 
                                                                                
 2021 1117 0251 33.8 L  27.638  56.120  9.0  SC3  9 0.2 3.3LSC3                1
 GAP=162        0.00       2.1     2.1  2.2                                    E
 2021-11-17-0251-33.BIN__094                                                   6
 ACTION:NEW 21-11-17 06:51 OP:SEIS STATUS:               ID:20211117025133     I
 STAT SP IPHASW D HRMM SECON CODA AMPLIT PERI AZIMU VELO AIN AR TRES W  DIS CAZ7
 BNDS BZ EPg  0   0251 38.91                                    -0.0     27 169 
 JSSH BZ EPn  0   0252 10.41                                    -0.0    229 147 
 KRBR BZ EPn  4   0252 12.30                                    -3.2    267  14 
 LMD1 BZ EPn  0   0252 18.71                                     0.2    294 264 
 GHIR BZ EPn  0   0252 21.14                                    -0.3    317 283 
 YZKH BZ EPn  0   0252 50.46                                     0.2    547 344 
 KLNJ BZ EPn  0   0252 53.10                                    -0.9    577 310 
 GTMR BZ EPn  4   0253 27.28                                    -1.9    862 308 
 KHMZ BZ EPn  0   0253 33.05                                    -0.7    898 319 
 BNDS BZ  IAML    0251 38.91       2e+01 1.00                            27 169 
 JSSH BZ  IAML    0252 10.41         0.2 1.00                           229 147 
 LMD1 BZ  IAML    0252 18.71         0.3 1.00                           294 264 
 YZKH BZ  IAML    0252 50.46        0.04 1.00                           547 344 
                                                                                
 2021 1117 0855  9.6 L  27.667  56.200 12.0  SC3  6 0.2 3.5LSC3                1
 GAP=202        0.00      16.3    16.3 27.6                                    E
 2021-11-17-0855-09.BIN__087                                                   6
 ACTION:NEW 21-11-20 10:03 OP:SEIS STATUS:               ID:20211117085509     I
 STAT SP IPHASW D HRMM SECON CODA AMPLIT PERI AZIMU VELO AIN AR TRES W  DIS CAZ7
 BNDS BZ EPg  0   0855 15.34                                    -0.1     30 185 
 KRBR BZ EPn  4   0855 46.93                                    -3.5    262  12 
 GHIR BZ EPn  0   0855 58.06                                     0.3    324 282 
 YZKH BZ EPn  0   0856 25.75                                     0.2    546 343 
 KLNJ BZ EPn  0   0856 29.48                                    -0.5    581 310 
 NASN BZ EPn  0   0856 39.40                                     0.1    656 330 
 BNDS BZ  IAML    0855 15.34       3e+01 1.00                            30 185 
 YZKH BZ  IAML    0856 25.75        0.05 1.00                           546 343 
 NASN BZ  IAML    0856 39.40        0.03 1.00                           656 330 
                                                                                
 2021 1117 1201 17.3 L  27.544  56.114  9.0  SC3 10 0.1 3.2LSC3                1
 GAP=124        0.00       0.8     0.8  1.0                                    E
 2021-11-17-1201-17.BIN__087                                                   6
 ACTION:NEW 21-11-20 10:09 OP:SEIS STATUS:               ID:20211117120117     I
 STAT SP IPHASW D HRMM SECON CODA AMPLIT PERI AZIMU VELO AIN AR TRES W  DIS CAZ7
 BNDS BZ EPg  0   1201 20.88                                    -0.1     17 161 
 JSSH BZ EPn  0   1201 52.93                                    -0.1    221 145 
 KRBR BZ EPn  4   1201 55.29                                    -5.0    278  13 
 GHIR BZ EPn  0   1202  5.28                                     0.0    319 285 
 YZKH BZ EPn  0   1202 34.81                                    -0.2    557 345 
 BSRN BZ EPn  4   1202 43.04                                     6.5    570  31 
 KLNJ BZ EPn  0   1202 38.50                                     0.1    584 311 
 SRVN BZ EPn  0   1202 42.96                                     0.1    621  91 
 NASN BZ EPn  0   1202 47.52                                    -0.8    664 331 
 TABS BZ EPn  0   1202 50.64                                     0.1    684   8 
 JSSH BZ  IAML    1201 52.93         0.2 1.00                           221 145 
 YZKH BZ  IAML    1202 34.81        0.02 1.00                           557 345 
 KLNJ BZ  IAML    1202 38.50        0.03 1.00                           584 311 
 SRVN BZ  IAML    1202 42.96        0.01 1.00                           621  91 
 NASN BZ  IAML    1202 47.52        0.01 1.00                           664 331 
                                                                                
 2021 1117 1342 22.1 L  27.706  56.303 12.0  SC3  7 0.3 3.4LSC3                1
 GAP=169        0.00       4.6     4.6  5.5                                    E
 2021-11-17-1342-22.BIN__087                                                   6
 ACTION:NEW 21-11-21 07:53 OP:SEIS STATUS:               ID:20211117134222     I
 STAT SP IPHASW D HRMM SECON CODA AMPLIT PERI AZIMU VELO AIN AR TRES W  DIS CAZ7
 BNDS BZ EPg  0   1342 28.92                                     0.0     36 201 
 JSSH BZ EPn  0   1342 57.90                                    -0.1    226 152 
 KRBR BZ EPn  4   1342 58.83                                    -3.3    256  10 
 GHIR BZ EPn  0   1343 11.66                                     0.3    332 281 
 YZKH BZ EPn  0   1343 38.20                                     0.3    545 342 
 KLNJ BZ EPn  0   1343 41.72                                    -1.3    586 309 
 NASN BZ EPn  0   1343 51.30                                    -0.6    657 329 
 BNDS BZ  IAML    1342 28.92       2e+01 1.00                            36 201 
 JSSH BZ  IAML    1342 57.90         0.4 1.00                           226 152 
 YZKH BZ  IAML    1343 38.20        0.05 1.00                           545 342 
 NASN BZ  IAML    1343 51.30        0.02 1.00                           657 329 
                                                                                
 2021 1117 1837 18.2 L  27.640  56.152  8.0  SC3 13 0.4 3.6LSC3                1
 GAP= 88        0.00       2.1     2.1  4.0                                    E
 2021-11-17-1837-18.BIN__087                                                   6
 ACTION:NEW 21-11-22 06:00 OP:SEIS STATUS:               ID:20211117183718     I
 STAT SP IPHASW D HRMM SECON CODA AMPLIT PERI AZIMU VELO AIN AR TRES W  DIS CAZ7
 BNDS BZ EPg  0   1837 23.42                                     0.1     27 176 
 JSSH BZ EPn  0   1837 54.46                                    -0.3    228 147 
 KRBR BZ EPn  4   1837 56.04                                    -3.9    266  13 
 LMD1 BZ EPn  0   1838  4.26                                     0.8    297 264 
 GHIR BZ EPn  0   1838  6.17                                    -0.2    320 283 
 YZKH BZ EPn  0   1838 35.16                                     0.3    548 344 
 SRVN BZ EPn  0   1838 43.37                                    -0.0    618  92 
 NASN BZ EPn  0   1838 48.08                                    -0.3    656 331 
 TABS BZ EPn  0   1838 50.25                                     0.1    673   8 
 SHRT BZ EPn  0   1839  3.79                                     0.9    775  31 
 GTMR BZ EPn  0   1839 12.83                                    -1.1    865 308 
 KHMZ BZ EPn  0   1839 17.74                                    -0.7    899 319 
 ASAO BZ EPn  0   1839 26.92                                     0.4    964 323 
 BNDS BZ  IAML    1837 23.42       4e+01 1.00                            27 176 
 JSSH BZ  IAML    1837 54.46         0.5 1.00                           228 147 
 LMD1 BZ  IAML    1838  4.26           1 1.00                           297 264 
 YZKH BZ  IAML    1838 35.16        0.04 1.00                           548 344 
 SRVN BZ  IAML    1838 43.37        0.03 1.00                           618  92 
 NASN BZ  IAML    1838 48.08        0.03 1.00                           656 331 
 TABS BZ  IAML    1838 50.25        0.06 1.00                           673   8 
 SHRT BZ  IAML    1839  3.79        0.02 1.00                           775  31 
                                                                                
 2021 1117 1929 37.2 L  27.559  56.081 12.0  SC3 13 0.3 3.7LSC3                1
 GAP=131        0.00       1.7     1.7  1.9                                    E
 2021-11-17-1929-37.BIN__087                                                   6
 ACTION:NEW 21-11-22 05:15 OP:SEIS STATUS:               ID:20211117192937     I
 STAT SP IPHASW D HRMM SECON CODA AMPLIT PERI AZIMU VELO AIN AR TRES W  DIS CAZ7
 BNDS BZ EPg  0   1929 41.54                                     0.1     20 153 
 JSSH BZ EPn  0   1930 12.93                                     0.0    224 145 
 KRBR BZ EPn  4   1930 15.80                                    -4.0    277  14 
 GHIR BZ EPn  0   1930 24.71                                     0.4    315 285 
 YZKH BZ EPn  0   1930 54.69                                     0.5    554 345 
 SRVN BZ EPn  0   1931  2.69                                    -0.1    624  92 
 NASN BZ EPn  0   1931  7.14                                    -0.3    661 332 
 TABS BZ EPn  0   1931 10.17                                     0.2    682   8 
 SHRT BZ EPn  0   1931 22.84                                     0.0    786  31 
 GTMR BZ EPn  0   1931 31.59                                    -1.0    865 309 
 KHMZ BZ EPn  0   1931 36.83                                    -0.5    902 319 
 ASAO BZ EPn  0   1931 45.59                                     0.2    967 323 
 ILBA BZ EPn  4   1932  7.91                                    -1.5   1161 305 
 BNDS BZ  IAML    1929 41.54       7e+01 1.00                            20 153 
 JSSH BZ  IAML    1930 12.93           1 1.00                           224 145 
 YZKH BZ  IAML    1930 54.69        0.08 1.00                           554 345 
 SRVN BZ  IAML    1931  2.69        0.03 1.00                           624  92 
 NASN BZ  IAML    1931  7.14        0.03 1.00                           661 332 
 TABS BZ  IAML    1931 10.17        0.06 1.00                           682   8 
 SHRT BZ  IAML    1931 22.84        0.03 1.00                           786  31 
                                                                                
 2021 1117 2108 35.4 L  27.601  56.190  7.0  SC3 10 0.5 3.2LSC3                1
 GAP= 80        0.00       3.3     3.3  6.7                                    E
 2021-11-17-2108-35.BIN__087                                                   6
 ACTION:NEW 22-01-02 08:53 OP:SEIS STATUS:               ID:20211117210835     I
 STAT SP IPHASW D HRMM SECON CODA AMPLIT PERI AZIMU VELO AIN AR TRES W  DIS CAZ7
 BNDS BZ EPg  0   2108 39.76                                    -0.0     22 185 
 JSSH BZ EPn  0   2109 11.76                                     0.3    222 148 
 KRBR BZ EPn  4   2109 13.97                                    -3.7    270  12 
 LMD1 BZ EPn  0   2109 20.63                                    -0.6    300 264 
 GHIR BZ EPn  0   2109 25.05                                     0.8    324 284 
 ZHSF BZ EPn  4   2109 26.89                                   -19.3    500  64 
 YZKH BZ EPn  0   2109 52.83                                     0.0    553 344 
 BSRN BZ EPn  0   2109 54.25                                     0.6    561  30 
 SRVN BZ EPn  0   2109 59.94                                    -0.3    614  92 
 NASN BZ EPn  0   2110  5.60                                    -0.8    662 331 
 BNDS BZ  IAML    2108 39.76       3e+01 1.00                            22 185 
 JSSH BZ  IAML    2109 11.76         0.3 1.00                           222 148 
 LMD1 BZ  IAML    2109 20.63         0.4 1.00                           300 264 
 YZKH BZ  IAML    2109 52.83        0.02 1.00                           553 344 
 BSRN BZ  IAML    2109 54.25        0.02 1.00                           561  30 
 SRVN BZ  IAML    2109 59.94        0.01 1.00                           614  92 
 NASN BZ  IAML    2110  5.60        0.01 1.00                           662 331 
                                                                                
 2021 1117 2131 57.2 L  27.657  56.323 12.0  SC3 12 0.4 3.4LSC3                1
 GAP= 63        0.00       2.5     2.5  4.4                                    E
 2021-11-17-2131-57.BIN__087                                                   6
 ACTION:NEW 22-01-02 09:06 OP:SEIS STATUS:               ID:20211117213157     I
 STAT SP IPHASW D HRMM SECON CODA AMPLIT PERI AZIMU VELO AIN AR TRES W  DIS CAZ7
 BNDS BZ EPg  0   2132  3.31                                    -0.0     32 208 
 JSSH BZ EPn  0   2132 32.93                                     0.5    221 151 
 KRBR BZ EPn  4   2132 34.38                                    -3.4    261   9 
 LMD1 BZ EPn  0   2132 43.16                                    -0.9    314 264 
 GHIR BZ EPn  0   2132 47.22                                     0.4    336 282 
 ZHSF BZ EPn  4   2132 49.15                                   -16.4    486  64 
 BSRN BZ EPn  0   2133 13.39                                    -0.0    549  30 
 YZKH BZ EPn  0   2133 14.45                                     0.7    551 342 
 SRVN BZ EPn  0   2133 19.54                                    -0.3    601  93 
 NASN BZ EPn  0   2133 27.55                                    -0.1    663 329 
 TABS BZ EPn  0   2133 28.04                                    -0.2    669   7 
 GTMR BZ EPn  4   2133 51.39                                    -2.6    876 308 
 BNDS BZ  IAML    2132  3.31       1e+01 1.00                            32 208 
 BSRN BZ  IAML    2133 13.39        0.03 1.00                           549  30 
 YZKH BZ  IAML    2133 14.45        0.05 1.00                           551 342 
 NASN BZ  IAML    2133 27.55        0.02 1.00                           663 329 
                                                                                
 2021 1117 2320 26.2 L  27.643  56.234 10.0  SC3  7 0.6 3.0LSC3                1
 GAP=109        0.00       3.0     3.0  5.5                                    E
 2021-11-17-2320-26.BIN__087                                                   6
 ACTION:NEW 22-01-04 05:44 OP:SEIS STATUS:               ID:20211117232026     I
 STAT SP IPHASW D HRMM SECON CODA AMPLIT PERI AZIMU VELO AIN AR TRES W  DIS CAZ7
 BNDS BZ EPg  0   2320 30.32                                    -1.3     28 193 
 JSSH BZ EPn  0   2321  2.37                                     0.3    224 149 
 KRBR BZ EPn  4   2321  3.14                                    -4.3    264  11 
 GHIR BZ EPn  0   2321 15.77                                     0.6    327 283 
 YZKH BZ EPn  0   2321 42.65                                    -0.2    550 343 
 SRVN BZ EPn  0   2321 50.38                                     0.2    610  92 
 NASN BZ EPn  0   2321 55.85                                    -0.8    660 330 
 BNDS BZ  IAML    2320 30.32       1e+01 1.00                            28 193 
 YZKH BZ  IAML    2321 42.65        0.01 1.00                           550 343 
 SRVN BZ  IAML    2321 50.38        0.01 1.00                           610  92 
                                                                                
