 2021 1114 1801 11.7 L  27.568  56.140  8.0  Teh 14 0.3 3.5LTeh                1
 GAP=113                                                                       E
 Iranian Seismological Center, Institute of Geophysics, University of Tehran   6
 STAT SP IPHASW D HRMM SECON CODA AMPLIT PERI AZIMU VELO SNR AR TRES  W DIS CAZ7
 MZN1 BZ E    0   1802  4.72      6717.5  0.6                           156 291
 BNDS BZ EPg  0   1801 16.2                                     -0.4   19.0 171
 KSHB BZ E    0   1803  8.20      1364.1 0.68                           312 342
 CHMN BZ E    0   1802  9.60      1010.8 0.64                           288  28
 BAF  SZ E    0   1802 34.39       369.3 0.32                           449 353
 KBAM BZ E    0   1802 41.24      1123.7  0.6                           285  52
 JASK BZ E    0   1802 56.32      4622.8 1.04                           255 137
 MZN1 BZ EPg  0   1801 39.4                                      0.1    156 291
 KANR BZ E    0   1803 12.98       923.5 0.68                           380 349
 TAFT BZ E    0   1803 19.34       573.4 0.56                           498 338
 UOSS BZ EPn  0   1801 57.1                                      0.2    290 179
 KBAM BZ EPn  0   1801 57.1                                      0.6    285  52
 CHMN BZ EPn  0   1801 57.5                                      0.2    288  28
 MZN1 BZ ESg  0   1801 59.7                                      0.2    156 291
 KANR BZ EPn  0   1802 8.2                                      -0.2    380 349
 BAF  SZ EPn  0   1802 16.8                                     -0.1    449 353
 HOQ  BZ EPn  0   1802 17.9                                      0.4    457 165
 TAFT BZ EPn  0   1802 23.4                                      0.4    498 338
 KLNJ BN EPn  0   1802 33.7                                     -0.1    583 312
 ZNGN BZ EPn  0   1802 50.3                                      0.1    717 316
 JHBN BN EPn  4   1802 52.5                                     -0.4    739 316

 2021 1114 1818 38.6 L  27.578  56.162 20.0  Teh 16 0.4 3.6LTeh                1
 GAP=111                                                                       E
 Iranian Seismological Center, Institute of Geophysics, University of Tehran   6
 STAT SP IPHASW D HRMM SECON CODA AMPLIT PERI AZIMU VELO SNR AR TRES  W DIS CAZ7
 CHMN BZ E    0   1820  1.02      1896.6  0.6                           286  28
 MZN1 BE E    0   1819 52.78      7478.7 0.76                           158 290
 KBAM BZ E    0   1819 21.98      3583.1 0.36                           283  52
 KSHB BZ E    0   1820 10.46      1527.7  0.8                           312 341
 JASK BZ E    0   1820 18.30      4968.7 0.64                           254 138
 KANR BZ E    0   1820 33.52      1065.5 0.64                           380 349
 BNDS BZ EPg  0   1818 43.9                                      0.6   20.0 178
 TAFT BZ E    0   1820 11.32       462.3 0.52                           498 338
 MZN1 BE EPg  0   1819 5.4                                       0.7    158 290
 BAF  SZ E    0   1820  5.24       428.4 0.36                           448 353
 KBAM BZ EPn  0   1819 20.5                                      0.1    283  52
 CHMN BN EPn  0   1819 21.3                                      0.2    286  28
 UOSS BZ EPn  0   1819 22.1                                      0.7    292 179
 KSHB BZ EPn  0   1819 24.5                                      0.3    312 341
 KANR BZ EPn  0   1819 32.6                                      0.1    380 349
 BAF  SN EPn  0   1819 40.5                                     -0.4    448 353
 HOQ  BZ EPn  0   1819 41.1                                     -0.8    457 165
 TAFT BZ EPn  0   1819 47.3                                      0.1    498 338
 NGCH BZ EPn  0   1819 54.0                                      0.2    553 115
 NHDN BZ EPn  0   1819 55.4                                     -0.1    566  41
 WBK  BZ EPn  0   1820 2.0                                       0.1    618 152
 SRVN BZ EPn  0   1820 2.2                                       0.4    616  90
 JHBN BN EPn  0   1820 17.4                                      0.1    740 316

 2021 1114 1838 16.5 L  27.628  56.255  9.4  Teh 16 0.2 3.3LTeh                1
 GAP=90                                                                        E
 Iranian Seismological Center, Institute of Geophysics, University of Tehran   6
 STAT SP IPHASW D HRMM SECON CODA AMPLIT PERI AZIMU VELO SNR AR TRES  W DIS CAZ7
 MZN1 BE E    0   1839 10.48      6237.9 0.64                           165 287
 KANR BZ E    0   1840 18.36       595.1 0.72                           376 348
 BNDS BZ EPg  0   1838 21.7                                     -0.1   27.0 198
 CHMN BZ E    0   1839 44.16       841.0  0.8                           277  27
 KBAM BZ E    0   1839 43.94      1501.6 0.76                           272  52
 BAF  SZ E    0   1840 31.99       358.6 0.84                           444 352
 JASK BZ E    0   1839 45.56      2732.4  0.8                           252 140
 KSHB BZ E    0   1840  4.86      1097.9 0.68                           310 339
 MZN1 BZ EPg  0   1838 45.3                                      0.3    165 287
 KLNJ BZ E    0   1839 44.32       223.9 0.48                           587 311
 KBAM BZ EPn  0   1838 58.8                                      0.1    272  52
 CHMN BZ EPn  0   1838 59.7                                      0.2    277  27
 UOSS BZ EPn  0   1839 1.7                                       0.0    297 181
 MZN1 BE ESg  0   1839 6.2                                       0.0    165 287
 KANR BE EPn  0   1839 11.8                                      0.1    376 348
 BAF  SN EPn  0   1839 19.5                                     -0.6    444 352
 TAFT BZ EPn  0   1839 26.5                                     -0.2    496 337
 NHDN BZ EPn  0   1839 34.0                                      0.0    556  40
 KLNJ BZ EPn  0   1839 38.0                                     -0.0    587 311
 SRVN BZ EPn  0   1839 40.2                                     -0.1    607  91
 ANAR BZ EPn  4   1839 46.7                                     -0.5    662 339
 ZNGN BN EPn  0   1839 55.0                                      0.5    721 315
 KLH  SZ EPn  0   1840 1.2                                       0.0    774 326

 2021 1114 1846 38.3 L  27.551  56.128 13.1  Teh  6 0.2 2.8LTeh                1
 GAP=121                                                                       E
 Iranian Seismological Center, Institute of Geophysics, University of Tehran   6
 STAT SP IPHASW D HRMM SECON CODA AMPLIT PERI AZIMU VELO SNR AR TRES  W DIS CAZ7
 BNDS BZ EPg  0   1846 43.2                                      0.0   17.0 166
 MZN1 BZ E    0   1847 37.64      2532.3  0.8                           156 291
 MZN1 BZ EPg  0   1847 5.8                                      -0.0    156 291
 JASK BZ E    0   1848  2.44      2567.0 0.76                           254 137
 JASK BZ EPn  0   1847 18.6                                      0.2    254 137
 KBAM BZ E    0   1848  5.50      1166.0  0.4                           288  52
 UOSS BZ EPn  0   1847 22.6                                     -0.1    289 178
 KBAM BZ EPn  0   1847 22.9                                      0.2    288  52
 SRVN BZ E    0   1849  7.34        72.9 0.84                           620  90
 SRVN BZ EPn  0   1848 3.5                                      -0.3    620  90

 2021 1114 1857 21.8 L  27.601  56.220 17.8  Teh  6 0.5 2.7LTeh                1
 GAP=109                                                                       E
 Iranian Seismological Center, Institute of Geophysics, University of Tehran   6
 STAT SP IPHASW D HRMM SECON CODA AMPLIT PERI AZIMU VELO SNR AR TRES  W DIS CAZ7
 BNB  BZ E    0   1857 41.76     23069.8 0.32                          36.0 118
 BNB  BZ EPg  0   1857 28.6                                     -0.2   36.0 118
 MZN1 BE E    0   1858 14.86      1254.1  0.6                           163 289
 MZN1 BE EPg  0   1857 49.5                                      0.2    163 289
 UOSS BZ E    0   1858 58.29       722.5 0.46                           294 180
 CHMN BZ E    0   1858 18.92       182.8  0.4                           282  27
 JASK BZ E    0   1858 56.24       816.4 0.56                           252 139
 JASK BZ EPn  0   1858 1.0                                       0.8    252 139
 CHMN BZ EPn  0   1858 4.0                                      -0.2    282  27
 UOSS BZ EPn  0   1858 4.8                                      -0.7    294 180
 KANR BZ E    0   1858 19.52       158.4 0.28                           378 348
 KANR BZ EPn  0   1858 16.0                                     -0.1    378 348

 2021 1114 1907  5.8 L  27.541  56.276 11.8  Teh 17 0.4 3.5LTeh                1
 GAP=77                                                                        E
 Iranian Seismological Center, Institute of Geophysics, University of Tehran   6
 STAT SP IPHASW D HRMM SECON CODA AMPLIT PERI AZIMU VELO SNR AR TRES  W DIS CAZ7
 MZN1 BE E    0   1908  3.60      6757.9  0.4                           170 290
 BNDS BZ EPg  0   1907 9.5                                      -0.4   19.0 213
 BNB  BZ EPg  0   1907 11.5                                      0.3   28.0 111
 BNDS BZ ESg  0   1907 12.9                                     -0.2   19.0 213
 KSHB BZ E    0   1908 55.36       989.7 0.84                           320 340
 KBAM BZ E    0   1908 23.68      2121.1 0.84                           277  50
 KANR BZ E    0   1908  4.34       610.4 0.36                           386 348
 BAF  SZ E    0   1909 20.35       284.6  0.6                           454 351
 MZN1 BE EPg  0   1907 35.0                                      0.0    170 290
 NHDN BZ E    0   1909 52.28       649.8  0.6                           562  40
 KBAM BE EPn  0   1907 48.9                                      0.7    277  50
 CHMN BN EPn  0   1907 49.3                                     -0.1    285  25
 MZN1 BZ ESg  0   1907 58.1                                      0.0    170 290
 KANR BZ EPn  0   1908 1.5                                      -0.4    386 348
 BAF  SN EPn  0   1908 9.5                                      -0.8    454 351
 TAFT BZ EPn  0   1908 16.6                                     -0.3    506 337
 KLNJ BE EPn  0   1908 27.7                                     -0.3    595 311
 WBK  BZ EPn  0   1908 29.4                                     -0.0    610 153
 SRVN BN EPn  0   1908 29.4                                      0.5    605  90
 ANAR BZ EPn  4   1908 36.7                                     -0.6    672 339
 ZNGN BZ EPn  0   1908 44.4                                     -0.2    729 315
 JHBN BZ EPn  4   1908 46.6                                     -0.6    750 315
 PIR  SZ EPn  4   1908 49.1                                     -0.6    770 319

 2021 1114 1910  3.8 L  27.591  56.322 14.7  Teh  7 0.4 2.9LTeh                1
 GAP=97                                                                        E
 Iranian Seismological Center, Institute of Geophysics, University of Tehran   6
 STAT SP IPHASW D HRMM SECON CODA AMPLIT PERI AZIMU VELO SNR AR TRES  W DIS CAZ7
 BNB  BZ E    0   1910 18.80    103464.0 0.44                          27.0 126
 BNDS BZ EPg  0   1910 9.4                                      -0.7   26.0 215
 BNB  BZ EPg  0   1910 10.3                                      0.5   27.0 126
 MZN1 BZ E    0   1911 10.90      2421.8  0.8                           172 288
 MZN1 BZ EPg  0   1910 33.9                                     -0.2    172 288
 CHMN BZ E    0   1911 38.22       722.7 0.64                           278  25
 KBAM BZ E    0   1911 27.58      1189.9 0.44                           270  50
 JASK BZ EPn  0   1910 42.8                                      0.2    245 141
 KBAM BZ EPn  0   1910 45.8                                     -0.1    270  50
 CHMN BZ EPn  0   1910 47.0                                     -0.3    278  25
 UOSS BZ EPn  0   1910 48.8                                      0.2    293 182
 MZN1 BE ESg  0   1910 56.8                                      0.0    172 288

 2021 1114 1918 31.5 L  27.541  56.140 19.4  Teh  7 0.4 2.7LTeh                1
 GAP=113                                                                       E
 Iranian Seismological Center, Institute of Geophysics, University of Tehran   6
 STAT SP IPHASW D HRMM SECON CODA AMPLIT PERI AZIMU VELO SNR AR TRES  W DIS CAZ7
 KANR BZ E    0   1919 28.12       148.9 0.28                           383 349
 CHMN BZ E    0   1920  5.16       222.6 0.44                           291  28
 BNB  BZ E    0   1918 49.86     21557.5 0.24                          41.0 104
 BNB  BZ EPg  0   1918 39.3                                     -0.0   41.0 104
 UOSS BZ E    0   1919 32.77       589.9 0.36                           288 179
 JASK BZ EPn  0   1919 10.0                                      0.2    253 137
 KBAM BZ E    0   1919 22.94       396.5 0.36                           287  52
 UOSS BZ EPn  0   1919 13.9                                     -0.2    288 179
 CHMN BZ EPn  0   1919 14.0                                     -0.8    291  28
 KBAM BZ EPn  0   1919 14.6                                      0.5    287  52
 MZN1 BE ESg  0   1919 18.3                                      0.0    157 292
 KANR BZ EPn  0   1919 26.5                                      0.4    383 349

 2021 1114 1930  7.9 L  27.486  56.043 13.5  Teh  8 0.3 2.9LTeh                1
 GAP=118                                                                       E
 Iranian Seismological Center, Institute of Geophysics, University of Tehran   6
 STAT SP IPHASW D HRMM SECON CODA AMPLIT PERI AZIMU VELO SNR AR TRES  W DIS CAZ7
 MZN1 BZ E    0   1931  2.74      3635.0 0.64                           151 295
 BNDS BZ EPg  0   1930 12.3                                     -0.3   16.0 127
 BNB  BZ EPg  0   1930 17.9                                      0.3   49.0  95
 JASK BZ EPn  0   1930 47.9                                     -0.2    255 134
 CHMN BZ E    0   1931 32.66      1459.3 0.68                           301  29
 KBAM BZ E    0   1931 45.38       996.0 0.68                           299  52
 UOSS BZ EPn  0   1930 51.7                                      0.2    282 177
 KBAM BZ EPn  0   1930 54.1                                      0.4    299  52
 CHMN BZ EPn  0   1930 54.2                                     -0.2    301  29
 MZN1 BE ESg  0   1930 54.3                                      0.0    151 295
 KANR BZ E    0   1932  9.90       393.5 1.28                           388 351
 KANR BZ EPn  0   1931 4.6                                      -0.3    388 351

 2021 1114 1950 18.2 L  27.736  56.364 10.0  Teh  3 0.4 2.8LTeh                1
 GAP=131                                                                       E
 Iranian Seismological Center, Institute of Geophysics, University of Tehran   6
 STAT SP IPHASW D HRMM SECON CODA AMPLIT PERI AZIMU VELO SNR AR TRES  W DIS CAZ7
 BNB  BZ EPg  0   1950 24.8                                     -0.2   36.0 151
 MZN1 BE EPn  0   1950 46.8                                     -0.1    172 282
 CHMN BZ EPn  0   1950 59.8                                      0.6    262  26
 BNB  BZ E    0   1950 35.78     15083.4 0.44                          36.0 151
 CHMN BN ESg  0   1951 36.7                                      0.0    262  26
 CHMN BZ E    0   1951 44.42       324.6 0.52                           262  26
 MZN1 BZ E    0   1951 14.26      1588.3 0.24                           172 282

 2021 1114 2009 49.2 L  27.542  56.093 18.3  Teh 21 0.4 3.5LTeh                1
 GAP=114                                                                       E
 Iranian Seismological Center, Institute of Geophysics, University of Tehran   6
 STAT SP IPHASW D HRMM SECON CODA AMPLIT PERI AZIMU VELO SNR AR TRES  W DIS CAZ7
 BNB  BZ E    0   2010 11.66    114639.0 0.56                          45.0 103
 KANR BZ E    0   2010 46.00       881.5 0.24                           382 350
 KSHB BZ E    0   2011 23.08      1133.4 0.56                           314 343
 CHMN BZ E    0   2011 10.84      1270.5 0.28                           293  28
 BAF  SZ E    0   2010 53.50       532.1 0.16                           451 354
 KBAM BZ E    0   2011 10.74      2106.7 0.48                           291  52
 JASK BZ E    0   2011 20.90      4415.1 0.84                           256 136
 BNDS BZ EPg  0   2009 53.7                                     -0.1   18.0 154
 BNB  BZ EPg  0   2009 56.9                                     -0.7   45.0 103
 NHDN BZ E    0   2012 31.76       589.8 0.76                           574  41
 BNB  BZ ESg  0   2010 4.4                                       0.4   45.0 103
 KLNJ BZ E    0   2012 22.92       340.6 0.52                           582 312
 MZN1 BE EPg  0   2010 15.5                                      0.5    153 292
 TAFT BZ E    0   2011  5.72       427.7 0.24                           499 339
 JASK BZ EPn  0   2010 28.3                                      0.3    256 136
 UOSS BZ EPn  0   2010 32.3                                      0.4    288 178
 KBAM BZ EPn  0   2010 32.8                                      0.4    291  52
 CHMN BZ EPn  0   2010 33.2                                      0.3    293  28
 MZN1 BE ESg  0   2010 34.8                                      0.2    153 292
 KANR BZ EPn  0   2010 43.8                                     -0.0    382 350
 BAF  SZ EPn  0   2010 51.7                                     -0.7    451 354
 HOQ  BZ EPn  0   2010 52.1                                     -0.6    455 164
 TAFT BZ EPn  0   2010 58.3                                     -0.1    499 339
 NGCH BZ EPn  0   2011 5.3                                      -0.1    558 115
 KLNJ BZ EPn  0   2011 8.1                                      -0.6    582 312
 SRVN BZ EPn  0   2011 13.9                                      0.2    623  90
 ZNGN BZ EPn  0   2011 25.7                                      0.3    716 316
 JHBN BZ EPn  4   2011 27.4                                     -0.7    738 316
 PIR  SZ EPn  4   2011 29.8                                     -0.8    759 320
 KLH  SZ EPn  4   2011 31.2                                     -1.2    773 327
 SFB  BZ EPn  0   2011 40.4                                     -0.0    839 335

 2021 1114 2023 11.4 L  27.463  56.024 13.6  Teh  8 0.4 2.9LTeh                1
 GAP=162                                                                       E
 Iranian Seismological Center, Institute of Geophysics, University of Tehran   6
 STAT SP IPHASW D HRMM SECON CODA AMPLIT PERI AZIMU VELO SNR AR TRES  W DIS CAZ7
 BNDS BZ EPg  0   2023 15.9                                     -0.3   16.0 116
 BNB  BZ EPg  0   2023 21.4                                      0.1   51.0  92
 KRBR BZ E    0   2024 27.10       616.2 0.56                           288  14
 KBAM BZ E    0   2024 58.88       820.7 0.88                           302  52
 CHMN BZ E    0   2024 34.72       909.6 0.96                           304  29
 MZN1 BE EPg  0   2023 38.5                                      0.5    150 296
 KRBR BZ EPn  4   2023 51.3                                     -5.1    288  14
 JASK BZ EPn  0   2023 51.5                                     -0.1    255 134
 MZN1 BE ESg  0   2023 57.5                                     -0.1    150 296
 CHMN BZ EPn  0   2023 58.2                                     -0.1    304  29
 KBAM BZ EPn  0   2023 58.3                                      0.7    302  52
 KANR BZ EPn  0   2024 7.9                                      -0.8    390 351
 MZN1 BZ E    0   2024  4.26      4900.3 0.56                           150 296

